{"type":"FeatureCollection","features":[{"type":"Feature","geometry":{"type":"Polygon","coordinates":[[[-81.3893,28.54105],[-81.3806,28.54105],[-81.3806,28.5544],[-81.3893,28.5544],[-81.3893,28.54105]]]},"properties":{"block_id":"120951240001001","school_id":"sch_34_m_w_7_34_m_n_7","kids_est":15,"class":"green","shortest":{"len_m":332.4,"mean_c":37.88,"peak_c":39.08,"dose":22.5},"coolest":{"len_m":369.1,"mean_c":36.51,"peak_c":37.51,"dose":18.0},"delta_mean_c":-1.37,"delta_dose_pct":-20,"distance_mi":0.165,"status_now":"walk","status_rec":"walk","reason":"Shortest route already under threshold (dose 22).","safe_until_hour":null}},{"type":"Feature","geometry":{"type":"Polygon","coordinates":[[[-81.398,28.5544],[-81.3893,28.5544],[-81.3893,28.56775],[-81.398,28.56775],[-81.398,28.5544]]]},"properties":{"block_id":"120951239001002","school_id":"sch_34_m_w_7_34_m_n_7","kids_est":44,"class":"green","shortest":{"len_m":1843.8,"mean_c":37.03,"peak_c":38.23,"dose":103.2},"coolest":{"len_m":2031.2,"mean_c":36.03,"peak_c":37.03,"dose":85.4},"delta_mean_c":-1.0,"delta_dose_pct":-17,"distance_mi":0.917,"status_now":"walk","status_rec":"walk","reason":"Shortest route already under threshold (dose 103).","safe_until_hour":null}}]}