{"type":"FeatureCollection","features":[{"type":"Feature","geometry":{"type":"Polygon","coordinates":[[[-81.454,28.5548],[-81.44,28.5548],[-81.44,28.5744],[-81.454,28.5744],[-81.454,28.5548]]]},"properties":{"block_id":"120951234001003","school_id":"sch_mollie_ray_elementary","kids_est":6,"class":"green","shortest":{"len_m":908.8,"mean_c":36.21,"peak_c":37.41,"dose":40.5},"coolest":{"len_m":1143.7,"mean_c":33.77,"peak_c":34.77,"dose":12.3},"delta_mean_c":-2.44,"delta_dose_pct":-70,"distance_mi":0.452,"status_now":"walk","status_rec":"walk","reason":"Shortest route already under threshold (dose 40).","safe_until_hour":null}}]}