{"type":"FeatureCollection","features":[{"type":"Feature","geometry":{"type":"Polygon","coordinates":[[[-81.398,28.594],[-81.384,28.594],[-81.384,28.6136],[-81.398,28.6136],[-81.398,28.594]]]},"properties":{"block_id":"120951238001005","school_id":"sch_pace_center_for_girls","kids_est":22,"class":"green","shortest":{"len_m":723.6,"mean_c":37.22,"peak_c":38.42,"dose":42.4},"coolest":{"len_m":910.3,"mean_c":34.03,"peak_c":35.03,"dose":13.0},"delta_mean_c":-3.19,"delta_dose_pct":-69,"distance_mi":0.36,"status_now":"walk","status_rec":"walk","reason":"Shortest route already under threshold (dose 42).","safe_until_hour":null}},{"type":"Feature","geometry":{"type":"Polygon","coordinates":[[[-81.384,28.594],[-81.37,28.594],[-81.37,28.6136],[-81.384,28.6136],[-81.384,28.594]]]},"properties":{"block_id":"120951239001005","school_id":"sch_pace_center_for_girls","kids_est":32,"class":"green","shortest":{"len_m":1105.4,"mean_c":37.16,"peak_c":38.36,"dose":63.9},"coolest":{"len_m":1220.2,"mean_c":36.09,"peak_c":37.09,"dose":52.4},"delta_mean_c":-1.07,"delta_dose_pct":-18,"distance_mi":0.549,"status_now":"walk","status_rec":"walk","reason":"Shortest route already under threshold (dose 64).","safe_until_hour":null}}]}