{"type":"FeatureCollection","features":[{"type":"Feature","geometry":{"type":"Polygon","coordinates":[[[-81.398,28.496],[-81.384,28.496],[-81.384,28.5156],[-81.398,28.5156],[-81.398,28.496]]]},"properties":{"block_id":"120951238001000","school_id":"sch_jones_high","kids_est":12,"class":"yellow","shortest":{"len_m":3958.6,"mean_c":37.16,"peak_c":38.36,"dose":228.7},"coolest":{"len_m":4950.4,"mean_c":34.1,"peak_c":35.1,"dose":75.8},"delta_mean_c":-3.06,"delta_dose_pct":-67,"distance_mi":1.968,"status_now":"walk","status_rec":"reroute","reason":"Shortest route exceeds threshold, but coolest route mean 34.1C stays under it (dose 76).","safe_until_hour":null}},{"type":"Feature","geometry":{"type":"Polygon","coordinates":[[[-81.384,28.496],[-81.37,28.496],[-81.37,28.5156],[-81.384,28.5156],[-81.384,28.496]]]},"properties":{"block_id":"120951239001000","school_id":"sch_jones_high","kids_est":33,"class":"red","shortest":{"len_m":4727.3,"mean_c":37.65,"peak_c":38.85,"dose":305.3},"coolest":{"len_m":5289.5,"mean_c":36.2,"peak_c":37.2,"dose":235.2},"delta_mean_c":-1.45,"delta_dose_pct":-23,"distance_mi":2.35,"status_now":"bus","status_rec":"bus_eligible","reason":"Coolest route mean 36.2C exceeds threshold (110 C-min dose, actual 235).","safe_until_hour":"10:00"}},{"type":"Feature","geometry":{"type":"Polygon","coordinates":[[[-81.412,28.5156],[-81.398,28.5156],[-81.398,28.5352],[-81.412,28.5352],[-81.412,28.5156]]]},"properties":{"block_id":"120951237001001","school_id":"sch_jones_high","kids_est":36,"class":"green","shortest":{"len_m":1257.8,"mean_c":36.69,"peak_c":37.89,"dose":64.5},"coolest":{"len_m":1567.7,"mean_c":34.02,"peak_c":35.02,"dose":22.3},"delta_mean_c":-2.67,"delta_dose_pct":-65,"distance_mi":0.625,"status_now":"walk","status_rec":"walk","reason":"Shortest route already under threshold (dose 64).","safe_until_hour":null}},{"type":"Feature","geometry":{"type":"Polygon","coordinates":[[[-81.398,28.5156],[-81.384,28.5156],[-81.384,28.5352],[-81.398,28.5352],[-81.398,28.5156]]]},"properties":{"block_id":"120951238001001","school_id":"sch_jones_high","kids_est":13,"class":"green","shortest":{"len_m":1548.9,"mean_c":37.38,"peak_c":38.58,"dose":94.2},"coolest":{"len_m":1938.5,"mean_c":34.15,"peak_c":35.15,"dose":30.9},"delta_mean_c":-3.23,"delta_dose_pct":-67,"distance_mi":0.77,"status_now":"walk","status_rec":"walk","reason":"Shortest route already under threshold (dose 94).","safe_until_hour":null}}]}