{"type":"FeatureCollection","features":[{"type":"Feature","geometry":{"type":"Polygon","coordinates":[[[-81.4763,28.5277],[-81.4676,28.5277],[-81.4676,28.54105],[-81.4763,28.54105],[-81.4763,28.5277]]]},"properties":{"block_id":"120951230001000","school_id":"sch_sunshine_high_school_greater_orlando_campus","kids_est":19,"class":"green","shortest":{"len_m":540.3,"mean_c":35.01,"peak_c":36.21,"dose":15.1},"coolest":{"len_m":599.0,"mean_c":34.45,"peak_c":35.45,"dose":12.1},"delta_mean_c":-0.56,"delta_dose_pct":-20,"distance_mi":0.269,"status_now":"walk","status_rec":"walk","reason":"Shortest route already under threshold (dose 15).","safe_until_hour":null}}]}