{"type":"FeatureCollection","features":[{"type":"Feature","geometry":{"type":"Polygon","coordinates":[[[-81.4676,28.56775],[-81.4589,28.56775],[-81.4589,28.5811],[-81.4676,28.5811],[-81.4676,28.56775]]]},"properties":{"block_id":"120951231001003","school_id":"sch_ucp_pine_hills_charter","kids_est":36,"class":"green","shortest":{"len_m":860.5,"mean_c":34.67,"peak_c":35.87,"dose":20.0},"coolest":{"len_m":944.2,"mean_c":34.29,"peak_c":35.29,"dose":16.9},"delta_mean_c":-0.38,"delta_dose_pct":-16,"distance_mi":0.428,"status_now":"walk","status_rec":"walk","reason":"Shortest route already under threshold (dose 20).","safe_until_hour":null}},{"type":"Feature","geometry":{"type":"Polygon","coordinates":[[[-81.4589,28.56775],[-81.4502,28.56775],[-81.4502,28.5811],[-81.4589,28.5811],[-81.4589,28.56775]]]},"properties":{"block_id":"120951232001003","school_id":"sch_ucp_pine_hills_charter","kids_est":21,"class":"green","shortest":{"len_m":459.9,"mean_c":34.86,"peak_c":36.06,"dose":11.9},"coolest":{"len_m":510.4,"mean_c":34.34,"peak_c":35.34,"dose":9.5},"delta_mean_c":-0.52,"delta_dose_pct":-20,"distance_mi":0.229,"status_now":"walk","status_rec":"walk","reason":"Shortest route already under threshold (dose 12).","safe_until_hour":null}}]}