{"type":"FeatureCollection","features":[{"type":"Feature","geometry":{"type":"Polygon","coordinates":[[[-81.41623099975266,28.53458099998737],[-81.41622900010283,28.53448100012623],[-81.41604499997982,28.53448900021332],[-81.41538700020388,28.534498000211908],[-81.41491400037587,28.534510999857797],[-81.4140799999745,28.53450099994824],[-81.41421499969373,28.53454200028167],[-81.41442200028126,28.534570000172994],[-81.41449199970315,28.53458000007605],[-81.41483900003279,28.53458000007605],[-81.41588299959811,28.53458000007605],[-81.41623099975266,28.53458099998737]]]},"properties":{"block_id":"120950117021012","school_id":"sch_orange_center_elementary","kids_est":0,"class":"green","shortest":{"len_m":975.2,"mean_c":38.16,"peak_c":38.2,"dose":70.1},"coolest":{"len_m":975.9,"mean_c":38.15,"peak_c":38.2,"dose":70.0},"delta_mean_c":-0.01,"delta_dose_pct":0,"distance_mi":0.392,"status_now":"walk","status_rec":"walk","reason":"Shortest route already under threshold (dose 70).","safe_until_hour":null}},{"type":"Feature","geometry":{"type":"Polygon","coordinates":[[[-81.4140799999745,28.53450099994824],[-81.41406200043116,28.534273999930726],[-81.41402700027106,28.533685999787895],[-81.41397200001948,28.53345900038236],[-81.41395399957781,28.533195000131883],[-81.41384399997295,28.531824000051465],[-81.41381999968351,28.5318289997388],[-81.41371000007867,28.53184900006407],[-81.41359399972771,28.531870000322655],[-81.4134940001686,28.531883000292684],[-81.41328800030426,28.53191100010134],[-81.41300000042418,28.531937000029714],[-81.41284200024043,28.531944000373546],[-81.41271900021678,28.53194999999147],[-81.41262399978221,28.531950999927748],[-81.41263300000305,28.532416999983546],[-81.41264499969863,28.53303400033006],[-81.41265200026963,28.533818000169994],[-81.41265499974436,28.534028000221856],[-81.4126630001403,28.534284999775938],[-81.4128749998524,28.534280000205204],[-81.41351199971193,28.534266999741607],[-81.4136289998878,28.534264999913006],[-81.41367699956837,28.534256999808893],[-81.41371799957626,28.53423300028218],[-81.41373199981996,28.534257999723277],[-81.4137770000258,28.534334000292336],[-81.41379200009443,28.534359999622893],[-81.41386200041462,28.534393999830566],[-81.4140799999745,28.53450099994824]]]},"properties":{"block_id":"120950117021008","school_id":"sch_orange_center_elementary","kids_est":11,"class":"green","shortest":{"len_m":800.5,"mean_c":38.14,"peak_c":38.2,"dose":57.1},"coolest":{"len_m":800.5,"mean_c":38.14,"peak_c":38.2,"dose":57.1},"delta_mean_c":0.0,"delta_dose_pct":0,"distance_mi":0.275,"status_now":"walk","status_rec":"walk","reason":"Shortest route already under threshold (dose 57).","safe_until_hour":null}},{"type":"Feature","geometry":{"type":"Polygon","coordinates":[[[-81.41056000004271,28.540075000137282],[-81.4104179997525,28.53995899983551],[-81.4100450003819,28.53965500004415],[-81.40999900035114,28.539614000121972],[-81.40986000043398,28.53949800010177],[-81.40954800026444,28.53926100034366],[-81.40950700025657,28.539229999729844],[-81.40935200044585,28.53910800007682],[-81.40879000003108,28.53869900024806],[-81.40874700037337,28.53866800025804],[-81.40860099988518,28.53853999992267],[-81.40808500039947,28.538171000089246],[-81.4075189997867,28.537746000101954],[-81.40645199975685,28.536936999909944],[-81.40534500044235,28.5362290003811],[-81.40534500044235,28.536275000307683],[-81.40534500044235,28.536348999632885],[-81.40534500044235,28.536382999987893],[-81.40534399971912,28.536422999695237],[-81.40557700024594,28.536546999875185],[-81.40600700041624,28.53682000020895],[-81.40647699987122,28.537163999714767],[-81.40733600038693,28.537811000257435],[-81.40780199964391,28.538216000080393],[-81.40845600012022,28.538717000314453],[-81.40903299970532,28.539140999673453],[-81.40972300016662,28.539653000317795],[-81.41027200016262,28.540077999714775],[-81.4103419995845,28.54007699985562],[-81.41039299963815,28.540075999996464],[-81.41056000004271,28.540075000137282]]]},"properties":{"block_id":"120950183003044","school_id":"sch_orange_center_elementary","kids_est":0,"class":"green","shortest":{"len_m":517.7,"mean_c":38.1,"peak_c":38.1,"dose":36.6},"coolest":{"len_m":517.7,"mean_c":38.1,"peak_c":38.1,"dose":36.6},"delta_mean_c":0.0,"delta_dose_pct":0,"distance_mi":0.304,"status_now":"walk","status_rec":"walk","reason":"Shortest route already under threshold (dose 37).","safe_until_hour":null}},{"type":"Feature","geometry":{"type":"Polygon","coordinates":[[[-81.4111800001838,28.53991700017097],[-81.41118100000872,28.539779000366092],[-81.41117000013807,28.539467000346868],[-81.41117000013807,28.539439000178533],[-81.41117000013807,28.539316999978336],[-81.41116900031317,28.539168999920996],[-81.41116799958994,28.53899300015804],[-81.41116000009232,28.53872500007992],[-81.41115699971928,28.53857799985351],[-81.4108329998542,28.53858200013615],[-81.41043399964602,28.538587000292015],[-81.41027499963735,28.538575000233244],[-81.41011999982666,28.538545000080457],[-81.40997000003883,28.53849599994406],[-81.40988300000019,28.53845899985823],[-81.40958599989926,28.53833299980955],[-81.4094889998149,28.538294999790356],[-81.40943500028654,28.538280999945982],[-81.40939900030152,28.538272000270517],[-81.40908299993403,28.53823500010596],[-81.40898800039778,28.538206999610193],[-81.40896699958307,28.538197000051397],[-81.40890100035915,28.538166999790995],[-81.40883299968877,28.538114999845497],[-81.40878099981023,28.538051999634263],[-81.4087570004191,28.538003999936606],[-81.40872300008392,28.537871000183337],[-81.40865399958862,28.537652000170308],[-81.40850999964859,28.537159000280568],[-81.40848899973219,28.537030999690288],[-81.40848799990728,28.536997000333514],[-81.40764099998545,28.537004000341263],[-81.40749500039557,28.537007999894538],[-81.40748600017474,28.537002999663738],[-81.40749500039557,28.536966999731405],[-81.40749500039557,28.53691200031524],[-81.40747000028124,28.535555999775912],[-81.40642099979472,28.535566000374548],[-81.40643300038859,28.53400399985381],[-81.40643900023638,28.53389300034933],[-81.4063439998018,28.533894000267164],[-81.40625000009048,28.533896000102814],[-81.40623199964882,28.533896000102814],[-81.40591799982946,28.533903000316574],[-81.40561400005585,28.533903000316574],[-81.40540800019154,28.533904000234315],[-81.40540900001643,28.53406500028532],[-81.4054120003895,28.534478000389377],[-81.40540800019154,28.534551000275727],[-81.40540099962053,28.53471300003748],[-81.40539399994783,28.534919000251712],[-81.40539300012293,28.534973000011373],[-81.40538899992497,28.535325999950814],[-81.4053710003816,28.535537000056454],[-81.40535499958978,28.535743000238114],[-81.40535200011504,28.535790000276773],[-81.40534600026724,28.53591600020983],[-81.40534600026724,28.535933999962477],[-81.40534600026724,28.53598199981397],[-81.40534500044235,28.536055000236765],[-81.40534500044235,28.5362290003811],[-81.40645199975685,28.536936999909944],[-81.4075189997867,28.537746000101954],[-81.40808500039947,28.538171000089246],[-81.40860099988518,28.53853999992267],[-81.40874700037337,28.53866800025804],[-81.40879000003108,28.53869900024806],[-81.40935200044585,28.53910800007682],[-81.40950700025657,28.539229999729844],[-81.40954800026444,28.53926100034366],[-81.40986000043398,28.53949800010177],[-81.40999900035114,28.539614000121972],[-81.4100450003819,28.53965500004415],[-81.4104179997525,28.53995899983551],[-81.41056000004271,28.540075000137282],[-81.4111800001838,28.54006800033357],[-81.4111800001838,28.53991700017097]]]},"properties":{"block_id":"120950117021002","school_id":"sch_orange_center_elementary","kids_est":10,"class":"green","shortest":{"len_m":527.5,"mean_c":38.1,"peak_c":38.1,"dose":37.3},"coolest":{"len_m":527.5,"mean_c":38.1,"peak_c":38.1,"dose":37.3},"delta_mean_c":0.0,"delta_dose_pct":0,"distance_mi":0.226,"status_now":"walk","status_rec":"walk","reason":"Shortest route already under threshold (dose 37).","safe_until_hour":null}},{"type":"Feature","geometry":{"type":"Polygon","coordinates":[[[-81.4162969998749,28.538176000264603],[-81.41628799965407,28.537952999789983],[-81.41627799960833,28.537666999980285],[-81.41627199976053,28.537284000269256],[-81.41626900028581,28.537062000161946],[-81.41588000012337,28.537070000053074],[-81.41570799969593,28.53707400039299],[-81.41540999977009,28.537076000168348],[-81.41471500018423,28.53709399972284],[-81.41432699984672,28.53710500006287],[-81.41428800038696,28.537105999950217],[-81.4142270002876,28.537107999724917],[-81.41418999957936,28.537100999724075],[-81.41417399968583,28.537092999835362],[-81.41415600014248,28.537084999945975],[-81.4141419998988,28.53707299971619],[-81.41413000020322,28.537060000386383],[-81.41411299958646,28.53702999980221],[-81.4141079995636,28.536997000333514],[-81.41413199985304,28.536902999733698],[-81.4142680002955,28.5363750000446],[-81.41431400032624,28.536200000245405],[-81.41435799980886,28.536021999673498],[-81.41436700002969,28.53598700009317],[-81.4144039998396,28.535800999963747],[-81.41442599958091,28.535612999702963],[-81.4144309996038,28.535480000088235],[-81.41443499980174,28.5354060001528],[-81.41444300019766,28.53537200027167],[-81.41446300028916,28.535341999996078],[-81.41449199970315,28.535317999927333],[-81.41450900031991,28.53530999990318],[-81.41454699995475,28.535300000069395],[-81.4148399998577,28.535293999853057],[-81.415895000192,28.53527200037205],[-81.41596999963673,28.535270999678087],[-81.41624699964618,28.5352590000309],[-81.41624300034653,28.535123000250877],[-81.41623400012571,28.53471599976768],[-81.41623099975266,28.53458099998737],[-81.41588299959811,28.53458000007605],[-81.41483900003279,28.53458000007605],[-81.41449199970315,28.53458000007605],[-81.41442200028126,28.534570000172994],[-81.41421499969373,28.53454200028167],[-81.4140799999745,28.53450099994824],[-81.41404499981441,28.534671999770588],[-81.41409199967006,28.53507500000809],[-81.41394699990512,28.536140000157193],[-81.41377600020088,28.536787999775658],[-81.41370599988069,28.53697499962975],[-81.41363899993354,28.537119000063498],[-81.41349099979554,28.537819999972278],[-81.41343600044226,28.538275999775614],[-81.41331599989334,28.538959999725865],[-81.4133400001828,28.53971200012119],[-81.41336000027428,28.540035000238127],[-81.41351799955972,28.540032999729828],[-81.41352099993277,28.53995000030337],[-81.41352699978056,28.539765999791886],[-81.41356100011573,28.538976999878077],[-81.41356399959047,28.538965999733495],[-81.41371799957626,28.538972999610422],[-81.4139319998365,28.538963999994063],[-81.41405499986014,28.538958999856096],[-81.41412400035543,28.538956000246735],[-81.41419399977732,28.538952999848135],[-81.41419499960222,28.53902300018326],[-81.41420299999815,28.539660000149087],[-81.41420800002102,28.540025000063665],[-81.41459999965818,28.540019999976117],[-81.41476500041294,28.540016999607808],[-81.41525999998227,28.540009999800244],[-81.41542599966363,28.54000899994045],[-81.41552600012105,28.54000899994045],[-81.4158259996967,28.540009999800244],[-81.41592600015413,28.540010999660034],[-81.415923999606,28.539664000390648],[-81.41592100013126,28.538625000205847],[-81.41592100013126,28.53837300035492],[-81.41593299982682,28.53832699976588],[-81.41595700011626,28.538287999868366],[-81.41599599957601,28.538252000375156],[-81.41601300019276,28.538242999908036],[-81.41604300033,28.538229000056702],[-81.41606800044435,28.53822100025357],[-81.41622499990487,28.53819000012292],[-81.4162969998749,28.538176000264603]]]},"properties":{"block_id":"120950117011019","school_id":"sch_orange_center_elementary","kids_est":26,"class":"green","shortest":{"len_m":1240.6,"mean_c":38.15,"peak_c":38.2,"dose":89.0},"coolest":{"len_m":1241.3,"mean_c":38.14,"peak_c":38.2,"dose":88.9},"delta_mean_c":-0.01,"delta_dose_pct":0,"distance_mi":0.444,"status_now":"walk","status_rec":"walk","reason":"Shortest route already under threshold (dose 89).","safe_until_hour":null}},{"type":"Feature","geometry":{"type":"Polygon","coordinates":[[[-81.40742199970234,28.531007999762117],[-81.40741900022759,28.530849999616244],[-81.40741000000675,28.530376000125024],[-81.40740800035694,28.530217999820938],[-81.4074049999839,28.53008499971096],[-81.40739900013612,28.529687999868127],[-81.40739699958796,28.52955599983758],[-81.40732200014321,28.529567000175284],[-81.40726000021894,28.529576999763837],[-81.40709899966215,28.529593999851382],[-81.40711200008093,28.52969600031902],[-81.40700300030099,28.529701000107305],[-81.40700800032386,28.530129999998408],[-81.40668500028367,28.53041499979402],[-81.40608900043202,28.530677000009007],[-81.4060259997845,28.5307970000587],[-81.40596100038549,28.530881000327856],[-81.40589799973799,28.530942000199527],[-81.40596300003531,28.531019999893356],[-81.40638700035784,28.531018999948234],[-81.40695200024736,28.53100999965252],[-81.40742199970234,28.531007999762117]]]},"properties":{"block_id":"120950117022001","school_id":"sch_orange_center_elementary","kids_est":2,"class":"green","shortest":{"len_m":570.5,"mean_c":38.18,"peak_c":38.3,"dose":41.1},"coolest":{"len_m":570.5,"mean_c":38.18,"peak_c":38.3,"dose":41.1},"delta_mean_c":0.0,"delta_dose_pct":0,"distance_mi":0.263,"status_now":"walk","status_rec":"walk","reason":"Shortest route already under threshold (dose 41).","safe_until_hour":null}},{"type":"Feature","geometry":{"type":"Polygon","coordinates":[[[-81.40947999959407,28.532008000226412],[-81.40947700011932,28.53187599994478],[-81.40947100027155,28.53147300010074],[-81.40742800044842,28.531492999704394],[-81.40743199974807,28.531770000256575],[-81.40743099992316,28.531830999613632],[-81.40743000009826,28.532036999937326],[-81.40784000017707,28.532033000195355],[-81.4080030003837,28.53203100032435],[-81.40864000024324,28.53202699979299],[-81.40907000041355,28.532016999647663],[-81.40947999959407,28.532008000226412]]]},"properties":{"block_id":"120950117021020","school_id":"sch_orange_center_elementary","kids_est":0,"class":"green","shortest":{"len_m":374.6,"mean_c":38.14,"peak_c":38.2,"dose":26.8},"coolest":{"len_m":374.6,"mean_c":38.14,"peak_c":38.2,"dose":26.8},"delta_mean_c":0.0,"delta_dose_pct":0,"distance_mi":0.151,"status_now":"walk","status_rec":"walk","reason":"Shortest route already under threshold (dose 27).","safe_until_hour":null}},{"type":"Feature","geometry":{"type":"Polygon","coordinates":[[[-81.41626900028581,28.537062000161946],[-81.41626599991275,28.536880999799447],[-81.41625699969192,28.536340999687],[-81.4162540002172,28.53616100034979],[-81.41586599987967,28.536171999998025],[-81.41580099958234,28.53617499968671],[-81.4149310000943,28.536188999810896],[-81.41470199976544,28.536194999976335],[-81.41451199979464,28.536200000245405],[-81.41431400032624,28.536200000245405],[-81.4142680002955,28.5363750000446],[-81.41413199985304,28.536902999733698],[-81.4141079995636,28.536997000333514],[-81.41411299958646,28.53702999980221],[-81.41413000020322,28.537060000386383],[-81.4141419998988,28.53707299971619],[-81.41415600014248,28.537084999945975],[-81.41417399968583,28.537092999835362],[-81.41418999957936,28.537100999724075],[-81.4142270002876,28.537107999724917],[-81.41428800038696,28.537105999950217],[-81.41432699984672,28.53710500006287],[-81.41471500018423,28.53709399972284],[-81.41540999977009,28.537076000168348],[-81.41570799969593,28.53707400039299],[-81.41588000012337,28.537070000053074],[-81.41626900028581,28.537062000161946]]]},"properties":{"block_id":"120950117011020","school_id":"sch_orange_center_elementary","kids_est":3,"class":"green","shortest":{"len_m":1228.8,"mean_c":38.15,"peak_c":38.2,"dose":88.2},"coolest":{"len_m":1229.5,"mean_c":38.14,"peak_c":38.2,"dose":88.1},"delta_mean_c":-0.01,"delta_dose_pct":0,"distance_mi":0.429,"status_now":"walk","status_rec":"walk","reason":"Shortest route already under threshold (dose 88).","safe_until_hour":null}},{"type":"Feature","geometry":{"type":"Polygon","coordinates":[[[-81.40848799990728,28.536997000333514],[-81.40846000031819,28.53567800038518],[-81.40845399957209,28.53563400000059],[-81.40843799967855,28.535601999996356],[-81.4084119997393,28.535576000183042],[-81.40839599984577,28.53556499968337],[-81.40833899994438,28.5355500003633],[-81.40747000028124,28.535555999775912],[-81.40749500039557,28.53691200031524],[-81.40749500039557,28.536966999731405],[-81.40748600017474,28.537002999663738],[-81.40749500039557,28.537007999894538],[-81.40764099998545,28.537004000341263],[-81.40848799990728,28.536997000333514]]]},"properties":{"block_id":"120950117021003","school_id":"sch_orange_center_elementary","kids_est":3,"class":"green","shortest":{"len_m":354.8,"mean_c":38.1,"peak_c":38.1,"dose":25.1},"coolest":{"len_m":354.8,"mean_c":38.1,"peak_c":38.1,"dose":25.1},"delta_mean_c":0.0,"delta_dose_pct":0,"distance_mi":0.171,"status_now":"walk","status_rec":"walk","reason":"Shortest route already under threshold (dose 25).","safe_until_hour":null}},{"type":"Feature","geometry":{"type":"Polygon","coordinates":[[[-81.40743099992316,28.531830999613632],[-81.40743199974807,28.531770000256575],[-81.40742800044842,28.531492999704394],[-81.40602699960941,28.531510000272114],[-81.40602099976162,28.53110599987343],[-81.40596300003531,28.531019999893356],[-81.40581599972222,28.531020999838464],[-81.40568600002588,28.531021999783597],[-81.40536800000856,28.53102399967376],[-81.40538100042734,28.531228000110126],[-81.4053839999021,28.53198100037957],[-81.40546500009293,28.532012999905003],[-81.40553799988788,28.532035000066333],[-81.40561200040604,28.532051999757442],[-81.40576399984369,28.532070000170133],[-81.40578300011026,28.532069000234923],[-81.40623699967169,28.532052999692752],[-81.40655600041224,28.532048000016054],[-81.40683400024659,28.532045000209955],[-81.4070180003696,28.53204199961448],[-81.40728299978517,28.532037999872777],[-81.40743000009826,28.532036999937326],[-81.40743099992316,28.531830999613632]]]},"properties":{"block_id":"120950117021019","school_id":"sch_orange_center_elementary","kids_est":1,"class":"green","shortest":{"len_m":563.8,"mean_c":38.16,"peak_c":38.2,"dose":40.4},"coolest":{"len_m":563.8,"mean_c":38.16,"peak_c":38.2,"dose":40.4},"delta_mean_c":0.0,"delta_dose_pct":0,"distance_mi":0.222,"status_now":"walk","status_rec":"walk","reason":"Shortest route already under threshold (dose 40).","safe_until_hour":null}},{"type":"Feature","geometry":{"type":"Polygon","coordinates":[[[-81.41024399967522,28.540079000363093],[-81.41027200016262,28.540077999714775],[-81.40972300016662,28.539653000317795],[-81.40903299970532,28.539140999673453],[-81.40845600012022,28.538717000314453],[-81.40780199964391,28.538216000080393],[-81.40733600038693,28.537811000257435],[-81.40647699987122,28.537163999714767],[-81.40600700041624,28.53682000020895],[-81.40557700024594,28.536546999875185],[-81.40534399971912,28.536422999695237],[-81.40534500044235,28.53644000025676],[-81.40534500044235,28.536676000155698],[-81.40534700009216,28.536714999860774],[-81.40535299993995,28.53680700005874],[-81.40535999961263,28.53685500030172],[-81.40536999965839,28.536915999872015],[-81.40539200029801,28.537000999887056],[-81.40540499981849,28.537049000041655],[-81.4054340001308,28.537270000290498],[-81.4054330003059,28.537301999788212],[-81.40543199958266,28.537517000205753],[-81.40543800032876,28.538067000176543],[-81.4054419996284,28.53832300026273],[-81.40544300035164,28.538503999726327],[-81.40544599982636,28.538757999796527],[-81.40545300039737,28.539047000197325],[-81.40545800042025,28.53922799999544],[-81.40587099997381,28.539222999870002],[-81.40711100025602,28.539206999624973],[-81.40752499963449,28.53920300015517],[-81.40752800000755,28.539383999685278],[-81.4075389998782,28.539929999937378],[-81.40754300007616,28.54011199965565],[-81.40795200033007,28.540103999995495],[-81.40918199966823,28.540094999686573],[-81.40959299957197,28.540092000109578],[-81.41000299965079,28.540082999799626],[-81.4102140004363,28.540079000363093],[-81.41024399967522,28.540079000363093]]]},"properties":{"block_id":"120950183003043","school_id":"sch_orange_center_elementary","kids_est":0,"class":"green","shortest":{"len_m":1087.6,"mean_c":38.1,"peak_c":38.1,"dose":77.3},"coolest":{"len_m":1087.6,"mean_c":38.1,"peak_c":38.1,"dose":77.3},"delta_mean_c":0.0,"delta_dose_pct":0,"distance_mi":0.34,"status_now":"walk","status_rec":"walk","reason":"Shortest route already under threshold (dose 77).","safe_until_hour":null}},{"type":"Feature","geometry":{"type":"Polygon","coordinates":[[[-81.40625000009048,28.533896000102814],[-81.40623800039494,28.532977999723713],[-81.40623599984679,28.532762000375648],[-81.40623599984679,28.532663000296353],[-81.40623699967169,28.532052999692752],[-81.40578300011026,28.532069000234923],[-81.40576399984369,28.532070000170133],[-81.40561200040604,28.532051999757442],[-81.40553799988788,28.532035000066333],[-81.40546500009293,28.532012999905003],[-81.4053839999021,28.53198100037957],[-81.40538300007717,28.532490999650403],[-81.40540800019154,28.533904000234315],[-81.40561400005585,28.533903000316574],[-81.40591799982946,28.533903000316574],[-81.40623199964882,28.533896000102814],[-81.40625000009048,28.533896000102814]]]},"properties":{"block_id":"120950117021018","school_id":"sch_orange_center_elementary","kids_est":0,"class":"green","shortest":{"len_m":481.1,"mean_c":38.1,"peak_c":38.1,"dose":34.2},"coolest":{"len_m":481.1,"mean_c":38.1,"peak_c":38.1,"dose":34.2},"delta_mean_c":0.0,"delta_dose_pct":0,"distance_mi":0.197,"status_now":"walk","status_rec":"walk","reason":"Shortest route already under threshold (dose 34).","safe_until_hour":null}},{"type":"Feature","geometry":{"type":"Polygon","coordinates":[[[-81.40949999968554,28.53342599979529],[-81.4094960003859,28.53314200017522],[-81.4094899996398,28.532718000351885],[-81.40948399979203,28.532290999812684],[-81.40947999959407,28.532008000226412],[-81.40907000041355,28.532016999647663],[-81.40864000024324,28.53202699979299],[-81.40864899956577,28.532626999670494],[-81.40865100011389,28.532732000146222],[-81.40865500031185,28.532991000346275],[-81.40866399963438,28.533533000106733],[-81.40888299991748,28.53348899961566],[-81.40895700043565,28.53347400000009],[-81.40918500004128,28.533443999973294],[-81.40949999968554,28.53342599979529]]]},"properties":{"block_id":"120950117021016","school_id":"sch_orange_center_elementary","kids_est":0,"class":"green","shortest":{"len_m":356.2,"mean_c":38.14,"peak_c":38.2,"dose":25.5},"coolest":{"len_m":356.2,"mean_c":38.14,"peak_c":38.2,"dose":25.5},"delta_mean_c":0.0,"delta_dose_pct":0,"distance_mi":0.082,"status_now":"walk","status_rec":"walk","reason":"Shortest route already under threshold (dose 26).","safe_until_hour":null}},{"type":"Feature","geometry":{"type":"Polygon","coordinates":[[[-81.40866399963438,28.533533000106733],[-81.40865500031185,28.532991000346275],[-81.40865100011389,28.532732000146222],[-81.40864899956577,28.532626999670494],[-81.40864000024324,28.53202699979299],[-81.4080030003837,28.53203100032435],[-81.40784000017707,28.532033000195355],[-81.40743000009826,28.532036999937326],[-81.40728299978517,28.532037999872777],[-81.4070180003696,28.53204199961448],[-81.40683400024659,28.532045000209955],[-81.40655600041224,28.532048000016054],[-81.40623699967169,28.532052999692752],[-81.40623599984679,28.532663000296353],[-81.40623599984679,28.532762000375648],[-81.40623800039494,28.532977999723713],[-81.40625000009048,28.533896000102814],[-81.4063439998018,28.533894000267164],[-81.40643900023638,28.53389300034933],[-81.40668100008571,28.533889999806526],[-81.4068779997292,28.533875000248017],[-81.40705699982936,28.533851999763325],[-81.40707299972287,28.533850999845086],[-81.40728299978517,28.533811999869258],[-81.4075189997867,28.53376900020293],[-81.40798800031509,28.533672000120372],[-81.40866399963438,28.533533000106733]]]},"properties":{"block_id":"120950117021017","school_id":"sch_orange_center_elementary","kids_est":157,"class":"green","shortest":{"len_m":312.7,"mean_c":38.13,"peak_c":38.2,"dose":22.3},"coolest":{"len_m":312.7,"mean_c":38.13,"peak_c":38.2,"dose":22.3},"delta_mean_c":0.0,"delta_dose_pct":0,"distance_mi":0.114,"status_now":"walk","status_rec":"walk","reason":"Shortest route already under threshold (dose 22).","safe_until_hour":null}},{"type":"Feature","geometry":{"type":"Polygon","coordinates":[[[-81.4053839999021,28.53198100037957],[-81.40538100042734,28.531228000110126],[-81.40536800000856,28.53102399967376],[-81.40530899955903,28.53102399967376],[-81.40470299966162,28.531022999728677],[-81.40453899963008,28.53100399998109],[-81.40399100035731,28.531015000167702],[-81.40384400004422,28.531022999728677],[-81.40377000042437,28.531028000243197],[-81.40362399993619,28.53103299996829],[-81.40355000031634,28.531047999931303],[-81.40371299962464,28.531046000041545],[-81.4040039998778,28.53104500009668],[-81.40414699999292,28.531060000057998],[-81.40428599991009,28.531092999807502],[-81.40439999971291,28.531135999776502],[-81.40453199995738,28.531202000006832],[-81.40459300005676,28.531241000159387],[-81.40470600003466,28.531329999785655],[-81.40475700008828,28.53137900009762],[-81.40480499976887,28.531432000151657],[-81.40484699960166,28.53148700006045],[-81.40493700001333,28.531620999918964],[-81.40499499973966,28.531693000267328],[-81.40514200005275,28.53183400021505],[-81.40516100031932,28.531848000126825],[-81.40519999977909,28.531877999818736],[-81.40526199970334,28.531919000383535],[-81.40532700000068,28.53195499967281],[-81.4053839999021,28.53198100037957]]]},"properties":{"block_id":"120950116002003","school_id":"sch_orange_center_elementary","kids_est":0,"class":"green","shortest":{"len_m":700.2,"mean_c":38.17,"peak_c":38.2,"dose":50.3},"coolest":{"len_m":700.2,"mean_c":38.17,"peak_c":38.2,"dose":50.3},"delta_mean_c":0.0,"delta_dose_pct":0,"distance_mi":0.296,"status_now":"walk","status_rec":"walk","reason":"Shortest route already under threshold (dose 50).","safe_until_hour":null}},{"type":"Feature","geometry":{"type":"Polygon","coordinates":[[[-81.4202749995661,28.538724000207853],[-81.42023600010634,28.538572999697223],[-81.42011899993048,28.53812299965668],[-81.42008499959529,28.53797199986297],[-81.41997499999044,28.537999999632007],[-81.41980599993605,28.538030999818563],[-81.41963600005673,28.538048999999084],[-81.41943199984222,28.53805400018018],[-81.41874099955601,28.53807200035677],[-81.4174509999434,28.538096999676256],[-81.4170640003291,28.538105000277973],[-81.41679200034254,28.538115999723278],[-81.41679200034254,28.538418000259732],[-81.41679499981727,28.539322999965588],[-81.41679599964219,28.53962600006234],[-81.41696700024471,28.53962099995585],[-81.41747900043079,28.539609000014924],[-81.41765099995992,28.539605999634833],[-81.41765299960976,28.538989999760485],[-81.41765699980772,28.538967000392372],[-81.41766600002855,28.53894400023006],[-81.41767600007428,28.53892399967309],[-81.41770799986134,28.53888799960795],[-81.41775100041737,28.53886099994562],[-81.41780099974775,28.538846000305636],[-81.41883699981547,28.538821000374707],[-81.4193160003896,28.538816000229996],[-81.41961699979015,28.53880900034265],[-81.41971499969942,28.538806999811058],[-81.4199089998682,28.53878799988865],[-81.4202749995661,28.538724000207853]]]},"properties":{"block_id":"120950117011012","school_id":"sch_orange_center_elementary","kids_est":22,"class":"red","shortest":{"len_m":1808.9,"mean_c":38.13,"peak_c":38.2,"dose":129.1},"coolest":{"len_m":1809.6,"mean_c":38.13,"peak_c":38.2,"dose":129.0},"delta_mean_c":0.0,"delta_dose_pct":0,"distance_mi":0.653,"status_now":"walk","status_rec":"bus_eligible","reason":"Coolest route mean 38.1C exceeds threshold (110 C-min dose, actual 129).","safe_until_hour":"14:00"}},{"type":"Feature","geometry":{"type":"Polygon","coordinates":[[[-81.41409199967006,28.53507500000809],[-81.41404499981441,28.534671999770588],[-81.4140799999745,28.53450099994824],[-81.41386200041462,28.534393999830566],[-81.41379200009443,28.534359999622893],[-81.4137770000258,28.534334000292336],[-81.41373199981996,28.534257999723277],[-81.41371799957626,28.53423300028218],[-81.41367699956837,28.534256999808893],[-81.4136289998878,28.534264999913006],[-81.41351199971193,28.534266999741607],[-81.4128749998524,28.534280000205204],[-81.4126630001403,28.534284999775938],[-81.41244499968207,28.53428900022164],[-81.41179100010409,28.534304999635157],[-81.41173800040066,28.53430700025222],[-81.41157299964588,28.534306000338304],[-81.41142000038332,28.53431600026635],[-81.4113690003297,28.534322999663],[-81.41118100000872,28.53434999969901],[-81.4110039995584,28.534389000264934],[-81.41077199975481,28.534451000386166],[-81.41057500011132,28.53450399968443],[-81.4103680004221,28.534561000180542],[-81.41021299971307,28.534605000223983],[-81.41007600034403,28.534654999712977],[-81.40994300027465,28.534714999857638],[-81.40981699987796,28.53478300003286],[-81.4097790002431,28.534807000223534],[-81.4096439996256,28.534893000269854],[-81.40961799968632,28.534899999628173],[-81.40959099992214,28.534898999719882],[-81.40956499998288,28.53489099966391],[-81.40953499984563,28.534866000372986],[-81.40952200032517,28.5348330002266],[-81.4095170003023,28.53463200018774],[-81.40950800008146,28.53420700013105],[-81.4095030000586,28.53372699964927],[-81.40949999968554,28.53342599979529],[-81.40918500004128,28.533443999973294],[-81.40895700043565,28.53347400000009],[-81.40888299991748,28.53348899961566],[-81.40866399963438,28.533533000106733],[-81.40798800031509,28.533672000120372],[-81.4075189997867,28.53376900020293],[-81.40728299978517,28.533811999869258],[-81.40707299972287,28.533850999845086],[-81.40705699982936,28.533851999763325],[-81.4068779997292,28.533875000248017],[-81.40668100008571,28.533889999806526],[-81.40643900023638,28.53389300034933],[-81.40643300038859,28.53400399985381],[-81.40642099979472,28.535566000374548],[-81.40747000028124,28.535555999775912],[-81.40833899994438,28.5355500003633],[-81.40839599984577,28.53556499968337],[-81.4084119997393,28.535576000183042],[-81.40843799967855,28.535601999996356],[-81.40845399957209,28.53563400000059],[-81.40846000031819,28.53567800038518],[-81.40848799990728,28.536997000333514],[-81.40848899973219,28.537030999690288],[-81.40850999964859,28.537159000280568],[-81.40865399958862,28.537652000170308],[-81.40872300008392,28.537871000183337],[-81.4087570004191,28.538003999936606],[-81.40878099981023,28.538051999634263],[-81.40883299968877,28.538114999845497],[-81.40890100035915,28.538166999790995],[-81.40896699958307,28.538197000051397],[-81.40898800039778,28.538206999610193],[-81.40908299993403,28.53823500010596],[-81.40939900030152,28.538272000270517],[-81.40943500028654,28.538280999945982],[-81.4094889998149,28.538294999790356],[-81.40958599989926,28.53833299980955],[-81.40988300000019,28.53845899985823],[-81.40997000003883,28.53849599994406],[-81.41011999982666,28.538545000080457],[-81.41027499963735,28.538575000233244],[-81.41043399964602,28.538587000292015],[-81.4108329998542,28.53858200013615],[-81.41115699971928,28.53857799985351],[-81.41116000009232,28.53872500007992],[-81.41116799958994,28.53899300015804],[-81.41116900031317,28.539168999920996],[-81.41117000013807,28.539316999978336],[-81.41117000013807,28.539439000178533],[-81.41117000013807,28.539467000346868],[-81.41118100000872,28.539779000366092],[-81.4111800001838,28.53991700017097],[-81.4111800001838,28.54006800033357],[-81.41173199965455,28.54005800016225],[-81.41185600040141,28.540055999654385],[-81.41203600032648,28.54005399993564],[-81.41222999959692,28.540053000076256],[-81.4123550001687,28.540053000076256],[-81.41238399958272,28.540053000076256],[-81.41241600026807,28.54005200021687],[-81.412601000216,28.540047999990044],[-81.4126630001403,28.54004700013053],[-81.41267499983584,28.540046000271094],[-81.412713000369,28.540046000271094],[-81.41272599988949,28.540046000271094],[-81.41336000027428,28.540035000238127],[-81.4133400001828,28.53971200012119],[-81.41331599989334,28.538959999725865],[-81.41343600044226,28.538275999775614],[-81.41349099979554,28.537819999972278],[-81.41363899993354,28.537119000063498],[-81.41370599988069,28.53697499962975],[-81.41377600020088,28.536787999775658],[-81.41394699990512,28.536140000157193],[-81.41409199967006,28.53507500000809]]]},"properties":{"block_id":"120950117021004","school_id":"sch_orange_center_elementary","kids_est":33,"class":"green","shortest":{"len_m":246.1,"mean_c":38.1,"peak_c":38.1,"dose":17.4},"coolest":{"len_m":246.1,"mean_c":38.1,"peak_c":38.1,"dose":17.4},"delta_mean_c":0.0,"delta_dose_pct":0,"distance_mi":0.087,"status_now":"walk","status_rec":"walk","reason":"Shortest route already under threshold (dose 17).","safe_until_hour":null}},{"type":"Feature","geometry":{"type":"Polygon","coordinates":[[[-81.40742800044842,28.531492999704394],[-81.40742400025047,28.531213000172773],[-81.40742199970234,28.531007999762117],[-81.40695200024736,28.53100999965252],[-81.40638700035784,28.531018999948234],[-81.40596300003531,28.531019999893356],[-81.40602099976162,28.53110599987343],[-81.40602699960941,28.531510000272114],[-81.40742800044842,28.531492999704394]]]},"properties":{"block_id":"120950117021022","school_id":"sch_orange_center_elementary","kids_est":3,"class":"green","shortest":{"len_m":695.0,"mean_c":38.17,"peak_c":38.2,"dose":49.9},"coolest":{"len_m":695.0,"mean_c":38.17,"peak_c":38.2,"dose":49.9},"delta_mean_c":0.0,"delta_dose_pct":0,"distance_mi":0.225,"status_now":"walk","status_rec":"walk","reason":"Shortest route already under threshold (dose 50).","safe_until_hour":null}},{"type":"Feature","geometry":{"type":"Polygon","coordinates":[[[-81.41044600023989,28.53199099973902],[-81.41044399969175,28.53178600005255],[-81.41043799984398,28.53117100017888],[-81.41043700001907,28.530966999632113],[-81.4102920002541,28.530973000094843],[-81.40999099995521,28.53094599998283],[-81.40987499960426,28.530949999766047],[-81.40983500031963,28.530955000284013],[-81.40969399985431,28.530974999985975],[-81.40950100040878,28.53098700012099],[-81.408025000125,28.530997000364],[-81.40796300020072,28.530998000309324],[-81.40742199970234,28.531007999762117],[-81.40742400025047,28.531213000172773],[-81.40742800044842,28.531492999704394],[-81.40947100027155,28.53147300010074],[-81.40947700011932,28.53187599994478],[-81.40947999959407,28.532008000226412],[-81.40967299993792,28.532003999694176],[-81.41025200007114,28.531994000335896],[-81.41044600023989,28.53199099973902]]]},"properties":{"block_id":"120950117021021","school_id":"sch_orange_center_elementary","kids_est":7,"class":"green","shortest":{"len_m":186.5,"mean_c":38.19,"peak_c":38.2,"dose":13.4},"coolest":{"len_m":186.5,"mean_c":38.19,"peak_c":38.2,"dose":13.4},"delta_mean_c":0.0,"delta_dose_pct":0,"distance_mi":0.177,"status_now":"walk","status_rec":"walk","reason":"Shortest route already under threshold (dose 13).","safe_until_hour":null}},{"type":"Feature","geometry":{"type":"Polygon","coordinates":[[[-81.40709899966215,28.529593999851382],[-81.40711299990585,28.528858000096683],[-81.40696399994293,28.5287200000145],[-81.40689699999578,28.528767999994958],[-81.40688899959986,28.52877499976008],[-81.40674600038305,28.528858000096683],[-81.40618499979317,28.52970000014968],[-81.40584099983657,28.530197999975307],[-81.40567400033031,28.530442000042058],[-81.4055610003524,28.53062900010871],[-81.40548000016155,28.530608000392128],[-81.40547099994073,28.530630000057585],[-81.40544300035164,28.53069599981555],[-81.40543499995572,28.530718000251806],[-81.40538300007717,28.530842999988923],[-81.40530899955903,28.53102399967376],[-81.40536800000856,28.53102399967376],[-81.40568600002588,28.531021999783597],[-81.40581599972222,28.531020999838464],[-81.40596300003531,28.531019999893356],[-81.40589799973799,28.530942000199527],[-81.40596100038549,28.530881000327856],[-81.4060259997845,28.5307970000587],[-81.40608900043202,28.530677000009007],[-81.40668500028367,28.53041499979402],[-81.40700800032386,28.530129999998408],[-81.40700300030099,28.529701000107305],[-81.40711200008093,28.52969600031902],[-81.40709899966215,28.529593999851382]]]},"properties":{"block_id":"120950117022000","school_id":"sch_orange_center_elementary","kids_est":0,"class":"green","shortest":{"len_m":774.0,"mean_c":38.19,"peak_c":38.3,"dose":55.8},"coolest":{"len_m":774.0,"mean_c":38.19,"peak_c":38.3,"dose":55.8},"delta_mean_c":0.0,"delta_dose_pct":0,"distance_mi":0.31,"status_now":"walk","status_rec":"walk","reason":"Shortest route already under threshold (dose 56).","safe_until_hour":null}},{"type":"Feature","geometry":{"type":"Polygon","coordinates":[[[-81.41157299964588,28.534306000338304],[-81.41156699979811,28.533838000117836],[-81.41155699975238,28.533044000378823],[-81.41154300040697,28.53243600026557],[-81.41153300036123,28.531969000357677],[-81.4113330003447,28.531972000166004],[-81.4107359997698,28.53198500012345],[-81.41053699957818,28.531988999867227],[-81.41053599975326,28.532273000226976],[-81.41054499997409,28.532959000328578],[-81.41054300032427,28.533126999721084],[-81.41054199960107,28.53333399980214],[-81.41054499997409,28.533412000093215],[-81.41055099982188,28.53363000031725],[-81.41055699966965,28.533814999625054],[-81.41056300041576,28.534284999775938],[-81.41056500006559,28.534363000152318],[-81.41057500011132,28.53450399968443],[-81.41077199975481,28.534451000386166],[-81.4110039995584,28.534389000264934],[-81.41118100000872,28.53434999969901],[-81.4113690003297,28.534322999663],[-81.41142000038332,28.53431600026635],[-81.41157299964588,28.534306000338304]]]},"properties":{"block_id":"120950117021006","school_id":"sch_orange_center_elementary","kids_est":0,"class":"green","shortest":{"len_m":127.2,"mean_c":38.11,"peak_c":38.2,"dose":9.1},"coolest":{"len_m":127.2,"mean_c":38.11,"peak_c":38.2,"dose":9.1},"delta_mean_c":0.0,"delta_dose_pct":0,"distance_mi":0.141,"status_now":"walk","status_rec":"walk","reason":"Shortest route already under threshold (dose 9).","safe_until_hour":null}},{"type":"Feature","geometry":{"type":"Polygon","coordinates":[[[-81.41054300032427,28.533126999721084],[-81.41054499997409,28.532959000328578],[-81.41053599975326,28.532273000226976],[-81.41053699957818,28.531988999867227],[-81.41051800020992,28.531988999867227],[-81.41046399978325,28.531989999803123],[-81.41044600023989,28.53199099973902],[-81.41025200007114,28.531994000335896],[-81.40967299993792,28.532003999694176],[-81.40947999959407,28.532008000226412],[-81.40948399979203,28.532290999812684],[-81.4094899996398,28.532718000351885],[-81.4094960003859,28.53314200017522],[-81.40949999968554,28.53342599979529],[-81.4095950001201,28.533421000183793],[-81.40970800009801,28.533419000339073],[-81.41033499991181,28.533413000015614],[-81.41054499997409,28.533412000093215],[-81.41054199960107,28.53333399980214],[-81.41054300032427,28.533126999721084]]]},"properties":{"block_id":"120950117021015","school_id":"sch_orange_center_elementary","kids_est":0,"class":"green","shortest":{"len_m":200.5,"mean_c":38.14,"peak_c":38.2,"dose":14.3},"coolest":{"len_m":200.5,"mean_c":38.14,"peak_c":38.2,"dose":14.3},"delta_mean_c":0.0,"delta_dose_pct":0,"distance_mi":0.108,"status_now":"walk","status_rec":"walk","reason":"Shortest route already under threshold (dose 14).","safe_until_hour":null}},{"type":"Feature","geometry":{"type":"Polygon","coordinates":[[[-81.41057500011132,28.53450399968443],[-81.41056500006559,28.534363000152318],[-81.41056300041576,28.534284999775938],[-81.41055699966965,28.533814999625054],[-81.41055099982188,28.53363000031725],[-81.41054499997409,28.533412000093215],[-81.41033499991181,28.533413000015614],[-81.40970800009801,28.533419000339073],[-81.4095950001201,28.533421000183793],[-81.40949999968554,28.53342599979529],[-81.4095030000586,28.53372699964927],[-81.40950800008146,28.53420700013105],[-81.4095170003023,28.53463200018774],[-81.40952200032517,28.5348330002266],[-81.40953499984563,28.534866000372986],[-81.40956499998288,28.53489099966391],[-81.40959099992214,28.534898999719882],[-81.40961799968632,28.534899999628173],[-81.4096439996256,28.534893000269854],[-81.4097790002431,28.534807000223534],[-81.40981699987796,28.53478300003286],[-81.40994300027465,28.534714999857638],[-81.41007600034403,28.534654999712977],[-81.41021299971307,28.534605000223983],[-81.4103680004221,28.534561000180542],[-81.41057500011132,28.53450399968443]]]},"properties":{"block_id":"120950117021005","school_id":"sch_orange_center_elementary","kids_est":2,"class":"green","shortest":{"len_m":0.0,"mean_c":0.0,"peak_c":null,"dose":0.0},"coolest":{"len_m":0.0,"mean_c":0.0,"peak_c":null,"dose":0.0},"delta_mean_c":0.0,"delta_dose_pct":0,"distance_mi":0.069,"status_now":"walk","status_rec":"walk","reason":"Shortest route already under threshold (dose 0).","safe_until_hour":null}},{"type":"Feature","geometry":{"type":"Polygon","coordinates":[[[-81.41043700001907,28.530966999632113],[-81.41042299977535,28.530028999905227],[-81.40955099973917,28.53004599991986],[-81.40864899956577,28.530053000389362],[-81.40844199987652,28.53006999961088],[-81.40749500039557,28.53020900024599],[-81.40740800035694,28.530217999820938],[-81.40741000000675,28.530376000125024],[-81.40741900022759,28.530849999616244],[-81.40742199970234,28.531007999762117],[-81.40796300020072,28.530998000309324],[-81.408025000125,28.530997000364],[-81.40950100040878,28.53098700012099],[-81.40969399985431,28.530974999985975],[-81.40983500031963,28.530955000284013],[-81.40987499960426,28.530949999766047],[-81.40999099995521,28.53094599998283],[-81.4102920002541,28.530973000094843],[-81.41043700001907,28.530966999632113]]]},"properties":{"block_id":"120950117022002","school_id":"sch_orange_center_elementary","kids_est":4,"class":"green","shortest":{"len_m":389.5,"mean_c":38.19,"peak_c":38.3,"dose":28.1},"coolest":{"len_m":389.5,"mean_c":38.19,"peak_c":38.3,"dose":28.1},"delta_mean_c":0.0,"delta_dose_pct":0,"distance_mi":0.233,"status_now":"walk","status_rec":"walk","reason":"Shortest route already under threshold (dose 28).","safe_until_hour":null}},{"type":"Feature","geometry":{"type":"Polygon","coordinates":[[[-81.41042299977535,28.530028999905227],[-81.41041399955454,28.529068999735824],[-81.40979599996156,28.52908000012439],[-81.40916400012487,28.529091999685903],[-81.40899400024557,28.529104999998655],[-81.40882400036625,28.529126000014756],[-81.40858599981658,28.529172999847695],[-81.40837900012733,28.52922700018398],[-81.40817599973775,28.52929300003133],[-81.40797800026935,28.529369000234805],[-81.4078639995682,28.529417999880064],[-81.40771100030564,28.529473000050658],[-81.40744900036484,28.529549000124327],[-81.40739699958796,28.52955599983758],[-81.40739900013612,28.529687999868127],[-81.4074049999839,28.53008499971096],[-81.40740800035694,28.530217999820938],[-81.40749500039557,28.53020900024599],[-81.40844199987652,28.53006999961088],[-81.40864899956577,28.530053000389362],[-81.40955099973917,28.53004599991986],[-81.41042299977535,28.530028999905227]]]},"properties":{"block_id":"120950117022005","school_id":"sch_orange_center_elementary","kids_est":3,"class":"green","shortest":{"len_m":643.2,"mean_c":38.24,"peak_c":38.3,"dose":46.7},"coolest":{"len_m":643.2,"mean_c":38.24,"peak_c":38.3,"dose":46.7},"delta_mean_c":0.0,"delta_dose_pct":0,"distance_mi":0.295,"status_now":"walk","status_rec":"walk","reason":"Shortest route already under threshold (dose 47).","safe_until_hour":null}},{"type":"Feature","geometry":{"type":"Polygon","coordinates":[[[-81.4126630001403,28.534284999775938],[-81.41265499974436,28.534028000221856],[-81.41265200026963,28.533818000169994],[-81.41264499969863,28.53303400033006],[-81.41263300000305,28.532416999983546],[-81.41262399978221,28.531950999927748],[-81.41240500039743,28.531953999736572],[-81.41175099992113,28.531964999823966],[-81.41153300036123,28.531969000357677],[-81.41154300040697,28.53243600026557],[-81.41155699975238,28.533044000378823],[-81.41156699979811,28.533838000117836],[-81.41157299964588,28.534306000338304],[-81.41173800040066,28.53430700025222],[-81.41179100010409,28.534304999635157],[-81.41244499968207,28.53428900022164],[-81.4126630001403,28.534284999775938]]]},"properties":{"block_id":"120950117021007","school_id":"sch_orange_center_elementary","kids_est":11,"class":"green","shortest":{"len_m":490.0,"mean_c":38.2,"peak_c":38.2,"dose":35.4},"coolest":{"len_m":490.7,"mean_c":38.18,"peak_c":38.2,"dose":35.3},"delta_mean_c":-0.02,"delta_dose_pct":0,"distance_mi":0.203,"status_now":"walk","status_rec":"walk","reason":"Shortest route already under threshold (dose 35).","safe_until_hour":null}},{"type":"Feature","geometry":{"type":"Polygon","coordinates":[[[-81.40789500042865,28.52778799987569],[-81.40843600002874,28.52724699975283],[-81.40707100007306,28.527275999984504],[-81.40644799955889,28.527290999692955],[-81.40624000004475,28.52729399963442],[-81.40623699967169,28.526432000321485],[-81.4059479999667,28.526432000321485],[-81.40601999993672,28.526516000123173],[-81.40615499965593,28.526848000300447],[-81.40618999981604,28.52725099967641],[-81.40618999981604,28.527367999741287],[-81.40616700024982,28.52745500031249],[-81.40609199990675,28.527543000000673],[-81.40608900043202,28.527581999928678],[-81.40607900038627,28.52771899994595],[-81.40610399960232,28.527820999860477],[-81.40611700002111,28.52787300015027],[-81.4062719998318,28.528125999828365],[-81.40635899987043,28.528237999853832],[-81.4064400000613,28.52834100002585],[-81.40647199984834,28.52845099988386],[-81.40650299981048,28.528554999816283],[-81.40646500017564,28.528781000347667],[-81.40646500017564,28.528830000266222],[-81.4064059997261,28.52892600010508],[-81.40562800029956,28.53020600038755],[-81.4054120003895,28.53056300030879],[-81.40548000016155,28.530608000392128],[-81.4055610003524,28.53062900010871],[-81.40567400033031,28.530442000042058],[-81.40584099983657,28.530197999975307],[-81.40618499979317,28.52970000014968],[-81.40674600038305,28.528858000096683],[-81.40688899959986,28.52877499976008],[-81.40689699999578,28.528767999994958],[-81.40696399994293,28.5287200000145],[-81.40789500042865,28.52778799987569]]]},"properties":{"block_id":"120950116002006","school_id":"sch_orange_center_elementary","kids_est":0,"class":"green","shortest":{"len_m":1031.5,"mean_c":38.23,"peak_c":38.4,"dose":74.9},"coolest":{"len_m":1031.5,"mean_c":38.23,"peak_c":38.4,"dose":74.9},"delta_mean_c":0.0,"delta_dose_pct":0,"distance_mi":0.418,"status_now":"walk","status_rec":"walk","reason":"Shortest route already under threshold (dose 75).","safe_until_hour":null}},{"type":"Feature","geometry":{"type":"Polygon","coordinates":[[[-81.4162540002172,28.53616100034979],[-81.41625199966906,28.535980000017915],[-81.41624800036941,28.53543900011979],[-81.41624699964618,28.5352590000309],[-81.41596999963673,28.535270999678087],[-81.415895000192,28.53527200037205],[-81.4148399998577,28.535293999853057],[-81.41454699995475,28.535300000069395],[-81.41450900031991,28.53530999990318],[-81.41449199970315,28.535317999927333],[-81.41446300028916,28.535341999996078],[-81.41444300019766,28.53537200027167],[-81.41443499980174,28.5354060001528],[-81.4144309996038,28.535480000088235],[-81.41442599958091,28.535612999702963],[-81.4144039998396,28.535800999963747],[-81.41436700002969,28.53598700009317],[-81.41435799980886,28.536021999673498],[-81.41431400032624,28.536200000245405],[-81.41451199979464,28.536200000245405],[-81.41470199976544,28.536194999976335],[-81.4149310000943,28.536188999810896],[-81.41580099958234,28.53617499968671],[-81.41586599987967,28.536171999998025],[-81.4162540002172,28.53616100034979]]]},"properties":{"block_id":"120950117011022","school_id":"sch_orange_center_elementary","kids_est":6,"class":"green","shortest":{"len_m":1085.6,"mean_c":38.15,"peak_c":38.2,"dose":78.0},"coolest":{"len_m":1086.3,"mean_c":38.15,"peak_c":38.2,"dose":77.9},"delta_mean_c":0.0,"delta_dose_pct":0,"distance_mi":0.411,"status_now":"walk","status_rec":"walk","reason":"Shortest route already under threshold (dose 78).","safe_until_hour":null}},{"type":"Feature","geometry":{"type":"Polygon","coordinates":[[[-81.41381999968351,28.5318289997388],[-81.41384399997295,28.531824000051465],[-81.41374900043671,28.53098400028469],[-81.41294000014972,28.53097100020371],[-81.41138799969796,28.530946999928638],[-81.41043700001907,28.530966999632113],[-81.41043799984398,28.53117100017888],[-81.41044399969175,28.53178600005255],[-81.41044600023989,28.53199099973902],[-81.41046399978325,28.531989999803123],[-81.41051800020992,28.531988999867227],[-81.41053699957818,28.531988999867227],[-81.4107359997698,28.53198500012345],[-81.4113330003447,28.531972000166004],[-81.41153300036123,28.531969000357677],[-81.41175099992113,28.531964999823966],[-81.41240500039743,28.531953999736572],[-81.41262399978221,28.531950999927748],[-81.41271900021678,28.53194999999147],[-81.41284200024043,28.531944000373546],[-81.41300000042418,28.531937000029714],[-81.41328800030426,28.53191100010134],[-81.4134940001686,28.531883000292684],[-81.41359399972771,28.531870000322655],[-81.41371000007867,28.53184900006407],[-81.41381999968351,28.5318289997388]]]},"properties":{"block_id":"120950117021014","school_id":"sch_orange_center_elementary","kids_est":0,"class":"green","shortest":{"len_m":498.2,"mean_c":38.2,"peak_c":38.2,"dose":36.0},"coolest":{"len_m":498.9,"mean_c":38.18,"peak_c":38.2,"dose":35.9},"delta_mean_c":-0.02,"delta_dose_pct":0,"distance_mi":0.258,"status_now":"walk","status_rec":"walk","reason":"Shortest route already under threshold (dose 36).","safe_until_hour":null}}]}