{"type":"FeatureCollection","features":[{"type":"Feature","geometry":{"type":"Polygon","coordinates":[[[-81.47606600036696,28.57693600009693],[-81.47606700019188,28.576812999657413],[-81.47606499964375,28.576772000004848],[-81.47605999962086,28.576686000239157],[-81.4760479999253,28.576427999731383],[-81.47604399972735,28.576342999988125],[-81.47603899970447,28.576258000176182],[-81.4760329998567,28.576116000235018],[-81.47602399963584,28.57600300032823],[-81.47601799978807,28.5759189997604],[-81.47601699996316,28.57590599970408],[-81.47601500031335,28.575841000187317],[-81.4760119999403,28.575607999853887],[-81.47601100011538,28.575531000361593],[-81.47601000029047,28.57540100003557],[-81.47600699991742,28.575010999671292],[-81.47600600009251,28.57488199980911],[-81.47600400044269,28.57439899994754],[-81.47600299971946,28.57437500010239],[-81.47600299971946,28.57391600023506],[-81.47600299971946,28.57379899980933],[-81.47600400044269,28.57369200017597],[-81.47599500022184,28.57285599961781],[-81.47599000019898,28.572349999955748],[-81.47598900037407,28.572217000192566],[-81.47598600000101,28.57182100014547],[-81.47598500017611,28.571689999620453],[-81.47579500020531,28.571690999968357],[-81.47522600011783,28.571694999781993],[-81.47503699997195,28.57169699968876],[-81.47484899965096,28.57169900038442],[-81.4742879999594,28.57170800035868],[-81.47410100036166,28.571710999823974],[-81.47408000044526,28.571710999823974],[-81.47391399986559,28.571710999823974],[-81.47382500017713,28.571710999823974],[-81.47335599964876,28.571717999890947],[-81.47316999987594,28.571721999703566],[-81.47303099995875,28.571721999703566],[-81.47291299995798,28.571723000051154],[-81.47282699974424,28.571714999636924],[-81.47274300007867,28.571696000129847],[-81.47266299971271,28.571665999946237],[-81.47262799955261,28.57164699964145],[-81.47258900009287,28.57162600021402],[-81.47251399974981,28.5715690000566],[-81.47246500024433,28.571520000297927],[-81.47241699966541,28.57145599999922],[-81.47239099972616,28.57140700018793],[-81.4723799998555,28.571387000274513],[-81.47235599956605,28.571313000325084],[-81.47234399987049,28.571237999971412],[-81.47233899984762,28.570802000138666],[-81.4723370001978,28.57059799982805],[-81.47233399982476,28.57044399976473],[-81.47233299999984,28.57033600030304],[-81.47231200008343,28.570240000337876],[-81.4722819999462,28.570172000178058],[-81.47225600000694,28.57012900036755],[-81.47219699955738,28.570050999657354],[-81.47217900001405,28.570024000095987],[-81.4721549997246,28.569985999678803],[-81.47210200002115,28.56989200012433],[-81.4719580000811,28.569909000016388],[-81.47189699998174,28.569916999779007],[-81.47152700008589,28.569923999965276],[-81.47138300014583,28.569927999846097],[-81.47138800016872,28.57070999966084],[-81.47139300019158,28.571454999649088],[-81.47025199964357,28.57146800025543],[-81.46770500003029,28.57150699969802],[-81.46770800040335,28.57180399977334],[-81.4677130004262,28.57257599960664],[-81.46798200003973,28.572587000184654],[-81.46822899991196,28.572585000294744],[-81.46852400036303,28.57257399971659],[-81.46871400033383,28.572564999816347],[-81.46903900002384,28.572559000145436],[-81.46921499975095,28.572561000035765],[-81.4692619996066,28.57257300016595],[-81.46930299961448,28.572596999633312],[-81.46933500029985,28.57263100011843],[-81.46934699999542,28.572650000245524],[-81.46936000041421,28.572692000265143],[-81.4693650004371,28.57283599997983],[-81.4693650004371,28.572917999970297],[-81.46937100028487,28.573798000270394],[-81.4693739997596,28.574092000003283],[-81.46937799995756,28.574853000062944],[-81.46773000014466,28.57487800011664],[-81.46773599999243,28.57565500024373],[-81.46774299966512,28.576419999674954],[-81.46774400038836,28.576676000390258],[-81.46774699986308,28.577306000058204],[-81.46774900041122,28.577444999880083],[-81.46775100006104,28.577630999814065],[-81.46803599956809,28.57762299984911],[-81.4699649995884,28.577598999950624],[-81.47033700003239,28.577592000275025],[-81.47034299988017,28.577280999792706],[-81.47033899968221,28.576952999639673],[-81.4703320000095,28.57609300029874],[-81.4703320000095,28.57569699985256],[-81.47032100013885,28.57480900026957],[-81.47032100013885,28.574796000076077],[-81.4703239996136,28.574688000348452],[-81.47034100023035,28.57463300012308],[-81.47035799994877,28.574604999839554],[-81.4703949997587,28.57456400011531],[-81.47045199966011,28.574523999907157],[-81.4704859999953,28.57450899982518],[-81.47054200007179,28.57449899976933],[-81.47082599975393,28.57449399974105],[-81.47107900037223,28.574490000033826],[-81.47116700023577,28.57449699991583],[-81.4712190001143,28.574515000173793],[-81.47127799966555,28.57455299974402],[-81.47132100022156,28.57459600011311],[-81.47133999958983,28.574631000272124],[-81.47135300000862,28.57470000023601],[-81.47135300000862,28.57477999971436],[-81.47136499970418,28.57608800034623],[-81.47136800007722,28.57693299999172],[-81.47137099955195,28.577571999959666],[-81.47290000043749,28.57754900034175],[-81.47311799999737,28.57754100037056],[-81.47401699979775,28.57752499963748],[-81.47548200021087,28.577508000187166],[-81.47606399981882,28.577492999741867],[-81.47606499964375,28.577428999921302],[-81.47606600036696,28.57693600009693]],[[-81.47481000019123,28.574239999885208],[-81.47482199988679,28.575668999852233],[-81.47327100015825,28.57571400038444],[-81.47299400014882,28.575721999705678],[-81.472984999928,28.575152000000184],[-81.47297300023241,28.57436199985527],[-81.47340900025053,28.574508000292983],[-81.47400799957691,28.574496000383533],[-81.47400799957691,28.574219000186503],[-81.47420699976854,28.57419799969468],[-81.47452099958791,28.57416600036472],[-81.47463399956581,28.574071000275023],[-81.47481000019123,28.574239999885208]]]},"properties":{"block_id":"120950122012003","school_id":"sch_ucp_pine_hills_charter","kids_est":21,"class":"red","shortest":{"len_m":2808.6,"mean_c":38.73,"peak_c":38.93,"dose":223.59},"coolest":{"len_m":2808.6,"mean_c":38.73,"peak_c":38.93,"dose":223.59},"delta_mean_c":0.0,"delta_dose_pct":0,"distance_mi":0.941,"status_now":"walk","status_rec":"bus_eligible","reason":"Coolest route mean 38.7C exceeds threshold (110 C-min dose, actual 224).","safe_until_hour":"11:00"}},{"type":"Feature","geometry":{"type":"Polygon","coordinates":[[[-81.45739899977981,28.57217800022422],[-81.45732900035793,28.572054999743838],[-81.45730900026643,28.572018999960903],[-81.4571090002499,28.571696000129847],[-81.45703499973175,28.57157699969302],[-81.4567920000575,28.571719000238524],[-81.45609999994636,28.5721239998194],[-81.45606200031152,28.572143000038043],[-81.45602899980125,28.572162000253265],[-81.45596100002919,28.572185999814327],[-81.45589599973187,28.5721969996442],[-81.45579100014987,28.572201999781644],[-81.4557939996246,28.57236099976847],[-81.45579699999766,28.572478000215597],[-81.45580700004341,28.5725459996739],[-81.4558360003557,28.57262400011227],[-81.45593199971687,28.572809999892492],[-81.45596799970187,28.57287999980949],[-81.45599199999133,28.572958000000174],[-81.456186999985,28.572905000332053],[-81.45630400016086,28.57286799971433],[-81.45639399967422,28.572839999749945],[-81.45649199958353,28.572797000240904],[-81.45662200017819,28.572717000043518],[-81.45680799995101,28.57255599991538],[-81.4569050000354,28.572478999767064],[-81.45702100038636,28.57239599988213],[-81.45711400027275,28.5723359999055],[-81.45713500018915,28.57232300019534],[-81.45728099977903,28.572240000187403],[-81.45739899977981,28.57217800022422]]]},"properties":{"block_id":"120950121001014","school_id":"sch_ucp_pine_hills_charter","kids_est":4,"class":"red","shortest":{"len_m":1608.8,"mean_c":38.46,"peak_c":38.77,"dose":122.01},"coolest":{"len_m":1609.4,"mean_c":38.42,"peak_c":38.77,"dose":121.15},"delta_mean_c":-0.04,"delta_dose_pct":-1,"distance_mi":0.328,"status_now":"walk","status_rec":"bus_eligible","reason":"Coolest route mean 38.4C exceeds threshold (110 C-min dose, actual 121).","safe_until_hour":"14:00"}},{"type":"Feature","geometry":{"type":"Polygon","coordinates":[[[-81.45906300038455,28.57275300037655],[-81.4590600000115,28.571022999765813],[-81.4590600000115,28.570281000169327],[-81.45770400027665,28.570281999741738],[-81.45759299994857,28.570274000006812],[-81.45748199962048,28.570251000371186],[-81.4572430001442,28.57016899987995],[-81.45712199977037,28.570144999858787],[-81.45701299999043,28.570137999687226],[-81.45692900032483,28.5701420003488],[-81.45683600043843,28.570155999902035],[-81.45664999976727,28.570205000295893],[-81.4566520003154,28.57021800026779],[-81.45665999981301,28.57023100023806],[-81.45666700038402,28.5702449997794],[-81.45671500006459,28.57041599994413],[-81.45674900039978,28.570571999976643],[-81.45679899973018,28.570967999991222],[-81.4568220001947,28.571122000076524],[-81.45684899995888,28.571228000393585],[-81.45689900018762,28.57135399973847],[-81.45703499973175,28.57157699969302],[-81.4571090002499,28.571696000129847],[-81.45730900026643,28.572018999960903],[-81.45732900035793,28.572054999743838],[-81.45739899977981,28.57217800022422],[-81.45744200033582,28.572254000250357],[-81.45751299958262,28.57237699970917],[-81.45758499955265,28.572474999983225],[-81.4576370003295,28.57254700001366],[-81.45771699979713,28.572636999785235],[-81.45777600024668,28.57270199970389],[-81.45785900008734,28.572806000121236],[-81.45791500016384,28.572905000332053],[-81.45792699985941,28.572930999606935],[-81.45795799982155,28.5729980000149],[-81.45797100024035,28.573043999657955],[-81.45808500004314,28.57302900015386],[-81.45871199985697,28.573027000272422],[-81.45875799988772,28.573027000272422],[-81.45880599956828,28.573022000174188],[-81.45885199959905,28.573010999641642],[-81.45889599997999,28.57299400025079],[-81.45893699998786,28.572971999967645],[-81.45897299997287,28.57294400003088],[-81.459003999935,28.57291200031951],[-81.45902800022445,28.57287600004089],[-81.45904699959272,28.572837000316785],[-81.4590580003617,28.57279599990352],[-81.45906300038455,28.57275300037655]]]},"properties":{"block_id":"120950121001003","school_id":"sch_ucp_pine_hills_charter","kids_est":5,"class":"green","shortest":{"len_m":580.8,"mean_c":38.74,"peak_c":38.8,"dose":46.33},"coolest":{"len_m":580.8,"mean_c":38.74,"peak_c":38.8,"dose":46.33},"delta_mean_c":0.0,"delta_dose_pct":0,"distance_mi":0.39,"status_now":"walk","status_rec":"walk","reason":"Shortest route already under threshold (dose 46).","safe_until_hour":null}},{"type":"Feature","geometry":{"type":"Polygon","coordinates":[[[-81.46272499970826,28.5810999997517],[-81.46272300005843,28.580513000248487],[-81.46272200023353,28.57978799961905],[-81.4627139998376,28.578842999701685],[-81.46271600038574,28.578753999998256],[-81.46271899986048,28.578684000045612],[-81.46271600038574,28.578660000389206],[-81.46269799994408,28.57861400004643],[-81.46266500033211,28.578575000083003],[-81.46264400041572,28.5785599997898],[-81.462594000187,28.578539000164604],[-81.46253899993543,28.578531999762742],[-81.46228299984239,28.578539999658553],[-81.46211600033611,28.578545000283338],[-81.4619740000459,28.57855099961291],[-81.4619459995585,28.578554999954545],[-81.46189399967994,28.578573999800554],[-81.46185100002224,28.57860499987411],[-81.46181900023521,28.578646000389956],[-81.46180199961844,28.578693000211164],[-81.46180199961844,28.578811999698267],[-81.4618040001666,28.578978999812144],[-81.46181099983927,28.58034699968047],[-81.46182099988502,28.581141000083736],[-81.46272499970826,28.5810999997517]]]},"properties":{"block_id":"120950123073012","school_id":"sch_ucp_pine_hills_charter","kids_est":5,"class":"green","shortest":{"len_m":1018.8,"mean_c":38.77,"peak_c":38.93,"dose":81.69},"coolest":{"len_m":1018.8,"mean_c":38.77,"peak_c":38.93,"dose":81.69},"delta_mean_c":0.0,"delta_dose_pct":0,"distance_mi":0.38,"status_now":"walk","status_rec":"walk","reason":"Shortest route already under threshold (dose 82).","safe_until_hour":null}},{"type":"Feature","geometry":{"type":"Polygon","coordinates":[[[-81.45217499995861,28.572448999806667],[-81.45214700036954,28.569940000276578],[-81.45204400043737,28.569935999607335],[-81.45176599970469,28.569909000016388],[-81.45160099984825,28.569886999877106],[-81.4515549998175,28.569875999805728],[-81.45147600017476,28.569843000373606],[-81.45142900031912,28.569812999661643],[-81.45139099978597,28.569780999786868],[-81.45136200037197,28.569746000381148],[-81.45131499961798,28.569659000027205],[-81.4512660001125,28.56959999964649],[-81.45123500015036,28.569572999969385],[-81.45117599970081,28.569533000230415],[-81.4511179999745,28.569503999798762],[-81.45106500027104,28.569490999738623],[-81.45090600026239,28.56947199983002],[-81.45074200023085,28.569460000135102],[-81.44988199989024,28.569407000282737],[-81.44983199966151,28.569398999692382],[-81.44946099994077,28.569313000210943],[-81.44931100015293,28.569264999772653],[-81.44915200014427,28.569194999817334],[-81.44901499987692,28.569118000365027],[-81.44885000002049,28.569008999957855],[-81.44870799973026,28.569205000377305],[-81.44862900008754,28.569353000033537],[-81.448569999638,28.569529999914078],[-81.44855499956938,28.569604000328567],[-81.44854700007177,28.569675999956917],[-81.44854500042194,28.56974300007088],[-81.44858700025475,28.571628000122097],[-81.44859399992744,28.571894000180514],[-81.44860899999605,28.572302999667137],[-81.44914899977123,28.572295999639145],[-81.45027199987757,28.572282000370695],[-81.4504979998334,28.57228499981962],[-81.45058200039729,28.57230200011399],[-81.45076200032234,28.572349999955748],[-81.45115599960933,28.57245599982454],[-81.45119900016535,28.572464000182425],[-81.4512879998538,28.572469999858757],[-81.45162400031279,28.572487999674596],[-81.45167299981827,28.572487000123203],[-81.45197199956901,28.572460999949673],[-81.45217499995861,28.572448999806667]]]},"properties":{"block_id":"120950120001025","school_id":"sch_ucp_pine_hills_charter","kids_est":2,"class":"green","shortest":{"len_m":1226.0,"mean_c":38.33,"peak_c":38.78,"dose":90.75},"coolest":{"len_m":1226.6,"mean_c":38.27,"peak_c":38.78,"dose":89.86},"delta_mean_c":-0.06,"delta_dose_pct":-1,"distance_mi":0.58,"status_now":"walk","status_rec":"walk","reason":"Shortest route already under threshold (dose 91).","safe_until_hour":null}},{"type":"Feature","geometry":{"type":"Polygon","coordinates":[[[-81.4565469998351,28.57507200001581],[-81.4565669999266,28.57504899985127],[-81.45650300035248,28.57499699997521],[-81.45646499981935,28.57497699995536],[-81.4564129999408,28.574968000260746],[-81.45611900021292,28.57496399978263],[-81.45600200003706,28.57496300025476],[-81.45594299958752,28.57496300025476],[-81.45576799968535,28.57496599962726],[-81.45570999995901,28.57496699994401],[-81.45548800020117,28.57495500008691],[-81.45504200013733,28.574930000051506],[-81.45499699993148,28.572538000111166],[-81.4545120004079,28.572538999662076],[-81.45436900029279,28.572540000001904],[-81.45402199996315,28.572541999892604],[-81.45390700033542,28.572541999892604],[-81.45322699991986,28.572543999783278],[-81.4531809998891,28.572541000341733],[-81.45311800013991,28.572525999977003],[-81.45290800007763,28.572430999984146],[-81.45283199990963,28.57241399971065],[-81.45269499964228,28.57240499979677],[-81.45217499995861,28.572448999806667],[-81.45218599982927,28.573393000033548],[-81.45218300035452,28.573494000353502],[-81.45215999988999,28.57379599961471],[-81.45212100043025,28.574083999769186],[-81.45207200002645,28.574331999642972],[-81.45201000010216,28.57457400016498],[-81.45191899986557,28.574859000391925],[-81.45180099986479,28.575185999659617],[-81.45168500041216,28.57549300035573],[-81.45160800041927,28.575698999683247],[-81.45156099966529,28.57586299987048],[-81.45151100033489,28.576083999910704],[-81.45146899960378,28.576339999865993],[-81.45146299975599,28.576446999961604],[-81.45145799973312,28.57654500038862],[-81.45145899955801,28.57677599962531],[-81.45147500034987,28.5773699999536],[-81.4514910002434,28.577871000057154],[-81.45180400023784,28.57787200034627],[-81.45282100003897,28.577869999768012],[-81.45404200005463,28.577885000159625],[-81.45436099989685,28.577883000370488],[-81.45451499988265,28.577882000081473],[-81.45547999980525,28.57787700021399],[-81.45622600034305,28.57788899973777],[-81.4562239997949,28.577514000364715],[-81.45622600034305,28.577462999633596],[-81.45623300001574,28.577352999689342],[-81.45625300010724,28.577240000322565],[-81.45629699958985,28.577106000134126],[-81.4564549997736,28.57673499995833],[-81.45648099971287,28.576652999787527],[-81.45648699956065,28.576568000226068],[-81.45648200043608,28.57646400037223],[-81.4564620003446,28.576344999806523],[-81.4563989996971,28.576031000239645],[-81.45637600013087,28.575915000107283],[-81.45636699991005,28.57584499984317],[-81.45636400043533,28.575765000385825],[-81.45637399958275,28.57553899969675],[-81.45638899965137,28.57543200025533],[-81.45639500039746,28.575396000050155],[-81.45642800000942,28.575280000006465],[-81.45644999975073,28.57522500009061],[-81.4564749998651,28.575175999668126],[-81.45650300035248,28.575135000166384],[-81.4565469998351,28.57507200001581]],[[-81.45460399957109,28.57439200005902],[-81.45460799976908,28.574863999613957],[-81.45460000027144,28.574906999855912],[-81.45457699980692,28.574946000390412],[-81.45454199964682,28.5749759996387],[-81.45449800016421,28.574995999658753],[-81.45447200022494,28.574998999819215],[-81.45444899976039,28.57500199997958],[-81.45397599993238,28.574998999819215],[-81.45381100007594,28.57499800029168],[-81.45350200027947,28.574995999658753],[-81.45303799977397,28.574993999814694],[-81.4529900000934,28.57498300027728],[-81.4529490000855,28.574958999776452],[-81.45291700029846,28.574926000360858],[-81.45290600042779,28.57490600032751],[-81.45289499965884,28.574863000085134],[-81.45289899985679,28.574819999825188],[-81.45296099978107,28.574629999952244],[-81.4529630003292,28.574619999907842],[-81.45303199992618,28.574319000179454],[-81.45304399962174,28.57424899964211],[-81.45308700017777,28.573907999987593],[-81.45309200020064,28.573875999780515],[-81.45310700026926,28.57375500036405],[-81.45311599959177,28.573644000157614],[-81.45311899996481,28.573123999606732],[-81.4531259996375,28.573079000333312],[-81.45314699955391,28.573038000014357],[-81.4531809998891,28.573003999660774],[-81.45322500027002,28.572980999833018],[-81.45327600032367,28.572971999967645],[-81.45349300005863,28.572970000085064],[-81.45390800016033,28.572968999749374],[-81.4543140000412,28.57296499998411],[-81.45441500032354,28.572956999664314],[-81.45446800002698,28.57295999988292],[-81.45451900008061,28.57297700006826],[-81.45456199973832,28.573006000331574],[-81.45459299970045,28.573055999733025],[-81.45460399957109,28.57309700004497],[-81.45459799972332,28.573206000161633],[-81.45459799972332,28.573632999690115],[-81.45460399957109,28.57439200005902]]]},"properties":{"block_id":"120950121002002","school_id":"sch_ucp_pine_hills_charter","kids_est":2,"class":"green","shortest":{"len_m":638.6,"mean_c":38.37,"peak_c":38.61,"dose":47.6},"coolest":{"len_m":638.6,"mean_c":38.37,"peak_c":38.61,"dose":47.6},"delta_mean_c":0.0,"delta_dose_pct":0,"distance_mi":0.204,"status_now":"walk","status_rec":"walk","reason":"Shortest route already under threshold (dose 48).","safe_until_hour":null}},{"type":"Feature","geometry":{"type":"Polygon","coordinates":[[[-81.45933100017317,28.575505999674178],[-81.45933500037111,28.57544900004114],[-81.45933000034825,28.575241000384647],[-81.45931699992944,28.575152000000184],[-81.45928199976935,28.575033000316942],[-81.45926599987583,28.57491300018183],[-81.45926699970073,28.57441099986806],[-81.4592779995714,28.5743399998582],[-81.45930699988371,28.574207000244073],[-81.45931899957928,28.574122000284017],[-81.45932199995232,28.574057999990323],[-81.4593210001274,28.573644000157614],[-81.45930600005879,28.573596999658157],[-81.45927599992157,28.573556999871236],[-81.45923200043896,28.573527000218295],[-81.45914200002727,28.573494999895328],[-81.45904699959272,28.573477999793763],[-81.45895000040665,28.573475000378835],[-81.45888900030727,28.57348200032838],[-81.4588359997055,28.573501000301775],[-81.45878899984986,28.57352900009024],[-81.4587500003901,28.573565999686558],[-81.45872100007779,28.573608999670228],[-81.45867699969686,28.57372499997865],[-81.45866900019925,28.573747999643754],[-81.45844999991613,28.57445199965192],[-81.45842700034991,28.574498000237043],[-81.45839399983964,28.574540000307806],[-81.45833899958805,28.5745870003859],[-81.458418999954,28.57467500014001],[-81.45848099987828,28.574767000306196],[-81.45848699972608,28.57478100003289],[-81.45852699990904,28.574864999931673],[-81.45855700004624,28.5749700001053],[-81.45856799991691,28.575128000326835],[-81.45856399971896,28.575503999839825],[-81.45856299989406,28.575749999691897],[-81.4591079996921,28.57575100000119],[-81.4591510002481,28.575747000341764],[-81.45921599964711,28.575719999875425],[-81.4592490001574,28.57569699985256],[-81.45928799961715,28.575658999906658],[-81.45931899957928,28.575599999735093],[-81.45932799980011,28.57556300006524],[-81.45933100017317,28.575505999674178]]]},"properties":{"block_id":"120950121001006","school_id":"sch_ucp_pine_hills_charter","kids_est":11,"class":"green","shortest":{"len_m":481.8,"mean_c":38.75,"peak_c":38.85,"dose":38.51},"coolest":{"len_m":481.8,"mean_c":38.75,"peak_c":38.85,"dose":38.51},"delta_mean_c":0.0,"delta_dose_pct":0,"distance_mi":0.207,"status_now":"walk","status_rec":"walk","reason":"Shortest route already under threshold (dose 39).","safe_until_hour":null}},{"type":"Feature","geometry":{"type":"Polygon","coordinates":[[[-81.45856399971896,28.575503999839825],[-81.45856799991691,28.575128000326835],[-81.45855700004624,28.5749700001053],[-81.45852699990904,28.574864999931673],[-81.45848699972608,28.57478100003289],[-81.45848099987828,28.574767000306196],[-81.458418999954,28.57467500014001],[-81.45833899958805,28.5745870003859],[-81.45827599983886,28.57453899998701],[-81.45824099967876,28.574520999733156],[-81.45815700001317,28.5744789996548],[-81.45798299993591,28.574410000334936],[-81.45791500016384,28.574385999703388],[-81.45785700043753,28.574366000356274],[-81.45780600038388,28.574343000037377],[-81.4577500003074,28.57440200012504],[-81.45750099988706,28.57464500001697],[-81.45732900035793,28.574833000015705],[-81.45697899965525,28.575233999763302],[-81.45693099997466,28.575301999806953],[-81.45690199966234,28.575351000170812],[-81.45687800027122,28.575404000184484],[-81.45685700035482,28.57546700013621],[-81.45684099956297,28.575531000361593],[-81.45683300006537,28.575587999950205],[-81.45683300006537,28.575647000128498],[-81.45684399993603,28.575681999937842],[-81.45686499985243,28.575706000273716],[-81.45690900023335,28.575729000294608],[-81.45696000028698,28.57573999975402],[-81.45787499998087,28.575749000171484],[-81.45803399998954,28.57575100000119],[-81.45856299989406,28.575749999691897],[-81.45856399971896,28.575503999839825]]]},"properties":{"block_id":"120950121001007","school_id":"sch_ucp_pine_hills_charter","kids_est":9,"class":"green","shortest":{"len_m":481.8,"mean_c":38.75,"peak_c":38.85,"dose":38.51},"coolest":{"len_m":481.8,"mean_c":38.75,"peak_c":38.85,"dose":38.51},"delta_mean_c":0.0,"delta_dose_pct":0,"distance_mi":0.14,"status_now":"walk","status_rec":"walk","reason":"Shortest route already under threshold (dose 39).","safe_until_hour":null}},{"type":"Feature","geometry":{"type":"Polygon","coordinates":[[[-81.4693739997596,28.574092000003283],[-81.46937100028487,28.573798000270394],[-81.4693650004371,28.572917999970297],[-81.4693650004371,28.57283599997983],[-81.46936000041421,28.572692000265143],[-81.46934699999542,28.572650000245524],[-81.46933500029985,28.57263100011843],[-81.46930299961448,28.572596999633312],[-81.4692619996066,28.57257300016595],[-81.46921499975095,28.572561000035765],[-81.46903900002384,28.572559000145436],[-81.46871400033383,28.572564999816347],[-81.46852400036303,28.57257399971659],[-81.46822899991196,28.572585000294744],[-81.46798200003973,28.572587000184654],[-81.4677130004262,28.57257599960664],[-81.46771699972588,28.573344999878767],[-81.46772199974873,28.574044000167362],[-81.46772299957365,28.574115000377063],[-81.46774500021327,28.5741249996805],[-81.46790300039702,28.574122000284017],[-81.46866499993004,28.57410200009781],[-81.4693739997596,28.574092000003283]]]},"properties":{"block_id":"120950122012005","school_id":"sch_ucp_pine_hills_charter","kids_est":0,"class":"red","shortest":{"len_m":1860.8,"mean_c":38.83,"peak_c":38.93,"dose":150.64},"coolest":{"len_m":1860.8,"mean_c":38.83,"peak_c":38.93,"dose":150.64},"delta_mean_c":0.0,"delta_dose_pct":0,"distance_mi":0.754,"status_now":"walk","status_rec":"bus_eligible","reason":"Coolest route mean 38.8C exceeds threshold (110 C-min dose, actual 151).","safe_until_hour":"14:00"}},{"type":"Feature","geometry":{"type":"Polygon","coordinates":[[[-81.46937799995756,28.574853000062944],[-81.4693739997596,28.574092000003283],[-81.46866499993004,28.57410200009781],[-81.46790300039702,28.574122000284017],[-81.46774500021327,28.5741249996805],[-81.46772299957365,28.574115000377063],[-81.46772699977161,28.57434800007283],[-81.46773000014466,28.57487800011664],[-81.46937799995756,28.574853000062944]]]},"properties":{"block_id":"120950122012006","school_id":"sch_ucp_pine_hills_charter","kids_est":0,"class":"red","shortest":{"len_m":1593.2,"mean_c":38.84,"peak_c":38.93,"dose":129.28},"coolest":{"len_m":1593.2,"mean_c":38.84,"peak_c":38.93,"dose":129.28},"delta_mean_c":0.0,"delta_dose_pct":0,"distance_mi":0.732,"status_now":"walk","status_rec":"bus_eligible","reason":"Coolest route mean 38.8C exceeds threshold (110 C-min dose, actual 129).","safe_until_hour":"14:00"}},{"type":"Feature","geometry":{"type":"Polygon","coordinates":[[[-81.46089799979522,28.58118500038381],[-81.46089100012252,28.58064500030403],[-81.46088699992455,28.578980000090738],[-81.46088600009963,28.578760000104726],[-81.4608829997266,28.578724000249643],[-81.4608619998102,28.578674000386666],[-81.46082199962723,28.57863299988179],[-81.46078800019035,28.57861400004643],[-81.46072999956571,28.578598999758785],[-81.4599689998576,28.578615000328483],[-81.45997600042861,28.58082000038524],[-81.45997999972826,28.580895000218202],[-81.45998700029928,28.580944000343127],[-81.46001400006345,28.58101499983967],[-81.46005400024642,28.58107400012927],[-81.46007599998772,28.581099000282126],[-81.46013999956183,28.581148000311998],[-81.46021400008,28.58118500038381],[-81.46029600009577,28.58120600026957],[-81.46035200017226,28.581210999978786],[-81.46086900038122,28.581187000110162],[-81.46089799979522,28.58118500038381]]]},"properties":{"block_id":"120950123073010","school_id":"sch_ucp_pine_hills_charter","kids_est":1,"class":"green","shortest":{"len_m":799.5,"mean_c":38.59,"peak_c":38.86,"dose":62.03},"coolest":{"len_m":799.5,"mean_c":38.59,"peak_c":38.86,"dose":62.03},"delta_mean_c":0.0,"delta_dose_pct":0,"distance_mi":0.292,"status_now":"walk","status_rec":"walk","reason":"Shortest route already under threshold (dose 62).","safe_until_hour":null}},{"type":"Feature","geometry":{"type":"Polygon","coordinates":[[[-81.45819899984598,28.578677999934804],[-81.45819700019615,28.578551999895502],[-81.45819499964801,28.578174999947127],[-81.4581939998231,28.57805000038159],[-81.4580170002711,28.578042999947126],[-81.45783999982078,28.578036999799767],[-81.45779499961495,28.578036000301093],[-81.45772299964491,28.578036000301093],[-81.4575319998492,28.578035000013518],[-81.45722300005271,28.578033000227244],[-81.45622700016797,28.5780289998657],[-81.45519199992516,28.578016000070146],[-81.45451400005773,28.578011000209038],[-81.4543430003535,28.578011999708004],[-81.45417099992606,28.578011000209038],[-81.45416599990318,28.57887000015525],[-81.45414800035985,28.580308000359693],[-81.45413699959087,28.58034799994605],[-81.45411599967447,28.58038599977572],[-81.4540970003062,28.580406999821008],[-81.45404999955224,28.580432999608266],[-81.45399799967369,28.58044899989896],[-81.45392999990165,28.580454999908753],[-81.45379500018242,28.580454999908753],[-81.45379500018242,28.580572000030827],[-81.45446600037715,28.580578000033587],[-81.45451599970754,28.580578000033587],[-81.45467200024147,28.580579999771466],[-81.45471999992206,28.58059799977735],[-81.4547450000364,28.580620000043304],[-81.4547659999528,28.580662000036195],[-81.45477099997568,28.581101000010108],[-81.45476199975485,28.58113900035652],[-81.45473499999066,28.5811709999318],[-81.45472199957187,28.581178000158],[-81.45470999987631,28.58118500038381],[-81.45468200028722,28.581191999820295],[-81.45444899976039,28.581191999820295],[-81.45443700006484,28.58119300007782],[-81.45418299962162,28.581188000367742],[-81.45362399957989,28.581184000126182],[-81.45347999963984,28.581182999868567],[-81.4533499999435,28.581182999868567],[-81.45303799977397,28.581182999868567],[-81.45274099967304,28.581184000126182],[-81.4521039998135,28.581176999900322],[-81.4518920001014,28.58117500017378],[-81.45179400019211,28.581157999735737],[-81.45175099963608,28.5811540002819],[-81.45157200043425,28.581151000296988],[-81.45157599973389,28.58142700012756],[-81.45157599973389,28.582148000297483],[-81.45180500006276,28.582147000049012],[-81.45235800025671,28.582152999961913],[-81.45261799964939,28.582157000166607],[-81.4528789997653,28.58216199983063],[-81.45332800020219,28.582166000034977],[-81.45333300022504,28.58193300030233],[-81.45333499987488,28.581844000058336],[-81.45333800024792,28.581716999615114],[-81.45334099972266,28.58157699966312],[-81.45334300027082,28.581487999906702],[-81.45334300027082,28.581461000125216],[-81.45334400009571,28.581382999928717],[-81.45334499992063,28.58135700037632],[-81.45334599974554,28.581331000028573],[-81.45336099981415,28.5812959997324],[-81.45338900030157,28.58127000015843],[-81.45341400041592,28.581262999938282],[-81.45343199995925,28.58125800023152],[-81.45475599990706,28.58127300013993],[-81.45479500026514,28.581291000027218],[-81.45481299980847,28.581313000148143],[-81.45482100020439,28.58133299975214],[-81.45482200002931,28.58148199995585],[-81.4548279998771,28.5820799999466],[-81.45483000042522,28.582279999878615],[-81.45494800042601,28.582144000092434],[-81.45530599972798,28.581735999678774],[-81.4554260002769,28.58160100023162],[-81.45553300040702,28.581599999977957],[-81.45585600044721,28.581598000259454],[-81.45596400040223,28.581598000259454],[-81.45596299967902,28.581443000267022],[-81.45596100002919,28.580980000227154],[-81.45596100002919,28.580826000373854],[-81.45596100002919,28.580671000032503],[-81.45596299967902,28.580403000338556],[-81.4559760000978,28.580207999749422],[-81.45598699996846,28.580054000343385],[-81.45599600018929,28.57990599996411],[-81.45602499960329,28.579463000217224],[-81.45602899980125,28.57941700022558],[-81.45604899989273,28.579371000213868],[-81.45608300022793,28.579331999742255],[-81.45610400014434,28.579316000070516],[-81.45612800043376,28.57930399992065],[-81.45618100013722,28.579286999969042],[-81.45645200029887,28.57928500020657],[-81.45743800013787,28.579280999892635],[-81.45756100016152,28.579291999769502],[-81.45759299994857,28.579299000120777],[-81.45768400018517,28.579319000107752],[-81.45778499956917,28.579357000309194],[-81.45787900017883,28.57940600036179],[-81.4579400002782,28.579449000324797],[-81.4580259995936,28.57935400027304],[-81.45804800023323,28.579320000383117],[-81.45808300039333,28.579271000290444],[-81.4581310000739,28.579179999606964],[-81.458166000234,28.579083999823524],[-81.45818499960227,28.579009000276837],[-81.45819600037125,28.578845999752406],[-81.45819899984598,28.578677999934804]]]},"properties":{"block_id":"120950123073001","school_id":"sch_ucp_pine_hills_charter","kids_est":3,"class":"green","shortest":{"len_m":628.9,"mean_c":38.19,"peak_c":38.61,"dose":45.3},"coolest":{"len_m":628.9,"mean_c":38.19,"peak_c":38.61,"dose":45.3},"delta_mean_c":0.0,"delta_dose_pct":0,"distance_mi":0.214,"status_now":"walk","status_rec":"walk","reason":"Shortest route already under threshold (dose 45).","safe_until_hour":null}},{"type":"Feature","geometry":{"type":"Polygon","coordinates":[[[-81.45821399991459,28.58235599970574],[-81.45821200026477,28.582202000289566],[-81.4582070002419,28.58174199961506],[-81.45820600041698,28.581589000342483],[-81.45775699998009,28.58158999980739],[-81.45641200011589,28.58159599975207],[-81.45596400040223,28.581598000259454],[-81.45596699987696,28.58174199961506],[-81.45597000025,28.581817000368233],[-81.45597100007492,28.582173999654387],[-81.45597199989983,28.582222999972256],[-81.45599399964115,28.58227800017305],[-81.4560179999306,28.58230599999168],[-81.4560599997634,28.582336999754087],[-81.45611400019007,28.58235699995215],[-81.45617199991638,28.582362999853068],[-81.4566869995772,28.582361000149078],[-81.45685800017972,28.582361000149078],[-81.45712900034138,28.582359999902646],[-81.45794199992802,28.58235599970574],[-81.45821399991459,28.58235599970574]]]},"properties":{"block_id":"120950123074006","school_id":"sch_ucp_pine_hills_charter","kids_est":2,"class":"green","shortest":{"len_m":959.0,"mean_c":38.25,"peak_c":38.74,"dose":69.92},"coolest":{"len_m":959.0,"mean_c":38.25,"peak_c":38.74,"dose":69.92},"delta_mean_c":0.0,"delta_dose_pct":0,"distance_mi":0.339,"status_now":"walk","status_rec":"walk","reason":"Shortest route already under threshold (dose 70).","safe_until_hour":null}},{"type":"Feature","geometry":{"type":"Polygon","coordinates":[[[-81.45691199970808,28.574658999759883],[-81.45699899974673,28.574562000263047],[-81.45689900018762,28.57449899976933],[-81.45685300015685,28.57447399962557],[-81.45682499966945,28.574461999712238],[-81.45678799985954,28.574447999943104],[-81.45670400019395,28.574420999932272],[-81.45637399958275,28.574351999785463],[-81.45623899986353,28.574327999929586],[-81.45604200022004,28.574292999669762],[-81.45602499960329,28.574365000033815],[-81.45601999958043,28.574409000012896],[-81.45601899975551,28.57442499964212],[-81.45600600023502,28.574828000003293],[-81.45600200003706,28.57496300025476],[-81.45611900021292,28.57496399978263],[-81.4564129999408,28.574968000260746],[-81.45646499981935,28.57497699995536],[-81.45650300035248,28.57499699997521],[-81.4565669999266,28.57504899985127],[-81.45665300014032,28.574950999608294],[-81.45691199970808,28.574658999759883]]]},"properties":{"block_id":"120950121001008","school_id":"sch_ucp_pine_hills_charter","kids_est":3,"class":"green","shortest":{"len_m":252.4,"mean_c":38.71,"peak_c":38.75,"dose":20.01},"coolest":{"len_m":252.4,"mean_c":38.71,"peak_c":38.75,"dose":20.01},"delta_mean_c":0.0,"delta_dose_pct":0,"distance_mi":0.167,"status_now":"walk","status_rec":"walk","reason":"Shortest route already under threshold (dose 20).","safe_until_hour":null}},{"type":"Feature","geometry":{"type":"Polygon","coordinates":[[[-81.45460799976908,28.574863999613957],[-81.45460399957109,28.57439200005902],[-81.45459799972332,28.573632999690115],[-81.45459799972332,28.573206000161633],[-81.45460399957109,28.57309700004497],[-81.45459299970045,28.573055999733025],[-81.45456199973832,28.573006000331574],[-81.45451900008061,28.57297700006826],[-81.45446800002698,28.57295999988292],[-81.45441500032354,28.572956999664314],[-81.4543140000412,28.57296499998411],[-81.45390800016033,28.572968999749374],[-81.45349300005863,28.572970000085064],[-81.45327600032367,28.572971999967645],[-81.45322500027002,28.572980999833018],[-81.4531809998891,28.573003999660774],[-81.45314699955391,28.573038000014357],[-81.4531259996375,28.573079000333312],[-81.45311899996481,28.573123999606732],[-81.45311599959177,28.573644000157614],[-81.45310700026926,28.57375500036405],[-81.45309200020064,28.573875999780515],[-81.45308700017777,28.573907999987593],[-81.45304399962174,28.57424899964211],[-81.45303199992618,28.574319000179454],[-81.4529630003292,28.574619999907842],[-81.45296099978107,28.574629999952244],[-81.45289899985679,28.574819999825188],[-81.45289499965884,28.574863000085134],[-81.45290600042779,28.57490600032751],[-81.45291700029846,28.574926000360858],[-81.4529490000855,28.574958999776452],[-81.4529900000934,28.57498300027728],[-81.45303799977397,28.574993999814694],[-81.45350200027947,28.574995999658753],[-81.45381100007594,28.57499800029168],[-81.45397599993238,28.574998999819215],[-81.45444899976039,28.57500199997958],[-81.45447200022494,28.574998999819215],[-81.45449800016421,28.574995999658753],[-81.45454199964682,28.5749759996387],[-81.45457699980692,28.574946000390412],[-81.45460000027144,28.574906999855912],[-81.45460799976908,28.574863999613957]]]},"properties":{"block_id":"120950121002003","school_id":"sch_ucp_pine_hills_charter","kids_est":6,"class":"red","shortest":{"len_m":1600.9,"mean_c":38.45,"peak_c":38.77,"dose":121.12},"coolest":{"len_m":1601.5,"mean_c":38.41,"peak_c":38.77,"dose":120.26},"delta_mean_c":-0.04,"delta_dose_pct":-1,"distance_mi":0.279,"status_now":"walk","status_rec":"bus_eligible","reason":"Coolest route mean 38.4C exceeds threshold (110 C-min dose, actual 120).","safe_until_hour":"14:00"}},{"type":"Feature","geometry":{"type":"Polygon","coordinates":[[[-81.45218300035452,28.573494000353502],[-81.45218599982927,28.573393000033548],[-81.45217499995861,28.572448999806667],[-81.45197199956901,28.572460999949673],[-81.45167299981827,28.572487000123203],[-81.45162400031279,28.572487999674596],[-81.4512879998538,28.572469999858757],[-81.45125699989167,28.572592000303562],[-81.45122000008173,28.57273800004205],[-81.45120400018823,28.572851999848307],[-81.45119900016535,28.572963999648376],[-81.45119400014248,28.5730900000698],[-81.45118800029469,28.573253000046797],[-81.45117099967794,28.57374200004031],[-81.45116900002813,28.57380500019845],[-81.45114899993662,28.57390400025809],[-81.4510970000581,28.57410700014471],[-81.4509430000723,28.574718999989425],[-81.45091600030813,28.574829000321365],[-81.45088299979786,28.57492000003569],[-81.45106699992085,28.574970999633106],[-81.45133100040984,28.575045999692232],[-81.45155099961956,28.575113999857404],[-81.45161699974177,28.57513300032497],[-81.45180099986479,28.575185999659617],[-81.45191899986557,28.574859000391925],[-81.45201000010216,28.57457400016498],[-81.45207200002645,28.574331999642972],[-81.45212100043025,28.574083999769186],[-81.45215999988999,28.57379599961471],[-81.45218300035452,28.573494000353502]]]},"properties":{"block_id":"120950120001021","school_id":"sch_ucp_pine_hills_charter","kids_est":3,"class":"green","shortest":{"len_m":1014.3,"mean_c":38.29,"peak_c":38.63,"dose":74.46},"coolest":{"len_m":1014.9,"mean_c":38.22,"peak_c":38.63,"dose":73.57},"delta_mean_c":-0.07,"delta_dose_pct":-1,"distance_mi":0.39,"status_now":"walk","status_rec":"walk","reason":"Shortest route already under threshold (dose 74).","safe_until_hour":null}},{"type":"Feature","geometry":{"type":"Polygon","coordinates":[[[-81.46313300013725,28.57650899977544],[-81.46313700033522,28.57645199989706],[-81.46313200031234,28.576422000280793],[-81.46310899984782,28.57639600029088],[-81.46308100025873,28.5763839998079],[-81.46292300007497,28.57638800023201],[-81.46235900001035,28.57640199974296],[-81.46217099968939,28.576407999983598],[-81.46217599971224,28.576667000052115],[-81.46217999991022,28.57685799970016],[-81.462185999758,28.577003999829245],[-81.462193000329,28.577163999954056],[-81.4622000000017,28.577446000173257],[-81.46220800039762,28.577706000343262],[-81.4628899995647,28.57767900037978],[-81.46306399964197,28.577640000069728],[-81.46308399973346,28.577320000235872],[-81.46309299995427,28.57717199995391],[-81.46310399982494,28.576998999920036],[-81.46311100039594,28.576876000343006],[-81.46313300013725,28.57650899977544]]]},"properties":{"block_id":"120950122021005","school_id":"sch_ucp_pine_hills_charter","kids_est":2,"class":"green","shortest":{"len_m":769.0,"mean_c":38.78,"peak_c":39.0,"dose":61.72},"coolest":{"len_m":769.0,"mean_c":38.78,"peak_c":39.0,"dose":61.72},"delta_mean_c":0.0,"delta_dose_pct":0,"distance_mi":0.351,"status_now":"walk","status_rec":"walk","reason":"Shortest route already under threshold (dose 62).","safe_until_hour":null}},{"type":"Feature","geometry":{"type":"Polygon","coordinates":[[[-81.45859399985618,28.576979000280808],[-81.45858700018348,28.576134999732695],[-81.45845800031206,28.57615500032129],[-81.45804900005815,28.5761579996598],[-81.45797299989016,28.576173000295547],[-81.45788699967645,28.576201000161717],[-81.45784300019383,28.57620600010885],[-81.45784700039178,28.57756800036947],[-81.4578409996457,28.57775200029432],[-81.45777700007157,28.57790499962658],[-81.4582630003184,28.57790700020419],[-81.45835299983177,28.57790700020419],[-81.45857700013775,28.57790700020419],[-81.45859399985618,28.576979000280808]]]},"properties":{"block_id":"120950121001005","school_id":"sch_ucp_pine_hills_charter","kids_est":3,"class":"green","shortest":{"len_m":300.5,"mean_c":38.62,"peak_c":38.74,"dose":23.47},"coolest":{"len_m":300.5,"mean_c":38.62,"peak_c":38.74,"dose":23.47},"delta_mean_c":0.0,"delta_dose_pct":0,"distance_mi":0.082,"status_now":"walk","status_rec":"walk","reason":"Shortest route already under threshold (dose 23).","safe_until_hour":null}},{"type":"Feature","geometry":{"type":"Polygon","coordinates":[[[-81.45666700038402,28.5702449997794],[-81.45665999981301,28.57023100023806],[-81.4566520003154,28.57021800026779],[-81.45664999976727,28.570205000295893],[-81.45661399978225,28.57013399981433],[-81.456559000429,28.570053000384323],[-81.45645700032172,28.569942000216713],[-81.45642299998656,28.569910999957095],[-81.45633500012299,28.569847000257493],[-81.45623100036592,28.569786000039144],[-81.45609800029654,28.569730000040348],[-81.45606899998421,28.569718000374856],[-81.45550200044488,28.56954299996933],[-81.45541500040625,28.5695209997535],[-81.45535299958364,28.56951699985722],[-81.45528700035972,28.5695229997016],[-81.45521200001664,28.569539999653273],[-81.45526300007027,28.569793000234124],[-81.45526300007027,28.569977000346185],[-81.45517699985653,28.57053100025852],[-81.45519399957497,28.570904999712038],[-81.45531499994881,28.571107000298365],[-81.45531499994881,28.57205799998818],[-81.45511300028244,28.572213999952766],[-81.45503799993938,28.57233500035266],[-81.45499699993148,28.572538000111166],[-81.45504899981002,28.572545000123053],[-81.4551240001531,28.57256800004612],[-81.45519000027534,28.57260699986996],[-81.45522700008527,28.572640000012974],[-81.45545999971377,28.572966000319887],[-81.45550699956944,28.573004999996186],[-81.45554299955445,28.57302099983894],[-81.45556400036915,28.573031000035268],[-81.45562600029342,28.573043000111827],[-81.45568999986753,28.573039999895588],[-81.45599199999133,28.572958000000174],[-81.45596799970187,28.57287999980949],[-81.45593199971687,28.572809999892492],[-81.4558360003557,28.57262400011227],[-81.45580700004341,28.5725459996739],[-81.45579699999766,28.572478000215597],[-81.4557939996246,28.57236099976847],[-81.45579100014987,28.572201999781644],[-81.45579000032495,28.572052999843876],[-81.45578699995191,28.571606999902],[-81.45578699995191,28.571459000260635],[-81.45578299975396,28.570893000180565],[-81.45579100014987,28.57084000026108],[-81.45581000041645,28.570780000186033],[-81.4558360003557,28.570734000342043],[-81.45587999983833,28.570679999984957],[-81.45591499999844,28.570647000016113],[-81.45596400040223,28.570615999964158],[-81.45654600001019,28.57027799987439],[-81.45663899989663,28.570250000009604],[-81.45666700038402,28.5702449997794]]]},"properties":{"block_id":"120950121001013","school_id":"sch_ucp_pine_hills_charter","kids_est":2,"class":"red","shortest":{"len_m":1608.8,"mean_c":38.46,"peak_c":38.77,"dose":122.01},"coolest":{"len_m":1609.4,"mean_c":38.42,"peak_c":38.77,"dose":121.15},"delta_mean_c":-0.04,"delta_dose_pct":-1,"distance_mi":0.418,"status_now":"walk","status_rec":"bus_eligible","reason":"Coolest route mean 38.4C exceeds threshold (110 C-min dose, actual 121).","safe_until_hour":"14:00"}},{"type":"Feature","geometry":{"type":"Polygon","coordinates":[[[-81.4576370003295,28.57254700001366],[-81.45758499955265,28.572474999983225],[-81.45751299958262,28.57237699970917],[-81.45744200033582,28.572254000250357],[-81.45739899977981,28.57217800022422],[-81.45728099977903,28.572240000187403],[-81.45713500018915,28.57232300019534],[-81.45711400027275,28.5723359999055],[-81.45702100038636,28.57239599988213],[-81.4569050000354,28.572478999767064],[-81.45680799995101,28.57255599991538],[-81.45662200017819,28.572717000043518],[-81.45649199958353,28.572797000240904],[-81.45639399967422,28.572839999749945],[-81.45630400016086,28.57286799971433],[-81.456186999985,28.572905000332053],[-81.45599199999133,28.572958000000174],[-81.45568999986753,28.573039999895588],[-81.45562600029342,28.573043000111827],[-81.45556400036915,28.573031000035268],[-81.45554299955445,28.57302099983894],[-81.45550699956944,28.573004999996186],[-81.45545999971377,28.572966000319887],[-81.45522700008527,28.572640000012974],[-81.45519000027534,28.57260699986996],[-81.4551240001531,28.57256800004612],[-81.45504899981002,28.572545000123053],[-81.45499699993148,28.572538000111166],[-81.45504200013733,28.574930000051506],[-81.45548800020117,28.57495500008691],[-81.45570999995901,28.57496699994401],[-81.45576799968535,28.57496599962726],[-81.45594299958752,28.57496300025476],[-81.45600200003706,28.57496300025476],[-81.45600600023502,28.574828000003293],[-81.45601899975551,28.57442499964212],[-81.45601999958043,28.574409000012896],[-81.45602499960329,28.574365000033815],[-81.45604200022004,28.574292999669762],[-81.45623899986353,28.574327999929586],[-81.45637399958275,28.574351999785463],[-81.45670400019395,28.574420999932272],[-81.45678799985954,28.574447999943104],[-81.45682499966945,28.574461999712238],[-81.45685300015685,28.57447399962557],[-81.45689900018762,28.57449899976933],[-81.45699899974673,28.574562000263047],[-81.45708599978538,28.574461000179596],[-81.45718399969466,28.574349999929165],[-81.45723499974827,28.57429700017334],[-81.45728999999986,28.57424899964211],[-81.4573700003658,28.574180999706712],[-81.45738299988628,28.57417099961969],[-81.45746999992492,28.57409300032834],[-81.45739899977981,28.574029000016953],[-81.45732099996201,28.5739559998855],[-81.45729400019782,28.573935999667714],[-81.45725599966467,28.573913000043717],[-81.45707699956453,28.57384100015923],[-81.45704999980036,28.573824000113568],[-81.45700999961738,28.573800999676163],[-81.45696899960949,28.573769999764625],[-81.45661299995734,28.57340300019452],[-81.45659299986586,28.573356999919525],[-81.45658799984298,28.573324000001403],[-81.45659799988873,28.573275999815138],[-81.456623999828,28.573232000151062],[-81.45666499983588,28.57319900019374],[-81.4568220001947,28.573109000114],[-81.45691500008114,28.573041000230646],[-81.4571379996639,28.57285599961781],[-81.45720100031141,28.572809999892492],[-81.45734400042654,28.572717000043518],[-81.4576370003295,28.57254700001366]]]},"properties":{"block_id":"120950121001010","school_id":"sch_ucp_pine_hills_charter","kids_est":4,"class":"green","shortest":{"len_m":468.6,"mean_c":38.72,"peak_c":38.76,"dose":37.24},"coolest":{"len_m":468.6,"mean_c":38.72,"peak_c":38.76,"dose":37.24},"delta_mean_c":0.0,"delta_dose_pct":0,"distance_mi":0.235,"status_now":"walk","status_rec":"walk","reason":"Shortest route already under threshold (dose 37).","safe_until_hour":null}},{"type":"Feature","geometry":{"type":"Polygon","coordinates":[[[-81.45784700039178,28.57756800036947],[-81.45784300019383,28.57620600010885],[-81.45779399979001,28.57620799992986],[-81.45775299978214,28.576202999982815],[-81.45761399986496,28.576158999965212],[-81.45757500040523,28.576152000193787],[-81.45726200041076,28.576155999837837],[-81.45722999972541,28.57616099978712],[-81.45720100031141,28.57617500011718],[-81.45716699997621,28.57620799992986],[-81.45715600010556,28.576235000270934],[-81.45714400041,28.57632199992032],[-81.45713900038712,28.57643099985101],[-81.45716399960315,28.577592999777924],[-81.45717500037213,28.577649999826978],[-81.45720600033427,28.57771100021887],[-81.4572220002278,28.577782000320152],[-81.4572220002278,28.577902000337893],[-81.45777700007157,28.57790499962658],[-81.4578409996457,28.57775200029432],[-81.45784700039178,28.57756800036947]]]},"properties":{"block_id":"120950121001009","school_id":"sch_ucp_pine_hills_charter","kids_est":1,"class":"green","shortest":{"len_m":175.7,"mean_c":38.57,"peak_c":38.61,"dose":13.6},"coolest":{"len_m":175.7,"mean_c":38.57,"peak_c":38.61,"dose":13.6},"delta_mean_c":0.0,"delta_dose_pct":0,"distance_mi":0.039,"status_now":"walk","status_rec":"walk","reason":"Shortest route already under threshold (dose 14).","safe_until_hour":null}},{"type":"Feature","geometry":{"type":"Polygon","coordinates":[[[-81.46005400024642,28.58107400012927],[-81.46001400006345,28.58101499983967],[-81.45998700029928,28.580944000343127],[-81.45997999972826,28.580895000218202],[-81.45997600042861,28.58082000038524],[-81.4599689998576,28.578615000328483],[-81.45996999968251,28.57847599968615],[-81.45996200018493,28.5780289998657],[-81.45959099956585,28.578050999880137],[-81.45957800004535,28.578050999880137],[-81.45938800007455,28.578055000240855],[-81.45926199967786,28.578058999812527],[-81.45857499958962,28.57806300017295],[-81.45855100019847,28.578061000387194],[-81.4583849996188,28.578057000026707],[-81.4581939998231,28.57805000038159],[-81.45819499964801,28.578174999947127],[-81.45819700019615,28.578551999895502],[-81.45819899984598,28.578677999934804],[-81.45836500042564,28.578674000386666],[-81.45886300036801,28.57866399993789],[-81.45892699994212,28.57867199982365],[-81.45897999964556,28.578694999984908],[-81.45901499980566,28.578721999687595],[-81.45903599972206,28.578744000345953],[-81.45905699963845,28.57878300024667],[-81.45906800040743,28.578825000184306],[-81.45906900023232,28.57921600009479],[-81.45907699972994,28.580744000236994],[-81.45908000010299,28.581253999992633],[-81.45954200006035,28.581251000010585],[-81.45962099970306,28.581243999789166],[-81.45973799987894,28.581219999928123],[-81.45985000003192,28.581182999868567],[-81.45994000044361,28.581139999825698],[-81.46005400024642,28.58107400012927]]]},"properties":{"block_id":"120950123073009","school_id":"sch_ucp_pine_hills_charter","kids_est":3,"class":"green","shortest":{"len_m":527.5,"mean_c":38.7,"peak_c":38.86,"dose":41.78},"coolest":{"len_m":527.5,"mean_c":38.7,"peak_c":38.86,"dose":41.78},"delta_mean_c":0.0,"delta_dose_pct":0,"distance_mi":0.224,"status_now":"walk","status_rec":"walk","reason":"Shortest route already under threshold (dose 42).","safe_until_hour":null}},{"type":"Feature","geometry":{"type":"Polygon","coordinates":[[[-81.45483000042522,28.582279999878615],[-81.4548279998771,28.5820799999466],[-81.45482200002931,28.58148199995585],[-81.45482100020439,28.58133299975214],[-81.45481299980847,28.581313000148143],[-81.45479500026514,28.581291000027218],[-81.45475599990706,28.58127300013993],[-81.45343199995925,28.58125800023152],[-81.45341400041592,28.581262999938282],[-81.45338900030157,28.58127000015843],[-81.45336099981415,28.5812959997324],[-81.45334599974554,28.581331000028573],[-81.45334499992063,28.58135700037632],[-81.45334400009571,28.581382999928717],[-81.45334300027082,28.581461000125216],[-81.45334300027082,28.581487999906702],[-81.45334099972266,28.58157699966312],[-81.45333800024792,28.581716999615114],[-81.45333499987488,28.581844000058336],[-81.45333300022504,28.58193300030233],[-81.45332800020219,28.582166000034977],[-81.45346799994427,28.58216799974268],[-81.45350899995215,28.58217799985829],[-81.45354499993715,28.582202999748645],[-81.45359099996791,28.582269999772713],[-81.45366399976287,28.582263999866477],[-81.45373200043322,28.582263999866477],[-81.45415699968235,28.582269999772713],[-81.45429899997258,28.582272999725706],[-81.45440500027779,28.58227399997295],[-81.45472300029512,28.58227800017305],[-81.45483000042522,28.582279999878615]]]},"properties":{"block_id":"120950123073003","school_id":"sch_ucp_pine_hills_charter","kids_est":8,"class":"green","shortest":{"len_m":973.4,"mean_c":38.34,"peak_c":38.74,"dose":72.15},"coolest":{"len_m":973.4,"mean_c":38.34,"peak_c":38.74,"dose":72.15},"delta_mean_c":0.0,"delta_dose_pct":0,"distance_mi":0.365,"status_now":"walk","status_rec":"walk","reason":"Shortest route already under threshold (dose 72).","safe_until_hour":null}},{"type":"Feature","geometry":{"type":"Polygon","coordinates":[[[-81.47972900041388,28.572328999879712],[-81.47972699986575,28.571933000254177],[-81.47972600004084,28.571520999858517],[-81.47971799964493,28.570747000248545],[-81.47971599999511,28.57046300028676],[-81.47972000019307,28.570351999762803],[-81.47897100018052,28.570351999762803],[-81.47672499996781,28.570353999695104],[-81.47619000021552,28.570355000055706],[-81.4759769997802,28.570364000144924],[-81.47597799960509,28.570628999885244],[-81.47598299962797,28.571423999835208],[-81.47598500017611,28.571689999620453],[-81.47598600000101,28.57182100014547],[-81.47598900037407,28.572217000192566],[-81.47599000019898,28.572349999955748],[-81.47611400004755,28.572346000166945],[-81.47613499996393,28.572346000166945],[-81.47648899996628,28.572346999719752],[-81.47661399963974,28.572348000061396],[-81.47661199998991,28.572036999853903],[-81.47660799979195,28.571405999837324],[-81.47661000034009,28.57123200022483],[-81.47662399968547,28.57119200032762],[-81.47664999962475,28.57115699981343],[-81.47668599960977,28.571131000100145],[-81.47672900016578,28.571113999616585],[-81.4769900002817,28.571107000298365],[-81.47709099966572,28.571107999862924],[-81.47726700029112,28.571109999780862],[-81.47730999994883,28.571123999994168],[-81.47734699975877,28.571149999709178],[-81.47737000022329,28.571180000039924],[-81.4773850002919,28.57122399977326],[-81.4773850002919,28.571279000202967],[-81.47738600011681,28.57149099962501],[-81.47739100013969,28.572127999616573],[-81.4773929997895,28.572341000036346],[-81.47754900032342,28.572339999694687],[-81.4780199996033,28.572337999800144],[-81.47817699996214,28.572337999800144],[-81.47817299976418,28.572220999986214],[-81.47817100011436,28.572020999861497],[-81.4781679997413,28.571284000384036],[-81.47816500026659,28.571246999985114],[-81.47817100011436,28.571210000362168],[-81.47819799987853,28.571160000083353],[-81.47824300008439,28.571122000076524],[-81.47826400000079,28.571116000323325],[-81.47831099985643,28.571104000026914],[-81.47838200000155,28.57109800027268],[-81.47848300028389,28.571102999673485],[-81.47857899964504,28.571102000108873],[-81.47881399982168,28.571102999673485],[-81.4788499998067,28.571113000052136],[-81.47887699957087,28.571129999746923],[-81.47889500001254,28.571142000040307],[-81.47892500014977,28.57118300030921],[-81.47893900039347,28.57123200022483],[-81.478947999716,28.572026000007316],[-81.47895000026413,28.572194999746937],[-81.47895600011192,28.57233200011623],[-81.47911000009769,28.57233099977442],[-81.47957399970487,28.572328999879712],[-81.47972900041388,28.572328999879712]]]},"properties":{"block_id":"120950149082031","school_id":"sch_ucp_pine_hills_charter","kids_est":3,"class":"red","shortest":{"len_m":2567.5,"mean_c":38.74,"peak_c":38.93,"dose":204.64},"coolest":{"len_m":2567.5,"mean_c":38.74,"peak_c":38.93,"dose":204.64},"delta_mean_c":0.0,"delta_dose_pct":0,"distance_mi":1.338,"status_now":"walk","status_rec":"bus_eligible","reason":"Coolest route mean 38.7C exceeds threshold (110 C-min dose, actual 205).","safe_until_hour":"11:00"}},{"type":"Feature","geometry":{"type":"Polygon","coordinates":[[[-81.46014799995775,28.56745499993937],[-81.4601439997598,28.567385999957747],[-81.46000900004057,28.566655999976692],[-81.45971100011475,28.566684999615383],[-81.45931600010455,28.566686999617374],[-81.45924800033248,28.566692000016655],[-81.45921499982221,28.56670000002386],[-81.45914100020235,28.566728000044304],[-81.45909099997364,28.566756000057314],[-81.4588480002994,28.56690900039114],[-81.45875200003992,28.566977000292823],[-81.45867400022213,28.56704999974387],[-81.45853000028207,28.567221000367145],[-81.45844099969531,28.567342999797685],[-81.45841200028131,28.567397999889234],[-81.4583849996188,28.567462000289424],[-81.45835299983177,28.56757200031925],[-81.45828699970951,28.567568999946996],[-81.45822499978524,28.5675510000786],[-81.45818200012754,28.567527999847727],[-81.45810099993669,28.567476000199164],[-81.45766900011655,28.567196999673587],[-81.45740999965047,28.56702399980468],[-81.45723999977115,28.566911000388885],[-81.45719000044075,28.56686099964516],[-81.45713099999121,28.566905999999996],[-81.45712099994546,28.566915000384217],[-81.45694299967023,28.56702399980468],[-81.45687999992104,28.56706399970844],[-81.45672400028543,28.567156999820384],[-81.45625499975706,28.567437999650828],[-81.45609999994636,28.56753199981968],[-81.45603499964902,28.567574000304383],[-81.45595400035648,28.567641999776335],[-81.45592099984621,28.56767699988189],[-81.45587499981548,28.567754999985034],[-81.45585800009702,28.567794000014946],[-81.45583899983046,28.56788100033304],[-81.4558349996325,28.567926000251692],[-81.4558360003557,28.56835600025707],[-81.45583700018062,28.56846299979457],[-81.45582899978471,28.568508999842486],[-81.45580600021849,28.56855000034843],[-81.45578399957886,28.568573000355915],[-81.45574900031708,28.56859800032399],[-81.4557009997382,28.568616000013346],[-81.45559600015622,28.568633999699575],[-81.45552099981313,28.568658000065383],[-81.45546899993458,28.568688000317746],[-81.45542299990383,28.56872500003866],[-81.45537199985021,28.568782000158937],[-81.45533699969012,28.56883900024833],[-81.45510599971144,28.569417999614178],[-81.45521200001664,28.569539999653273],[-81.45528700035972,28.5695229997016],[-81.45535299958364,28.56951699985722],[-81.45541500040625,28.5695209997535],[-81.45550200044488,28.56954299996933],[-81.45606899998421,28.569718000374856],[-81.45609800029654,28.569730000040348],[-81.45623100036592,28.569786000039144],[-81.45633500012299,28.569847000257493],[-81.45642299998656,28.569910999957095],[-81.45645700032172,28.569942000216713],[-81.456559000429,28.570053000384323],[-81.45661399978225,28.57013399981433],[-81.45664999976727,28.570205000295893],[-81.45683600043843,28.570155999902035],[-81.45692900032483,28.5701420003488],[-81.45701299999043,28.570137999687226],[-81.45712199977037,28.570144999858787],[-81.4572430001442,28.57016899987995],[-81.45748199962048,28.570251000371186],[-81.45759299994857,28.570274000006812],[-81.45770400027665,28.570281999741738],[-81.4590600000115,28.570281000169327],[-81.4590600000115,28.571022999765813],[-81.45906300038455,28.57275300037655],[-81.4590580003617,28.57279599990352],[-81.45904699959272,28.572837000316785],[-81.45902800022445,28.57287600004089],[-81.459003999935,28.57291200031951],[-81.45897299997287,28.57294400003088],[-81.45893699998786,28.572971999967645],[-81.45889599997999,28.57299400025079],[-81.45885199959905,28.573010999641642],[-81.45880599956828,28.573022000174188],[-81.45875799988772,28.573027000272422],[-81.45871199985697,28.573027000272422],[-81.45808500004314,28.57302900015386],[-81.45797100024035,28.573043999657955],[-81.45798899978368,28.573116000087893],[-81.45800200020248,28.57323799978359],[-81.45799999965433,28.573289999740247],[-81.45799999965433,28.573337000376785],[-81.45798899978368,28.57341000014885],[-81.4579750004383,28.573470000301896],[-81.45795699999663,28.573522999685384],[-81.45790699976793,28.573635999889447],[-81.45784999986651,28.573721999781853],[-81.4577439995613,28.5738430000252],[-81.45765499987284,28.57392600034633],[-81.457581000253,28.573991999794547],[-81.45746999992492,28.57409300032834],[-81.45738299988628,28.57417099961969],[-81.4573700003658,28.574180999706712],[-81.45728999999986,28.57424899964211],[-81.45723499974827,28.57429700017334],[-81.45718399969466,28.574349999929165],[-81.45708599978538,28.574461000179596],[-81.45699899974673,28.574562000263047],[-81.45691199970808,28.574658999759883],[-81.45665300014032,28.574950999608294],[-81.4565669999266,28.57504899985127],[-81.4565469998351,28.57507200001581],[-81.45650300035248,28.575135000166384],[-81.4564749998651,28.575175999668126],[-81.45644999975073,28.57522500009061],[-81.45642800000942,28.575280000006465],[-81.45639500039746,28.575396000050155],[-81.45638899965137,28.57543200025533],[-81.45637399958275,28.57553899969675],[-81.45636400043533,28.575765000385825],[-81.45636699991005,28.57584499984317],[-81.45637600013087,28.575915000107283],[-81.4563989996971,28.576031000239645],[-81.4564620003446,28.576344999806523],[-81.45648200043608,28.57646400037223],[-81.45648699956065,28.576568000226068],[-81.45648099971287,28.576652999787527],[-81.4564549997736,28.57673499995833],[-81.45629699958985,28.577106000134126],[-81.45625300010724,28.577240000322565],[-81.45623300001574,28.577352999689342],[-81.45622600034305,28.577462999633596],[-81.4562239997949,28.577514000364715],[-81.45622600034305,28.57788899973777],[-81.45703399990683,28.577902000337893],[-81.4572220002278,28.577902000337893],[-81.4572220002278,28.577782000320152],[-81.45720600033427,28.57771100021887],[-81.45717500037213,28.577649999826978],[-81.45716399960315,28.577592999777924],[-81.45713900038712,28.57643099985101],[-81.45714400041,28.57632199992032],[-81.45715600010556,28.576235000270934],[-81.45716699997621,28.57620799992986],[-81.45720100031141,28.57617500011718],[-81.45722999972541,28.57616099978712],[-81.45726200041076,28.576155999837837],[-81.45757500040523,28.576152000193787],[-81.45761399986496,28.576158999965212],[-81.45775299978214,28.576202999982815],[-81.45779399979001,28.57620799992986],[-81.45784300019383,28.57620600010885],[-81.45788699967645,28.576201000161717],[-81.45797299989016,28.576173000295547],[-81.45804900005815,28.5761579996598],[-81.45845800031206,28.57615500032129],[-81.45858700018348,28.576134999732695],[-81.45859399985618,28.576979000280808],[-81.45857700013775,28.57790700020419],[-81.45939499974726,28.57790799970408],[-81.45966300043418,28.577908999992854],[-81.4600940004294,28.57789499989358],[-81.46005000004847,28.575409000169504],[-81.46002699958393,28.57346399989368],[-81.46001700043651,28.572059000332562],[-81.46001200041363,28.5718609998035],[-81.46001099969041,28.571774999967634],[-81.45999399997199,28.571604999993525],[-81.45995899981186,28.571358000353797],[-81.45995700016205,28.57127099975496],[-81.45995299996409,28.571073999674503],[-81.45995299996409,28.57090400014561],[-81.45995299996409,28.57039500027106],[-81.45995399978901,28.570226000006926],[-81.45995499961391,28.569994999799608],[-81.45996100036001,28.569302999661204],[-81.45996200018493,28.569228000241626],[-81.45995899981186,28.569073000167172],[-81.45995700016205,28.56895900021102],[-81.45995799998697,28.56882000022192],[-81.45996499965965,28.568267000359793],[-81.45997700025353,28.568136000143557],[-81.45999300014707,28.56806499984382],[-81.4600030001928,28.56802700029709],[-81.46006199974403,28.567821999744314],[-81.4601360002622,28.567561000005867],[-81.46014799995775,28.56745499993937]],[[-81.45933500037111,28.57544900004114],[-81.45933100017317,28.575505999674178],[-81.45932799980011,28.57556300006524],[-81.45931899957928,28.575599999735093],[-81.45928799961715,28.575658999906658],[-81.4592490001574,28.57569699985256],[-81.45921599964711,28.575719999875425],[-81.4591510002481,28.575747000341764],[-81.4591079996921,28.57575100000119],[-81.45856299989406,28.575749999691897],[-81.45803399998954,28.57575100000119],[-81.45787499998087,28.575749000171484],[-81.45696000028698,28.57573999975402],[-81.45690900023335,28.575729000294608],[-81.45686499985243,28.575706000273716],[-81.45684399993603,28.575681999937842],[-81.45683300006537,28.575647000128498],[-81.45683300006537,28.575587999950205],[-81.45684099956297,28.575531000361593],[-81.45685700035482,28.57546700013621],[-81.45687800027122,28.575404000184484],[-81.45690199966234,28.575351000170812],[-81.45693099997466,28.575301999806953],[-81.45697899965525,28.575233999763302],[-81.45732900035793,28.574833000015705],[-81.45750099988706,28.57464500001697],[-81.4577500003074,28.57440200012504],[-81.45780600038388,28.574343000037377],[-81.45785700043753,28.574366000356274],[-81.45791500016384,28.574385999703388],[-81.45798299993591,28.574410000334936],[-81.45815700001317,28.5744789996548],[-81.45824099967876,28.574520999733156],[-81.45827599983886,28.57453899998701],[-81.45833899958805,28.5745870003859],[-81.45839399983964,28.574540000307806],[-81.45842700034991,28.574498000237043],[-81.45844999991613,28.57445199965192],[-81.45866900019925,28.573747999643754],[-81.45867699969686,28.57372499997865],[-81.45872100007779,28.573608999670228],[-81.4587500003901,28.573565999686558],[-81.45878899984986,28.57352900009024],[-81.4588359997055,28.573501000301775],[-81.45888900030727,28.57348200032838],[-81.45895000040665,28.573475000378835],[-81.45904699959272,28.573477999793763],[-81.45914200002727,28.573494999895328],[-81.45923200043896,28.573527000218295],[-81.45927599992157,28.573556999871236],[-81.45930600005879,28.573596999658157],[-81.4593210001274,28.573644000157614],[-81.45932199995232,28.574057999990323],[-81.45931899957928,28.574122000284017],[-81.45930699988371,28.574207000244073],[-81.4592779995714,28.5743399998582],[-81.45926699970073,28.57441099986806],[-81.45926599987583,28.57491300018183],[-81.45928199976935,28.575033000316942],[-81.45931699992944,28.575152000000184],[-81.45933000034825,28.575241000384647],[-81.45933500037111,28.57544900004114]]]},"properties":{"block_id":"120950121001002","school_id":"sch_ucp_pine_hills_charter","kids_est":26,"class":"green","shortest":{"len_m":580.8,"mean_c":38.74,"peak_c":38.8,"dose":46.33},"coolest":{"len_m":580.8,"mean_c":38.74,"peak_c":38.8,"dose":46.33},"delta_mean_c":0.0,"delta_dose_pct":0,"distance_mi":0.535,"status_now":"walk","status_rec":"walk","reason":"Shortest route already under threshold (dose 46).","safe_until_hour":null}},{"type":"Feature","geometry":{"type":"Polygon","coordinates":[[[-81.46775100006104,28.577630999814065],[-81.46774900041122,28.577444999880083],[-81.46774699986308,28.577306000058204],[-81.46774400038836,28.576676000390258],[-81.46774299966512,28.576419999674954],[-81.46773599999243,28.57565500024373],[-81.46773000014466,28.57487800011664],[-81.46772699977161,28.57434800007283],[-81.46772299957365,28.574115000377063],[-81.46772199974873,28.574044000167362],[-81.46771699972588,28.573344999878767],[-81.4677130004262,28.57257599960664],[-81.46770800040335,28.57180399977334],[-81.46728699955554,28.571815999989855],[-81.46686599960607,28.571828000205063],[-81.46643600033407,28.571840999976395],[-81.46600699998868,28.571855000092437],[-81.46511800023406,28.571885000222156],[-81.46504200006609,28.571883000318966],[-81.46499500021041,28.57187199966734],[-81.46495300037762,28.57184999993849],[-81.46493499993596,28.571835999821786],[-81.46490700034687,28.571801000310703],[-81.46489200027825,28.571760000282627],[-81.46487999968437,28.571556000251682],[-81.46486399979084,28.570884000136587],[-81.4640799996182,28.570906000067414],[-81.46400000015056,28.570907999989178],[-81.46403399958744,28.57181799989437],[-81.46402600008985,28.571856999996164],[-81.46400699982327,28.571892000277487],[-81.46397699968604,28.57192199960778],[-81.4639390000512,28.571944000110484],[-81.46389700021841,28.571954999965662],[-81.46361299963797,28.571965999819678],[-81.46330100036674,28.571972000313338],[-81.46325500033599,28.57196000011462],[-81.46323299969637,28.571949999816475],[-81.46319699971136,28.571921000051006],[-81.46317300032023,28.571883999876096],[-81.46316199955126,28.57184200032285],[-81.46313899998505,28.571152999979322],[-81.46220699967441,28.571176999770557],[-81.46222699976589,28.571880000069648],[-81.4622140002454,28.571922999953486],[-81.462185999758,28.57196000011462],[-81.46214700029824,28.571988000313183],[-81.4621010002675,28.572004000310613],[-81.46207600015315,28.572008000112366],[-81.46176099961056,28.57201599971544],[-81.4604529995563,28.572050000388337],[-81.46015200015572,28.57205799998818],[-81.46001700043651,28.572059000332562],[-81.46002699958393,28.57346399989368],[-81.46005000004847,28.575409000169504],[-81.4600940004294,28.57789499989358],[-81.46097899998605,28.57786699968944],[-81.46143699974547,28.57784799971579],[-81.46191799996939,28.57783000002814],[-81.46217300023753,28.57782200007835],[-81.4629520003873,28.577800000016012],[-81.46306399964197,28.577787000192163],[-81.46440699985635,28.577733000299833],[-81.46451499981139,28.577728999926865],[-81.46524600028056,28.57770300026002],[-81.46533400014413,28.57770000017668],[-81.46629499986877,28.577676000295764],[-81.46775100006104,28.577630999814065]],[[-81.4645099997885,28.577530999814062],[-81.46451099961342,28.57762400014059],[-81.46440600003145,28.577630999814065],[-81.46329499962064,28.577668000334246],[-81.4632210000008,28.577649000324627],[-81.46315800025162,28.577640000069728],[-81.46306399964197,28.577640000069728],[-81.4628899995647,28.57767900037978],[-81.46220800039762,28.577706000343262],[-81.46147199990557,28.577730999718927],[-81.46146799970761,28.577611999797703],[-81.46145900038508,28.577256000310097],[-81.46145699983694,28.57717899965745],[-81.4614610000349,28.57713800014755],[-81.46148799979908,28.57701699974987],[-81.46149000034724,28.57698900010089],[-81.46148600014926,28.57685799970016],[-81.46147399955538,28.576427000217432],[-81.46182199970993,28.576417000343916],[-81.46188799983217,28.576414999737974],[-81.46217099968939,28.576407999983598],[-81.46235900001035,28.57640199974296],[-81.46292300007497,28.57638800023201],[-81.46308100025873,28.5763839998079],[-81.46310899984782,28.57639600029088],[-81.46313200031234,28.576422000280793],[-81.46313700033522,28.57645199989706],[-81.46313300013725,28.57650899977544],[-81.46311100039594,28.576876000343006],[-81.46310399982494,28.576998999920036],[-81.46321099995507,28.577000000217446],[-81.46326700003156,28.5769979996226],[-81.46375900012615,28.57698900010089],[-81.46392300015768,28.576985999997195],[-81.46420900038795,28.576976000176817],[-81.46450399994073,28.57696699986434],[-81.4645080001387,28.57729600026826],[-81.4645099997885,28.577530999814062]]]},"properties":{"block_id":"120950122021002","school_id":"sch_ucp_pine_hills_charter","kids_est":18,"class":"red","shortest":{"len_m":1746.4,"mean_c":38.85,"peak_c":38.93,"dose":141.76},"coolest":{"len_m":1746.4,"mean_c":38.85,"peak_c":38.93,"dose":141.76},"delta_mean_c":0.0,"delta_dose_pct":0,"distance_mi":0.464,"status_now":"walk","status_rec":"bus_eligible","reason":"Coolest route mean 38.9C exceeds threshold (110 C-min dose, actual 142).","safe_until_hour":"14:00"}},{"type":"Feature","geometry":{"type":"Polygon","coordinates":[[[-81.46365600019399,28.581059999662425],[-81.46364899962298,28.58043099986759],[-81.46363100007963,28.578545999777226],[-81.46362500023186,28.57791800022474],[-81.46351300007885,28.57792000001319],[-81.46317699961988,28.577929999743823],[-81.4630660001901,28.577932999820614],[-81.46287799986912,28.577938999973917],[-81.46231800000248,28.577959999718892],[-81.46215499979587,28.577967000158893],[-81.46213100040472,28.577967999658213],[-81.4613969995625,28.57798999968541],[-81.46009699990412,28.5780289998657],[-81.45996200018493,28.5780289998657],[-81.45996999968251,28.57847599968615],[-81.4599689998576,28.578615000328483],[-81.46072999956571,28.578598999758785],[-81.46078800019035,28.57861400004643],[-81.46082199962723,28.57863299988179],[-81.4608619998102,28.578674000386666],[-81.4608829997266,28.578724000249643],[-81.46088600009963,28.578760000104726],[-81.46088699992455,28.578980000090738],[-81.46089100012252,28.58064500030403],[-81.46089799979522,28.58118500038381],[-81.46182099988502,28.581141000083736],[-81.46181099983927,28.58034699968047],[-81.4618040001666,28.578978999812144],[-81.46180199961844,28.578811999698267],[-81.46180199961844,28.578693000211164],[-81.46181900023521,28.578646000389956],[-81.46185100002224,28.57860499987411],[-81.46189399967994,28.578573999800554],[-81.4619459995585,28.578554999954545],[-81.4619740000459,28.57855099961291],[-81.46211600033611,28.578545000283338],[-81.46228299984239,28.578539999658553],[-81.46253899993543,28.578531999762742],[-81.462594000187,28.578539000164604],[-81.46264400041572,28.5785599997898],[-81.46266500033211,28.578575000083003],[-81.46269799994408,28.57861400004643],[-81.46271600038574,28.578660000389206],[-81.46271899986048,28.578684000045612],[-81.46271600038574,28.578753999998256],[-81.4627139998376,28.578842999701685],[-81.46272200023353,28.57978799961905],[-81.46272300005843,28.580513000248487],[-81.46272499970826,28.5810999997517],[-81.4629110003794,28.581092000050603],[-81.46346899969792,28.581066999896084],[-81.46365600019399,28.581059999662425]]]},"properties":{"block_id":"120950123073011","school_id":"sch_ucp_pine_hills_charter","kids_est":2,"class":"green","shortest":{"len_m":897.1,"mean_c":38.79,"peak_c":38.93,"dose":72.16},"coolest":{"len_m":897.1,"mean_c":38.79,"peak_c":38.93,"dose":72.16},"delta_mean_c":0.0,"delta_dose_pct":0,"distance_mi":0.375,"status_now":"walk","status_rec":"walk","reason":"Shortest route already under threshold (dose 72).","safe_until_hour":null}},{"type":"Feature","geometry":{"type":"Polygon","coordinates":[[[-81.46220800039762,28.577706000343262],[-81.4622000000017,28.577446000173257],[-81.462193000329,28.577163999954056],[-81.462185999758,28.577003999829245],[-81.46217999991022,28.57685799970016],[-81.46217599971224,28.576667000052115],[-81.46217099968939,28.576407999983598],[-81.46188799983217,28.576414999737974],[-81.46182199970993,28.576417000343916],[-81.46147399955538,28.576427000217432],[-81.46148600014926,28.57685799970016],[-81.46149000034724,28.57698900010089],[-81.46148799979908,28.57701699974987],[-81.4614610000349,28.57713800014755],[-81.46145699983694,28.57717899965745],[-81.46145900038508,28.577256000310097],[-81.46146799970761,28.577611999797703],[-81.46147199990557,28.577730999718927],[-81.46220800039762,28.577706000343262]]]},"properties":{"block_id":"120950122021004","school_id":"sch_ucp_pine_hills_charter","kids_est":2,"class":"green","shortest":{"len_m":672.4,"mean_c":38.75,"peak_c":38.92,"dose":53.75},"coolest":{"len_m":672.4,"mean_c":38.75,"peak_c":38.92,"dose":53.75},"delta_mean_c":0.0,"delta_dose_pct":0,"distance_mi":0.302,"status_now":"walk","status_rec":"walk","reason":"Shortest route already under threshold (dose 54).","safe_until_hour":null}},{"type":"Feature","geometry":{"type":"Polygon","coordinates":[[[-81.46451099961342,28.57762400014059],[-81.4645099997885,28.577530999814062],[-81.4645080001387,28.57729600026826],[-81.46450399994073,28.57696699986434],[-81.46420900038795,28.576976000176817],[-81.46392300015768,28.576985999997195],[-81.46375900012615,28.57698900010089],[-81.46326700003156,28.5769979996226],[-81.46321099995507,28.577000000217446],[-81.46310399982494,28.576998999920036],[-81.46309299995427,28.57717199995391],[-81.46308399973346,28.577320000235872],[-81.46306399964197,28.577640000069728],[-81.46315800025162,28.577640000069728],[-81.4632210000008,28.577649000324627],[-81.46329499962064,28.577668000334246],[-81.46440600003145,28.577630999814065],[-81.46451099961342,28.57762400014059]]]},"properties":{"block_id":"120950122021006","school_id":"sch_ucp_pine_hills_charter","kids_est":1,"class":"green","shortest":{"len_m":805.1,"mean_c":38.79,"peak_c":38.93,"dose":64.69},"coolest":{"len_m":805.1,"mean_c":38.79,"peak_c":38.93,"dose":64.69},"delta_mean_c":0.0,"delta_dose_pct":0,"distance_mi":0.422,"status_now":"walk","status_rec":"walk","reason":"Shortest route already under threshold (dose 65).","safe_until_hour":null}},{"type":"Feature","geometry":{"type":"Polygon","coordinates":[[[-81.45703499973175,28.57157699969302],[-81.45689900018762,28.57135399973847],[-81.45684899995888,28.571228000393585],[-81.4568220001947,28.571122000076524],[-81.45679899973018,28.570967999991222],[-81.45672199973728,28.57098000030309],[-81.45666400001097,28.571002000213845],[-81.45593000006706,28.57143000035977],[-81.45585200024925,28.571454000087876],[-81.45578699995191,28.571459000260635],[-81.45578699995191,28.571606999902],[-81.45579000032495,28.572052999843876],[-81.45579100014987,28.572201999781644],[-81.45589599973187,28.5721969996442],[-81.45596100002919,28.572185999814327],[-81.45602899980125,28.572162000253265],[-81.45606200031152,28.572143000038043],[-81.45609999994636,28.5721239998194],[-81.4567920000575,28.571719000238524],[-81.45703499973175,28.57157699969302]]]},"properties":{"block_id":"120950121001015","school_id":"sch_ucp_pine_hills_charter","kids_est":1,"class":"red","shortest":{"len_m":1608.8,"mean_c":38.46,"peak_c":38.77,"dose":122.01},"coolest":{"len_m":1609.4,"mean_c":38.42,"peak_c":38.77,"dose":121.15},"delta_mean_c":-0.04,"delta_dose_pct":-1,"distance_mi":0.376,"status_now":"walk","status_rec":"bus_eligible","reason":"Coolest route mean 38.4C exceeds threshold (110 C-min dose, actual 121).","safe_until_hour":"14:00"}},{"type":"Feature","geometry":{"type":"Polygon","coordinates":[[[-81.45819600037125,28.58004599977387],[-81.45819299999819,28.57991000025427],[-81.45819299999819,28.579893999881573],[-81.45817700010467,28.57979900023176],[-81.45814500031761,28.579706999733446],[-81.45809699973873,28.579619999728383],[-81.45803700036258,28.579541999744283],[-81.45802999979158,28.5795320001669],[-81.4579400002782,28.579449000324797],[-81.45787900017883,28.57940600036179],[-81.45778499956917,28.579357000309194],[-81.45768400018517,28.579319000107752],[-81.45759299994857,28.579299000120777],[-81.45756100016152,28.579291999769502],[-81.45743800013787,28.579280999892635],[-81.45645200029887,28.57928500020657],[-81.45618100013722,28.579286999969042],[-81.45612800043376,28.57930399992065],[-81.45610400014434,28.579316000070516],[-81.45608300022793,28.579331999742255],[-81.45604899989273,28.579371000213868],[-81.45602899980125,28.57941700022558],[-81.45602499960329,28.579463000217224],[-81.45599600018929,28.57990599996411],[-81.45598699996846,28.580054000343385],[-81.45642800000942,28.58005300007502],[-81.45775399960705,28.58005000005871],[-81.45777299987363,28.58005000005871],[-81.45819600037125,28.58004599977387]]]},"properties":{"block_id":"120950123073002","school_id":"sch_ucp_pine_hills_charter","kids_est":1,"class":"green","shortest":{"len_m":492.2,"mean_c":38.61,"peak_c":38.74,"dose":38.38},"coolest":{"len_m":492.2,"mean_c":38.61,"peak_c":38.74,"dose":38.38},"delta_mean_c":0.0,"delta_dose_pct":0,"distance_mi":0.181,"status_now":"walk","status_rec":"walk","reason":"Shortest route already under threshold (dose 38).","safe_until_hour":null}},{"type":"Feature","geometry":{"type":"Polygon","coordinates":[[[-81.45799999965433,28.573289999740247],[-81.45800200020248,28.57323799978359],[-81.45798899978368,28.573116000087893],[-81.45797100024035,28.573043999657955],[-81.45795799982155,28.5729980000149],[-81.45792699985941,28.572930999606935],[-81.45791500016384,28.572905000332053],[-81.45785900008734,28.572806000121236],[-81.45777600024668,28.57270199970389],[-81.45771699979713,28.572636999785235],[-81.4576370003295,28.57254700001366],[-81.45734400042654,28.572717000043518],[-81.45720100031141,28.572809999892492],[-81.4571379996639,28.57285599961781],[-81.45691500008114,28.573041000230646],[-81.4568220001947,28.573109000114],[-81.45666499983588,28.57319900019374],[-81.456623999828,28.573232000151062],[-81.45659799988873,28.573275999815138],[-81.45658799984298,28.573324000001403],[-81.45659299986586,28.573356999919525],[-81.45661299995734,28.57340300019452],[-81.45696899960949,28.573769999764625],[-81.45700999961738,28.573800999676163],[-81.45704999980036,28.573824000113568],[-81.45707699956453,28.57384100015923],[-81.45725599966467,28.573913000043717],[-81.45729400019782,28.573935999667714],[-81.45732099996201,28.5739559998855],[-81.45739899977981,28.574029000016953],[-81.45746999992492,28.57409300032834],[-81.457581000253,28.573991999794547],[-81.45765499987284,28.57392600034633],[-81.4577439995613,28.5738430000252],[-81.45784999986651,28.573721999781853],[-81.45790699976793,28.573635999889447],[-81.45795699999663,28.573522999685384],[-81.4579750004383,28.573470000301896],[-81.45798899978368,28.57341000014885],[-81.45799999965433,28.573337000376785],[-81.45799999965433,28.573289999740247]]]},"properties":{"block_id":"120950121001004","school_id":"sch_ucp_pine_hills_charter","kids_est":2,"class":"green","shortest":{"len_m":519.5,"mean_c":38.74,"peak_c":38.8,"dose":41.46},"coolest":{"len_m":519.5,"mean_c":38.74,"peak_c":38.8,"dose":41.46},"delta_mean_c":0.0,"delta_dose_pct":0,"distance_mi":0.258,"status_now":"walk","status_rec":"walk","reason":"Shortest route already under threshold (dose 41).","safe_until_hour":null}},{"type":"Feature","geometry":{"type":"Polygon","coordinates":[[[-81.45531499994881,28.57205799998818],[-81.45531499994881,28.571107000298365],[-81.45519399957497,28.570904999712038],[-81.45517699985653,28.57053100025852],[-81.45526300007027,28.569977000346185],[-81.45526300007027,28.569793000234124],[-81.45521200001664,28.569539999653273],[-81.45508700034317,28.569587999966163],[-81.45502700006872,28.569604000328567],[-81.4549209997635,28.569834999816404],[-81.45486999970989,28.569905000134852],[-81.45480500031088,28.569964000344555],[-81.45472800031797,28.57002200015741],[-81.45467899991418,28.570040999966718],[-81.45460799976908,28.570050999657354],[-81.45455400024069,28.570046000206627],[-81.45408600043555,28.569925000329977],[-81.45377400026602,28.569845000315574],[-81.45368600040247,28.56983099993206],[-81.45321199985123,28.569877999747074],[-81.45288100031345,28.569914999838414],[-81.45271300008395,28.569933999667043],[-81.45252200028824,28.569940000276578],[-81.45214700036954,28.569940000276578],[-81.45217499995861,28.572448999806667],[-81.45269499964228,28.57240499979677],[-81.45283199990963,28.57241399971065],[-81.45290800007763,28.572430999984146],[-81.45311800013991,28.572525999977003],[-81.4531809998891,28.572541000341733],[-81.45322699991986,28.572543999783278],[-81.45390700033542,28.572541999892604],[-81.45402199996315,28.572541999892604],[-81.45436900029279,28.572540000001904],[-81.4545120004079,28.572538999662076],[-81.45499699993148,28.572538000111166],[-81.45503799993938,28.57233500035266],[-81.45511300028244,28.572213999952766],[-81.45531499994881,28.57205799998818]],[[-81.45451999990551,28.571239999886856],[-81.45451700043078,28.572146000279865],[-81.45444899976039,28.572146999834505],[-81.45443600023994,28.572148000178057],[-81.45425499959164,28.572139999796132],[-81.45421000028412,28.572132000202522],[-81.45406299997103,28.572091000303388],[-81.45376500004518,28.5720049998666],[-81.45362799977785,28.57196999962287],[-81.4535969998157,28.571949000259966],[-81.45358000009728,28.57191999970529],[-81.4535769997242,28.571887999682403],[-81.45360900040959,28.571787999745503],[-81.45362199993006,28.57174899961814],[-81.45361899955702,28.57169299987519],[-81.45360299966349,28.57165399971261],[-81.45357800044745,28.57161999970068],[-81.45350099955623,28.571552999993028],[-81.45321400039937,28.57135599965171],[-81.45318900028501,28.57132499980867],[-81.45317500004131,28.571288999775934],[-81.45317500004131,28.571246999985114],[-81.45318900028501,28.571205999741156],[-81.45320400035364,28.57118399987305],[-81.45324600018643,28.5711620000003],[-81.45327700014856,28.571154000332328],[-81.45351800017299,28.571151999626313],[-81.45396900025969,28.571149999709178],[-81.45436099989685,28.571147999792032],[-81.45442100017131,28.571147999792032],[-81.45445399978328,28.57115600024939],[-81.45448300009559,28.571172999937215],[-81.45450499983691,28.571196999723945],[-81.45451999990551,28.571239999886856]]]},"properties":{"block_id":"120950121002004","school_id":"sch_ucp_pine_hills_charter","kids_est":1,"class":"green","shortest":{"len_m":1297.4,"mean_c":38.4,"peak_c":38.77,"dose":97.23},"coolest":{"len_m":1298.0,"mean_c":38.34,"peak_c":38.77,"dose":96.37},"delta_mean_c":-0.06,"delta_dose_pct":-1,"distance_mi":0.45,"status_now":"walk","status_rec":"walk","reason":"Shortest route already under threshold (dose 97).","safe_until_hour":null}},{"type":"Feature","geometry":{"type":"Polygon","coordinates":[[[-81.45820200021902,28.580817999863065],[-81.4581999996709,28.580663000298774],[-81.45819700019615,28.580199999980476],[-81.45819600037125,28.58004599977387],[-81.45777299987363,28.58005000005871],[-81.45775399960705,28.58005000005871],[-81.45642800000942,28.58005300007502],[-81.45598699996846,28.580054000343385],[-81.4559760000978,28.580207999749422],[-81.45596299967902,28.580403000338556],[-81.45596100002919,28.580671000032503],[-81.45596100002919,28.580826000373854],[-81.45640899974283,28.580823000379592],[-81.45775299978214,28.580816000129687],[-81.45820200021902,28.580817999863065]]]},"properties":{"block_id":"120950123073006","school_id":"sch_ucp_pine_hills_charter","kids_est":3,"class":"green","shortest":{"len_m":759.0,"mean_c":38.49,"peak_c":38.74,"dose":57.9},"coolest":{"len_m":759.0,"mean_c":38.49,"peak_c":38.74,"dose":57.9},"delta_mean_c":0.0,"delta_dose_pct":0,"distance_mi":0.233,"status_now":"walk","status_rec":"walk","reason":"Shortest route already under threshold (dose 58).","safe_until_hour":null}},{"type":"Feature","geometry":{"type":"Polygon","coordinates":[[[-81.45820600041698,28.581589000342483],[-81.45820499969375,28.58143400033678],[-81.45820200021902,28.580971999728117],[-81.45820200021902,28.580817999863065],[-81.45775299978214,28.580816000129687],[-81.45640899974283,28.580823000379592],[-81.45596100002919,28.580826000373854],[-81.45596100002919,28.580980000227154],[-81.45596299967902,28.581443000267022],[-81.45596400040223,28.581598000259454],[-81.45641200011589,28.58159599975207],[-81.45775699998009,28.58158999980739],[-81.45820600041698,28.581589000342483]]]},"properties":{"block_id":"120950123073007","school_id":"sch_ucp_pine_hills_charter","kids_est":1,"class":"green","shortest":{"len_m":844.6,"mean_c":38.44,"peak_c":38.74,"dose":63.76},"coolest":{"len_m":844.6,"mean_c":38.44,"peak_c":38.74,"dose":63.76},"delta_mean_c":0.0,"delta_dose_pct":0,"distance_mi":0.286,"status_now":"walk","status_rec":"walk","reason":"Shortest route already under threshold (dose 64).","safe_until_hour":null}},{"type":"Feature","geometry":{"type":"Polygon","coordinates":[[[-81.45908199975281,28.58142299989515],[-81.45908000010299,28.58131700038479],[-81.45908000010299,28.581253999992633],[-81.45907699972994,28.580744000236994],[-81.45906900023232,28.57921600009479],[-81.45906800040743,28.578825000184306],[-81.45905699963845,28.57878300024667],[-81.45903599972206,28.578744000345953],[-81.45901499980566,28.578721999687595],[-81.45897999964556,28.578694999984908],[-81.45892699994212,28.57867199982365],[-81.45886300036801,28.57866399993789],[-81.45836500042564,28.578674000386666],[-81.45819899984598,28.578677999934804],[-81.45819600037125,28.578845999752406],[-81.45818499960227,28.579009000276837],[-81.458166000234,28.579083999823524],[-81.4581310000739,28.579179999606964],[-81.45808300039333,28.579271000290444],[-81.45804800023323,28.579320000383117],[-81.4580259995936,28.57935400027304],[-81.4579400002782,28.579449000324797],[-81.45802999979158,28.5795320001669],[-81.45803700036258,28.579541999744283],[-81.45809699973873,28.579619999728383],[-81.45814500031761,28.579706999733446],[-81.45817700010467,28.57979900023176],[-81.45819299999819,28.579893999881573],[-81.45819299999819,28.57991000025427],[-81.45819600037125,28.58004599977387],[-81.45819700019615,28.580199999980476],[-81.4581999996709,28.580663000298774],[-81.45820200021902,28.580817999863065],[-81.45820200021902,28.580971999728117],[-81.45820499969375,28.58143400033678],[-81.45820600041698,28.581589000342483],[-81.45836799990036,28.581588000088697],[-81.45885499997209,28.581586999834922],[-81.45890000017793,28.581586999834922],[-81.45895999955407,28.581573000225223],[-81.45900899995789,28.58154599967675],[-81.45905300033881,28.581501000061916],[-81.45907699972994,28.58144999968633],[-81.45908199975281,28.58142299989515]]]},"properties":{"block_id":"120950123073008","school_id":"sch_ucp_pine_hills_charter","kids_est":1,"class":"green","shortest":{"len_m":570.9,"mean_c":38.57,"peak_c":38.74,"dose":44.19},"coolest":{"len_m":570.9,"mean_c":38.57,"peak_c":38.74,"dose":44.19},"delta_mean_c":0.0,"delta_dose_pct":0,"distance_mi":0.235,"status_now":"walk","status_rec":"walk","reason":"Shortest route already under threshold (dose 44).","safe_until_hour":null}}]}