{"type":"FeatureCollection","features":[{"type":"Feature","geometry":{"type":"Polygon","coordinates":[[[-81.482,28.5352],[-81.468,28.5352],[-81.468,28.5548],[-81.482,28.5548],[-81.482,28.5352]]]},"properties":{"block_id":"120951232001002","school_id":"sch_oak_hill_elementary","kids_est":35,"class":"green","shortest":{"len_m":701.6,"mean_c":35.13,"peak_c":36.33,"dose":20.8},"coolest":{"len_m":771.1,"mean_c":34.62,"peak_c":35.62,"dose":17.4},"delta_mean_c":-0.51,"delta_dose_pct":-16,"distance_mi":0.349,"status_now":"walk","status_rec":"walk","reason":"Shortest route already under threshold (dose 21).","safe_until_hour":null}}]}