{"type":"FeatureCollection","features":[{"type":"Feature","geometry":{"type":"Polygon","coordinates":[[[-81.412,28.5548],[-81.398,28.5548],[-81.398,28.5744],[-81.412,28.5744],[-81.412,28.5548]]]},"properties":{"block_id":"120951237001003","school_id":"sch_lake_silver_elementary","kids_est":23,"class":"green","shortest":{"len_m":1330.3,"mean_c":36.21,"peak_c":37.41,"dose":59.3},"coolest":{"len_m":1648.7,"mean_c":33.96,"peak_c":34.96,"dose":21.9},"delta_mean_c":-2.25,"delta_dose_pct":-63,"distance_mi":0.661,"status_now":"walk","status_rec":"walk","reason":"Shortest route already under threshold (dose 59).","safe_until_hour":null}}]}