{"type":"FeatureCollection","features":[{"type":"Feature","geometry":{"type":"Polygon","coordinates":[[[-81.4502,28.5722],[-81.44585,28.5722],[-81.44585,28.57665],[-81.4502,28.57665],[-81.4502,28.5722]]]},"properties":{"block_id":"FIXTURE-0600","school_id":"sch_maynard_evans_high","kids_est":44,"class":"green","shortest":{"len_m":690.4,"mean_c":36.45,"peak_c":37.65,"dose":33.1},"coolest":{"len_m":865.4,"mean_c":33.89,"peak_c":34.89,"dose":10.7},"delta_mean_c":-2.56,"delta_dose_pct":-68,"distance_mi":0.343,"status_now":"walk","status_rec":"walk","reason":"Shortest route already under threshold (dose 33).","safe_until_hour":null}},{"type":"Feature","geometry":{"type":"Polygon","coordinates":[[[-81.44585,28.5722],[-81.4415,28.5722],[-81.4415,28.57665],[-81.44585,28.57665],[-81.44585,28.5722]]]},"properties":{"block_id":"FIXTURE-0700","school_id":"sch_maynard_evans_high","kids_est":34,"class":"green","shortest":{"len_m":911.3,"mean_c":37.15,"peak_c":38.35,"dose":52.5},"coolest":{"len_m":1124.2,"mean_c":34.31,"peak_c":35.31,"dose":20.4},"delta_mean_c":-2.84,"delta_dose_pct":-61,"distance_mi":0.453,"status_now":"walk","status_rec":"walk","reason":"Shortest route already under threshold (dose 52).","safe_until_hour":null}},{"type":"Feature","geometry":{"type":"Polygon","coordinates":[[[-81.4415,28.5722],[-81.43715,28.5722],[-81.43715,28.57665],[-81.4415,28.57665],[-81.4415,28.5722]]]},"properties":{"block_id":"FIXTURE-0800","school_id":"sch_maynard_evans_high","kids_est":12,"class":"green","shortest":{"len_m":1322.7,"mean_c":37.16,"peak_c":38.36,"dose":76.4},"coolest":{"len_m":1654.1,"mean_c":34.1,"peak_c":35.1,"dose":25.3},"delta_mean_c":-3.06,"delta_dose_pct":-67,"distance_mi":0.658,"status_now":"walk","status_rec":"walk","reason":"Shortest route already under threshold (dose 76).","safe_until_hour":null}},{"type":"Feature","geometry":{"type":"Polygon","coordinates":[[[-81.43715,28.5722],[-81.4328,28.5722],[-81.4328,28.57665],[-81.43715,28.57665],[-81.43715,28.5722]]]},"properties":{"block_id":"FIXTURE-0900","school_id":"sch_maynard_evans_high","kids_est":33,"class":"yellow","shortest":{"len_m":1798.2,"mean_c":37.65,"peak_c":38.85,"dose":116.1},"coolest":{"len_m":2012.1,"mean_c":36.2,"peak_c":37.2,"dose":89.4},"delta_mean_c":-1.45,"delta_dose_pct":-23,"distance_mi":0.894,"status_now":"walk","status_rec":"reroute","reason":"Shortest route exceeds threshold, but coolest route mean 36.2C stays under it (dose 89).","safe_until_hour":null}},{"type":"Feature","geometry":{"type":"Polygon","coordinates":[[[-81.4328,28.5722],[-81.42845,28.5722],[-81.42845,28.57665],[-81.4328,28.57665],[-81.4328,28.5722]]]},"properties":{"block_id":"FIXTURE-1000","school_id":"sch_maynard_evans_high","kids_est":26,"class":"red","shortest":{"len_m":2298.5,"mean_c":37.78,"peak_c":38.98,"dose":152.6},"coolest":{"len_m":2571.4,"mean_c":36.29,"peak_c":37.29,"dose":117.6},"delta_mean_c":-1.49,"delta_dose_pct":-23,"distance_mi":1.143,"status_now":"walk","status_rec":"bus_eligible","reason":"Coolest route mean 36.3C exceeds threshold (110 C-min dose, actual 118).","safe_until_hour":"14:00"}},{"type":"Feature","geometry":{"type":"Polygon","coordinates":[[[-81.42845,28.5722],[-81.4241,28.5722],[-81.4241,28.57665],[-81.42845,28.57665],[-81.42845,28.5722]]]},"properties":{"block_id":"FIXTURE-1100","school_id":"sch_maynard_evans_high","kids_est":44,"class":"red","shortest":{"len_m":2810.2,"mean_c":38.19,"peak_c":39.39,"dose":202.6},"coolest":{"len_m":3136.6,"mean_c":36.62,"peak_c":37.62,"dose":157.9},"delta_mean_c":-1.57,"delta_dose_pct":-22,"distance_mi":1.397,"status_now":"walk","status_rec":"bus_eligible","reason":"Coolest route mean 36.6C exceeds threshold (110 C-min dose, actual 158).","safe_until_hour":"10:00"}},{"type":"Feature","geometry":{"type":"Polygon","coordinates":[[[-81.45455,28.57665],[-81.4502,28.57665],[-81.4502,28.5811],[-81.45455,28.5811],[-81.45455,28.57665]]]},"properties":{"block_id":"FIXTURE-0501","school_id":"sch_maynard_evans_high","kids_est":29,"class":"green","shortest":{"len_m":470.1,"mean_c":36.01,"peak_c":37.21,"dose":19.7},"coolest":{"len_m":585.1,"mean_c":33.85,"peak_c":34.85,"dose":6.9},"delta_mean_c":-2.16,"delta_dose_pct":-65,"distance_mi":0.234,"status_now":"walk","status_rec":"walk","reason":"Shortest route already under threshold (dose 20).","safe_until_hour":null}},{"type":"Feature","geometry":{"type":"Polygon","coordinates":[[[-81.4502,28.57665],[-81.44585,28.57665],[-81.44585,28.5811],[-81.4502,28.5811],[-81.4502,28.57665]]]},"properties":{"block_id":"FIXTURE-0601","school_id":"sch_maynard_evans_high","kids_est":17,"class":"green","shortest":{"len_m":98.6,"mean_c":36.48,"peak_c":37.68,"dose":4.8},"coolest":{"len_m":122.5,"mean_c":34.0,"peak_c":35.0,"dose":1.7},"delta_mean_c":-2.48,"delta_dose_pct":-65,"distance_mi":0.049,"status_now":"walk","status_rec":"walk","reason":"Shortest route already under threshold (dose 5).","safe_until_hour":null}},{"type":"Feature","geometry":{"type":"Polygon","coordinates":[[[-81.44585,28.57665],[-81.4415,28.57665],[-81.4415,28.5811],[-81.44585,28.5811],[-81.44585,28.57665]]]},"properties":{"block_id":"FIXTURE-0701","school_id":"sch_maynard_evans_high","kids_est":36,"class":"green","shortest":{"len_m":603.0,"mean_c":36.69,"peak_c":37.89,"dose":30.9},"coolest":{"len_m":751.5,"mean_c":34.03,"peak_c":35.03,"dose":10.7},"delta_mean_c":-2.66,"delta_dose_pct":-65,"distance_mi":0.3,"status_now":"walk","status_rec":"walk","reason":"Shortest route already under threshold (dose 31).","safe_until_hour":null}},{"type":"Feature","geometry":{"type":"Polygon","coordinates":[[[-81.4415,28.57665],[-81.43715,28.57665],[-81.43715,28.5811],[-81.4415,28.5811],[-81.4415,28.57665]]]},"properties":{"block_id":"FIXTURE-0801","school_id":"sch_maynard_evans_high","kids_est":13,"class":"green","shortest":{"len_m":1132.5,"mean_c":37.38,"peak_c":38.58,"dose":68.9},"coolest":{"len_m":1417.4,"mean_c":34.15,"peak_c":35.15,"dose":22.6},"delta_mean_c":-3.23,"delta_dose_pct":-67,"distance_mi":0.563,"status_now":"walk","status_rec":"walk","reason":"Shortest route already under threshold (dose 69).","safe_until_hour":null}},{"type":"Feature","geometry":{"type":"Polygon","coordinates":[[[-81.43715,28.57665],[-81.4328,28.57665],[-81.4328,28.5811],[-81.43715,28.5811],[-81.43715,28.57665]]]},"properties":{"block_id":"FIXTURE-0901","school_id":"sch_maynard_evans_high","kids_est":26,"class":"green","shortest":{"len_m":1663.3,"mean_c":36.82,"peak_c":38.02,"dose":88.2},"coolest":{"len_m":2062.4,"mean_c":34.13,"peak_c":35.13,"dose":32.4},"delta_mean_c":-2.69,"delta_dose_pct":-63,"distance_mi":0.827,"status_now":"walk","status_rec":"walk","reason":"Shortest route already under threshold (dose 88).","safe_until_hour":null}},{"type":"Feature","geometry":{"type":"Polygon","coordinates":[[[-81.4328,28.57665],[-81.42845,28.57665],[-81.42845,28.5811],[-81.4328,28.5811],[-81.4328,28.57665]]]},"properties":{"block_id":"FIXTURE-1001","school_id":"sch_maynard_evans_high","kids_est":15,"class":"red","shortest":{"len_m":2194.5,"mean_c":37.88,"peak_c":39.08,"dose":148.7},"coolest":{"len_m":2436.5,"mean_c":36.51,"peak_c":37.51,"dose":118.8},"delta_mean_c":-1.37,"delta_dose_pct":-20,"distance_mi":1.091,"status_now":"walk","status_rec":"bus_eligible","reason":"Coolest route mean 36.5C exceeds threshold (110 C-min dose, actual 119).","safe_until_hour":"14:00"}},{"type":"Feature","geometry":{"type":"Polygon","coordinates":[[[-81.42845,28.57665],[-81.4241,28.57665],[-81.4241,28.5811],[-81.42845,28.5811],[-81.42845,28.57665]]]},"properties":{"block_id":"FIXTURE-1101","school_id":"sch_maynard_evans_high","kids_est":20,"class":"red","shortest":{"len_m":2725.8,"mean_c":37.67,"peak_c":38.87,"dose":176.8},"coolest":{"len_m":2997.8,"mean_c":36.54,"peak_c":37.54,"dose":147.5},"delta_mean_c":-1.13,"delta_dose_pct":-17,"distance_mi":1.355,"status_now":"walk","status_rec":"bus_eligible","reason":"Coolest route mean 36.5C exceeds threshold (110 C-min dose, actual 148).","safe_until_hour":"10:00"}},{"type":"Feature","geometry":{"type":"Polygon","coordinates":[[[-81.45455,28.5811],[-81.4502,28.5811],[-81.4502,28.58555],[-81.45455,28.58555],[-81.45455,28.5811]]]},"properties":{"block_id":"FIXTURE-0502","school_id":"sch_maynard_evans_high","kids_est":21,"class":"green","shortest":{"len_m":714.2,"mean_c":36.54,"peak_c":37.74,"dose":35.1},"coolest":{"len_m":888.4,"mean_c":34.0,"peak_c":35.0,"dose":12.4},"delta_mean_c":-2.54,"delta_dose_pct":-65,"distance_mi":0.355,"status_now":"walk","status_rec":"walk","reason":"Shortest route already under threshold (dose 35).","safe_until_hour":null}},{"type":"Feature","geometry":{"type":"Polygon","coordinates":[[[-81.4502,28.5811],[-81.44585,28.5811],[-81.44585,28.58555],[-81.4502,28.58555],[-81.4502,28.5811]]]},"properties":{"block_id":"FIXTURE-0602","school_id":"sch_maynard_evans_high","kids_est":35,"class":"green","shortest":{"len_m":546.7,"mean_c":36.73,"peak_c":37.93,"dose":28.3},"coolest":{"len_m":685.4,"mean_c":33.96,"peak_c":34.96,"dose":9.1},"delta_mean_c":-2.77,"delta_dose_pct":-68,"distance_mi":0.272,"status_now":"walk","status_rec":"walk","reason":"Shortest route already under threshold (dose 28).","safe_until_hour":null}},{"type":"Feature","geometry":{"type":"Polygon","coordinates":[[[-81.44585,28.5811],[-81.4415,28.5811],[-81.4415,28.58555],[-81.44585,28.58555],[-81.44585,28.5811]]]},"properties":{"block_id":"FIXTURE-0702","school_id":"sch_maynard_evans_high","kids_est":35,"class":"green","shortest":{"len_m":807.9,"mean_c":36.51,"peak_c":37.71,"dose":39.4},"coolest":{"len_m":1002.1,"mean_c":34.03,"peak_c":35.03,"dose":14.4},"delta_mean_c":-2.48,"delta_dose_pct":-63,"distance_mi":0.402,"status_now":"walk","status_rec":"walk","reason":"Shortest route already under threshold (dose 39).","safe_until_hour":null}},{"type":"Feature","geometry":{"type":"Polygon","coordinates":[[[-81.4415,28.5811],[-81.43715,28.5811],[-81.43715,28.58555],[-81.4415,28.58555],[-81.4415,28.5811]]]},"properties":{"block_id":"FIXTURE-0802","school_id":"sch_maynard_evans_high","kids_est":44,"class":"green","shortest":{"len_m":1253.7,"mean_c":36.57,"peak_c":37.77,"dose":62.2},"coolest":{"len_m":1564.9,"mean_c":33.97,"peak_c":34.97,"dose":21.1},"delta_mean_c":-2.6,"delta_dose_pct":-66,"distance_mi":0.623,"status_now":"walk","status_rec":"walk","reason":"Shortest route already under threshold (dose 62).","safe_until_hour":null}},{"type":"Feature","geometry":{"type":"Polygon","coordinates":[[[-81.43715,28.5811],[-81.4328,28.5811],[-81.4328,28.58555],[-81.43715,28.58555],[-81.43715,28.5811]]]},"properties":{"block_id":"FIXTURE-0902","school_id":"sch_maynard_evans_high","kids_est":44,"class":"green","shortest":{"len_m":1748.1,"mean_c":37.03,"peak_c":38.23,"dose":97.8},"coolest":{"len_m":1925.8,"mean_c":36.03,"peak_c":37.03,"dose":81.0},"delta_mean_c":-1.0,"delta_dose_pct":-17,"distance_mi":0.869,"status_now":"walk","status_rec":"walk","reason":"Shortest route already under threshold (dose 98).","safe_until_hour":null}}]}