{"type":"FeatureCollection","features":[{"type":"Feature","geometry":{"type":"Polygon","coordinates":[[[-81.44,28.5744],[-81.426,28.5744],[-81.426,28.594],[-81.44,28.594],[-81.44,28.5744]]]},"properties":{"block_id":"120951235001004","school_id":"sch_rolling_hills_elementary","kids_est":14,"class":"green","shortest":{"len_m":1904.1,"mean_c":35.97,"peak_c":37.17,"dose":78.5},"coolest":{"len_m":2348.7,"mean_c":33.93,"peak_c":34.93,"dose":30.5},"delta_mean_c":-2.04,"delta_dose_pct":-61,"distance_mi":0.947,"status_now":"walk","status_rec":"walk","reason":"Shortest route already under threshold (dose 78).","safe_until_hour":null}}]}