{"type":"FeatureCollection","features":[{"type":"Feature","geometry":{"type":"Polygon","coordinates":[[[-81.3893,28.5544],[-81.3806,28.5544],[-81.3806,28.56775],[-81.3893,28.56775],[-81.3893,28.5544]]]},"properties":{"block_id":"120951240001002","school_id":"sch_orange_technical_college","kids_est":31,"class":"green","shortest":{"len_m":1487.9,"mean_c":37.26,"peak_c":38.46,"dose":88.0},"coolest":{"len_m":1633.3,"mean_c":36.26,"peak_c":37.26,"dose":74.0},"delta_mean_c":-1.0,"delta_dose_pct":-16,"distance_mi":0.74,"status_now":"walk","status_rec":"walk","reason":"Shortest route already under threshold (dose 88).","safe_until_hour":null}},{"type":"Feature","geometry":{"type":"Polygon","coordinates":[[[-81.3806,28.5544],[-81.3719,28.5544],[-81.3719,28.56775],[-81.3806,28.56775],[-81.3806,28.5544]]]},"properties":{"block_id":"120951241001002","school_id":"sch_orange_technical_college","kids_est":15,"class":"green","shortest":{"len_m":1744.0,"mean_c":37.48,"peak_c":38.68,"dose":108.5},"coolest":{"len_m":1945.3,"mean_c":36.14,"peak_c":37.14,"dose":84.8},"delta_mean_c":-1.34,"delta_dose_pct":-22,"distance_mi":0.867,"status_now":"walk","status_rec":"walk","reason":"Shortest route already under threshold (dose 108).","safe_until_hour":null}}]}