{"type":"FeatureCollection","features":[{"type":"Feature","geometry":{"type":"Polygon","coordinates":[[[-81.4502,28.5277],[-81.4415,28.5277],[-81.4415,28.54105],[-81.4502,28.54105],[-81.4502,28.5277]]]},"properties":{"block_id":"120951233001000","school_id":"sch_ivey_lane_elementary","kids_est":12,"class":"green","shortest":{"len_m":1744.5,"mean_c":35.4,"peak_c":36.6,"dose":58.2},"coolest":{"len_m":1916.1,"mean_c":34.83,"peak_c":35.83,"dose":48.8},"delta_mean_c":-0.57,"delta_dose_pct":-16,"distance_mi":0.867,"status_now":"walk","status_rec":"walk","reason":"Shortest route already under threshold (dose 58).","safe_until_hour":null}},{"type":"Feature","geometry":{"type":"Polygon","coordinates":[[[-81.4415,28.5277],[-81.4328,28.5277],[-81.4328,28.54105],[-81.4415,28.54105],[-81.4415,28.5277]]]},"properties":{"block_id":"120951234001000","school_id":"sch_ivey_lane_elementary","kids_est":15,"class":"green","shortest":{"len_m":1389.8,"mean_c":35.66,"peak_c":36.86,"dose":51.3},"coolest":{"len_m":1726.7,"mean_c":33.77,"peak_c":34.77,"dose":18.4},"delta_mean_c":-1.89,"delta_dose_pct":-64,"distance_mi":0.691,"status_now":"walk","status_rec":"walk","reason":"Shortest route already under threshold (dose 51).","safe_until_hour":null}},{"type":"Feature","geometry":{"type":"Polygon","coordinates":[[[-81.4502,28.54105],[-81.4415,28.54105],[-81.4415,28.5544],[-81.4502,28.5544],[-81.4502,28.54105]]]},"properties":{"block_id":"120951233001001","school_id":"sch_ivey_lane_elementary","kids_est":11,"class":"green","shortest":{"len_m":1148.3,"mean_c":35.54,"peak_c":36.74,"dose":40.5},"coolest":{"len_m":1241.2,"mean_c":35.11,"peak_c":36.11,"dose":36.3},"delta_mean_c":-0.43,"delta_dose_pct":-10,"distance_mi":0.571,"status_now":"walk","status_rec":"walk","reason":"Shortest route already under threshold (dose 40).","safe_until_hour":null}},{"type":"Feature","geometry":{"type":"Polygon","coordinates":[[[-81.4415,28.54105],[-81.4328,28.54105],[-81.4328,28.5544],[-81.4415,28.5544],[-81.4415,28.54105]]]},"properties":{"block_id":"120951234001001","school_id":"sch_ivey_lane_elementary","kids_est":32,"class":"green","shortest":{"len_m":455.0,"mean_c":36.03,"peak_c":37.23,"dose":19.1},"coolest":{"len_m":495.7,"mean_c":35.41,"peak_c":36.41,"dose":16.6},"delta_mean_c":-0.62,"delta_dose_pct":-13,"distance_mi":0.226,"status_now":"walk","status_rec":"walk","reason":"Shortest route already under threshold (dose 19).","safe_until_hour":null}},{"type":"Feature","geometry":{"type":"Polygon","coordinates":[[[-81.4328,28.54105],[-81.4241,28.54105],[-81.4241,28.5544],[-81.4328,28.5544],[-81.4328,28.54105]]]},"properties":{"block_id":"120951235001001","school_id":"sch_ivey_lane_elementary","kids_est":29,"class":"green","shortest":{"len_m":1165.0,"mean_c":36.01,"peak_c":37.21,"dose":48.7},"coolest":{"len_m":1450.1,"mean_c":33.85,"peak_c":34.85,"dose":17.1},"delta_mean_c":-2.16,"delta_dose_pct":-65,"distance_mi":0.579,"status_now":"walk","status_rec":"walk","reason":"Shortest route already under threshold (dose 49).","safe_until_hour":null}}]}