{"type":"FeatureCollection","features":[{"type":"Feature","geometry":{"type":"Polygon","coordinates":[[[-81.41,28.515],[-81.405667,28.515],[-81.405667,28.5196],[-81.41,28.5196],[-81.41,28.515]]]},"properties":{"block_id":"FIXTURE-0000","school_id":"sch_fixture_west","kids_est":19,"class":"green","shortest":{"len_m":1494.5,"mean_c":32.0,"peak_c":34.5,"dose":0.0},"coolest":{"len_m":1656.9,"mean_c":32.0,"peak_c":34.0,"dose":0.0},"delta_mean_c":0.0,"delta_dose_pct":0,"status_now":"walk","status_rec":"walk","reason":"Shortest route already under threshold (dose 0).","distance_mi":0.743}},{"type":"Feature","geometry":{"type":"Polygon","coordinates":[[[-81.405667,28.515],[-81.401333,28.515],[-81.401333,28.5196],[-81.405667,28.5196],[-81.405667,28.515]]]},"properties":{"block_id":"FIXTURE-0100","school_id":"sch_fixture_west","kids_est":7,"class":"green","shortest":{"len_m":1456.5,"mean_c":32.57,"peak_c":35.07,"dose":0.0},"coolest":{"len_m":1598.2,"mean_c":32.0,"peak_c":34.0,"dose":0.0},"delta_mean_c":-0.57,"delta_dose_pct":0,"status_now":"walk","status_rec":"walk","reason":"Shortest route already under threshold (dose 0).","distance_mi":0.724}},{"type":"Feature","geometry":{"type":"Polygon","coordinates":[[[-81.401333,28.515],[-81.397,28.515],[-81.397,28.5196],[-81.401333,28.5196],[-81.401333,28.515]]]},"properties":{"block_id":"FIXTURE-0200","school_id":"sch_fixture_west","kids_est":10,"class":"green","shortest":{"len_m":1603.3,"mean_c":33.07,"peak_c":35.57,"dose":1.6},"coolest":{"len_m":1732.1,"mean_c":33.06,"peak_c":35.06,"dose":1.4},"delta_mean_c":-0.01,"delta_dose_pct":-13,"status_now":"walk","status_rec":"walk","reason":"Shortest route already under threshold (dose 2).","distance_mi":0.797}},{"type":"Feature","geometry":{"type":"Polygon","coordinates":[[[-81.397,28.515],[-81.392667,28.515],[-81.392667,28.5196],[-81.397,28.5196],[-81.397,28.515]]]},"properties":{"block_id":"FIXTURE-0300","school_id":"sch_fixture_west","kids_est":12,"class":"green","shortest":{"len_m":1892.4,"mean_c":33.6,"peak_c":36.1,"dose":15.8},"coolest":{"len_m":2078.5,"mean_c":33.46,"peak_c":35.46,"dose":13.3},"delta_mean_c":-0.14,"delta_dose_pct":-16,"status_now":"walk","status_rec":"walk","reason":"Shortest route already under threshold (dose 16).","distance_mi":0.941}},{"type":"Feature","geometry":{"type":"Polygon","coordinates":[[[-81.392667,28.515],[-81.388333,28.515],[-81.388333,28.5196],[-81.392667,28.5196],[-81.392667,28.515]]]},"properties":{"block_id":"FIXTURE-0400","school_id":"sch_fixture_west","kids_est":15,"class":"green","shortest":{"len_m":2270.0,"mean_c":36.59,"peak_c":39.09,"dose":113.2},"coolest":{"len_m":2820.3,"mean_c":34.04,"peak_c":36.04,"dose":40.6},"delta_mean_c":-2.55,"delta_dose_pct":-64,"status_now":"bus","status_rec":"walk","reason":"Shortest route already under threshold (dose 113).","distance_mi":1.128}},{"type":"Feature","geometry":{"type":"Polygon","coordinates":[[[-81.388333,28.515],[-81.384,28.515],[-81.384,28.5196],[-81.388333,28.5196],[-81.388333,28.515]]]},"properties":{"block_id":"FIXTURE-0500","school_id":"sch_fixture_west","kids_est":27,"class":"green","shortest":{"len_m":2699.2,"mean_c":35.47,"peak_c":37.97,"dose":92.6},"coolest":{"len_m":3378.9,"mean_c":33.65,"peak_c":35.65,"dose":30.3},"delta_mean_c":-1.82,"delta_dose_pct":-67,"status_now":"bus","status_rec":"walk","reason":"Shortest route already under threshold (dose 93).","distance_mi":1.342}},{"type":"Feature","geometry":{"type":"Polygon","coordinates":[[[-81.384,28.515],[-81.379667,28.515],[-81.379667,28.5196],[-81.384,28.5196],[-81.384,28.515]]]},"properties":{"block_id":"FIXTURE-0600","school_id":"sch_fixture_west","kids_est":44,"class":"green","shortest":{"len_m":3159.2,"mean_c":37.82,"peak_c":40.32,"dose":211.5},"coolest":{"len_m":3959.8,"mean_c":34.24,"peak_c":36.24,"dose":68.1},"delta_mean_c":-3.58,"delta_dose_pct":-68,"status_now":"bus","status_rec":"walk","reason":"Shortest route already under threshold (dose 212).","distance_mi":1.57}},{"type":"Feature","geometry":{"type":"Polygon","coordinates":[[[-81.379667,28.515],[-81.375333,28.515],[-81.375333,28.5196],[-81.379667,28.5196],[-81.379667,28.515]]]},"properties":{"block_id":"FIXTURE-0700","school_id":"sch_fixture_west","kids_est":34,"class":"yellow","shortest":{"len_m":3638.2,"mean_c":39.02,"peak_c":41.52,"dose":304.2},"coolest":{"len_m":4487.8,"mean_c":34.89,"peak_c":36.89,"dose":118.1},"delta_mean_c":-4.13,"delta_dose_pct":-61,"status_now":"bus","status_rec":"reroute","reason":"Shortest route exceeds threshold, but coolest route mean 34.9C stays under it (dose 118).","distance_mi":1.809}},{"type":"Feature","geometry":{"type":"Polygon","coordinates":[[[-81.375333,28.515],[-81.371,28.515],[-81.371,28.5196],[-81.375333,28.5196],[-81.375333,28.515]]]},"properties":{"block_id":"FIXTURE-0800","school_id":"sch_fixture_east","kids_est":12,"class":"yellow","shortest":{"len_m":4021.7,"mean_c":39.43,"peak_c":41.93,"dose":359.2},"coolest":{"len_m":5029.4,"mean_c":34.71,"peak_c":36.71,"dose":119.1},"delta_mean_c":-4.72,"delta_dose_pct":-67,"status_now":"bus","status_rec":"reroute","reason":"Shortest route exceeds threshold, but coolest route mean 34.7C stays under it (dose 119).","distance_mi":1.999}},{"type":"Feature","geometry":{"type":"Polygon","coordinates":[[[-81.371,28.515],[-81.366667,28.515],[-81.366667,28.5196],[-81.371,28.5196],[-81.371,28.515]]]},"properties":{"block_id":"FIXTURE-0900","school_id":"sch_fixture_east","kids_est":33,"class":"red","shortest":{"len_m":3937.1,"mean_c":41.12,"peak_c":43.62,"dose":444.0},"coolest":{"len_m":4405.3,"mean_c":38.59,"peak_c":40.59,"dose":342.0},"delta_mean_c":-2.53,"delta_dose_pct":-23,"status_now":"bus","status_rec":"bus_eligible","reason":"Coolest route mean 38.6C exceeds threshold (220 C-min dose, actual 342).","distance_mi":1.957}},{"type":"Feature","geometry":{"type":"Polygon","coordinates":[[[-81.366667,28.515],[-81.362333,28.515],[-81.362333,28.5196],[-81.366667,28.5196],[-81.366667,28.515]]]},"properties":{"block_id":"FIXTURE-1000","school_id":"sch_fixture_east","kids_est":26,"class":"red","shortest":{"len_m":3922.8,"mean_c":42.1,"peak_c":44.6,"dose":495.8},"coolest":{"len_m":4388.7,"mean_c":39.27,"peak_c":41.27,"dose":382.2},"delta_mean_c":-2.83,"delta_dose_pct":-23,"status_now":"bus","status_rec":"bus_eligible","reason":"Coolest route mean 39.3C exceeds threshold (220 C-min dose, actual 382).","distance_mi":1.95}},{"type":"Feature","geometry":{"type":"Polygon","coordinates":[[[-81.362333,28.515],[-81.358,28.515],[-81.358,28.5196],[-81.362333,28.5196],[-81.362333,28.515]]]},"properties":{"block_id":"FIXTURE-1100","school_id":"sch_fixture_east","kids_est":44,"class":"red","shortest":{"len_m":3979.6,"mean_c":42.93,"peak_c":45.43,"dose":548.9},"coolest":{"len_m":4441.9,"mean_c":39.94,"peak_c":41.94,"dose":427.9},"delta_mean_c":-2.99,"delta_dose_pct":-22,"status_now":"bus","status_rec":"bus_eligible","reason":"Coolest route mean 39.9C exceeds threshold (220 C-min dose, actual 428).","distance_mi":1.978}},{"type":"Feature","geometry":{"type":"Polygon","coordinates":[[[-81.41,28.5196],[-81.405667,28.5196],[-81.405667,28.5242],[-81.41,28.5242],[-81.41,28.5196]]]},"properties":{"block_id":"FIXTURE-0001","school_id":"sch_fixture_west","kids_est":6,"class":"green","shortest":{"len_m":892.8,"mean_c":30.78,"peak_c":33.28,"dose":0.0},"coolest":{"len_m":970.2,"mean_c":32.0,"peak_c":34.0,"dose":0.0},"delta_mean_c":1.22,"delta_dose_pct":0,"status_now":"walk","status_rec":"walk","reason":"Shortest route already under threshold (dose 0).","distance_mi":0.444}},{"type":"Feature","geometry":{"type":"Polygon","coordinates":[[[-81.405667,28.5196],[-81.401333,28.5196],[-81.401333,28.5242],[-81.405667,28.5242],[-81.405667,28.5196]]]},"properties":{"block_id":"FIXTURE-0101","school_id":"sch_fixture_west","kids_est":28,"class":"green","shortest":{"len_m":827.6,"mean_c":31.92,"peak_c":34.42,"dose":0.0},"coolest":{"len_m":907.8,"mean_c":32.0,"peak_c":34.0,"dose":0.0},"delta_mean_c":0.08,"delta_dose_pct":0,"status_now":"walk","status_rec":"walk","reason":"Shortest route already under threshold (dose 0).","distance_mi":0.411}},{"type":"Feature","geometry":{"type":"Polygon","coordinates":[[[-81.401333,28.5196],[-81.397,28.5196],[-81.397,28.5242],[-81.401333,28.5242],[-81.401333,28.5196]]]},"properties":{"block_id":"FIXTURE-0201","school_id":"sch_fixture_west","kids_est":24,"class":"green","shortest":{"len_m":1064.9,"mean_c":33.27,"peak_c":35.77,"dose":4.0},"coolest":{"len_m":1177.7,"mean_c":33.2,"peak_c":35.2,"dose":3.3},"delta_mean_c":-0.07,"delta_dose_pct":-18,"status_now":"walk","status_rec":"walk","reason":"Shortest route already under threshold (dose 4).","distance_mi":0.529}},{"type":"Feature","geometry":{"type":"Polygon","coordinates":[[[-81.397,28.5196],[-81.392667,28.5196],[-81.392667,28.5242],[-81.397,28.5242],[-81.397,28.5196]]]},"properties":{"block_id":"FIXTURE-0301","school_id":"sch_fixture_west","kids_est":11,"class":"green","shortest":{"len_m":1464.4,"mean_c":34.19,"peak_c":36.69,"dose":24.2},"coolest":{"len_m":1582.9,"mean_c":33.99,"peak_c":35.99,"dose":21.7},"delta_mean_c":-0.2,"delta_dose_pct":-10,"status_now":"walk","status_rec":"walk","reason":"Shortest route already under threshold (dose 24).","distance_mi":0.728}},{"type":"Feature","geometry":{"type":"Polygon","coordinates":[[[-81.392667,28.5196],[-81.388333,28.5196],[-81.388333,28.5242],[-81.392667,28.5242],[-81.392667,28.5196]]]},"properties":{"block_id":"FIXTURE-0401","school_id":"sch_fixture_west","kids_est":32,"class":"green","shortest":{"len_m":1927.7,"mean_c":35.06,"peak_c":37.56,"dose":55.2},"coolest":{"len_m":2100.2,"mean_c":34.64,"peak_c":36.64,"dose":47.9},"delta_mean_c":-0.42,"delta_dose_pct":-13,"status_now":"walk","status_rec":"walk","reason":"Shortest route already under threshold (dose 55).","distance_mi":0.958}},{"type":"Feature","geometry":{"type":"Polygon","coordinates":[[[-81.388333,28.5196],[-81.384,28.5196],[-81.384,28.5242],[-81.388333,28.5242],[-81.388333,28.5196]]]},"properties":{"block_id":"FIXTURE-0501","school_id":"sch_fixture_west","kids_est":29,"class":"green","shortest":{"len_m":2418.5,"mean_c":36.61,"peak_c":39.11,"dose":121.3},"coolest":{"len_m":3010.4,"mean_c":34.02,"peak_c":36.02,"dose":42.6},"delta_mean_c":-2.59,"delta_dose_pct":-65,"status_now":"bus","status_rec":"walk","reason":"Shortest route already under threshold (dose 121).","distance_mi":1.202}},{"type":"Feature","geometry":{"type":"Polygon","coordinates":[[[-81.384,28.5196],[-81.379667,28.5196],[-81.379667,28.5242],[-81.384,28.5242],[-81.384,28.5196]]]},"properties":{"block_id":"FIXTURE-0601","school_id":"sch_fixture_west","kids_est":17,"class":"green","shortest":{"len_m":2923.0,"mean_c":37.65,"peak_c":40.15,"dose":188.8},"coolest":{"len_m":3630.7,"mean_c":34.35,"peak_c":36.35,"dose":67.9},"delta_mean_c":-3.3,"delta_dose_pct":-64,"status_now":"bus","status_rec":"walk","reason":"Shortest route already under threshold (dose 189).","distance_mi":1.453}},{"type":"Feature","geometry":{"type":"Polygon","coordinates":[[[-81.379667,28.5196],[-81.375333,28.5196],[-81.375333,28.5242],[-81.379667,28.5242],[-81.379667,28.5196]]]},"properties":{"block_id":"FIXTURE-0701","school_id":"sch_fixture_west","kids_est":36,"class":"yellow","shortest":{"len_m":3435.1,"mean_c":39.38,"peak_c":41.88,"dose":304.4},"coolest":{"len_m":4281.4,"mean_c":34.77,"peak_c":36.77,"dose":105.1},"delta_mean_c":-4.61,"delta_dose_pct":-65,"status_now":"bus","status_rec":"reroute","reason":"Shortest route exceeds threshold, but coolest route mean 34.8C stays under it (dose 105).","distance_mi":1.708}},{"type":"Feature","geometry":{"type":"Polygon","coordinates":[[[-81.375333,28.5196],[-81.371,28.5196],[-81.371,28.5242],[-81.375333,28.5242],[-81.375333,28.5196]]]},"properties":{"block_id":"FIXTURE-0801","school_id":"sch_fixture_east","kids_est":13,"class":"yellow","shortest":{"len_m":3405.3,"mean_c":39.98,"peak_c":42.48,"dose":330.1},"coolest":{"len_m":4261.9,"mean_c":34.83,"peak_c":36.83,"dose":108.3},"delta_mean_c":-5.15,"delta_dose_pct":-67,"status_now":"bus","status_rec":"reroute","reason":"Shortest route exceeds threshold, but coolest route mean 34.8C stays under it (dose 108).","distance_mi":1.693}},{"type":"Feature","geometry":{"type":"Polygon","coordinates":[[[-81.371,28.5196],[-81.366667,28.5196],[-81.366667,28.5242],[-81.371,28.5242],[-81.371,28.5196]]]},"properties":{"block_id":"FIXTURE-0901","school_id":"sch_fixture_east","kids_est":26,"class":"yellow","shortest":{"len_m":3304.9,"mean_c":40.08,"peak_c":42.58,"dose":325.0},"coolest":{"len_m":4097.9,"mean_c":35.09,"peak_c":37.09,"dose":119.2},"delta_mean_c":-4.99,"delta_dose_pct":-63,"status_now":"bus","status_rec":"reroute","reason":"Shortest route exceeds threshold, but coolest route mean 35.1C stays under it (dose 119).","distance_mi":1.643}},{"type":"Feature","geometry":{"type":"Polygon","coordinates":[[[-81.366667,28.5196],[-81.362333,28.5196],[-81.362333,28.5242],[-81.366667,28.5242],[-81.366667,28.5196]]]},"properties":{"block_id":"FIXTURE-1001","school_id":"sch_fixture_east","kids_est":15,"class":"red","shortest":{"len_m":3287.8,"mean_c":41.04,"peak_c":43.54,"dose":367.1},"coolest":{"len_m":3650.4,"mean_c":38.79,"peak_c":40.79,"dose":293.4},"delta_mean_c":-2.25,"delta_dose_pct":-20,"status_now":"bus","status_rec":"bus_eligible","reason":"Coolest route mean 38.8C exceeds threshold (220 C-min dose, actual 293).","distance_mi":1.634}},{"type":"Feature","geometry":{"type":"Polygon","coordinates":[[[-81.362333,28.5196],[-81.358,28.5196],[-81.358,28.5242],[-81.362333,28.5242],[-81.362333,28.5196]]]},"properties":{"block_id":"FIXTURE-1101","school_id":"sch_fixture_east","kids_est":20,"class":"red","shortest":{"len_m":3355.4,"mean_c":43.23,"peak_c":45.73,"dose":476.8},"coolest":{"len_m":3690.2,"mean_c":40.76,"peak_c":42.76,"dose":397.7},"delta_mean_c":-2.47,"delta_dose_pct":-17,"status_now":"bus","status_rec":"bus_eligible","reason":"Coolest route mean 40.8C exceeds threshold (220 C-min dose, actual 398).","distance_mi":1.668}},{"type":"Feature","geometry":{"type":"Polygon","coordinates":[[[-81.41,28.5242],[-81.405667,28.5242],[-81.405667,28.5288],[-81.41,28.5288],[-81.41,28.5242]]]},"properties":{"block_id":"FIXTURE-0002","school_id":"sch_fixture_west","kids_est":7,"class":"green","shortest":{"len_m":410.7,"mean_c":30.58,"peak_c":33.08,"dose":0.0},"coolest":{"len_m":446.8,"mean_c":32.0,"peak_c":34.0,"dose":0.0},"delta_mean_c":1.42,"delta_dose_pct":0,"status_now":"walk","status_rec":"walk","reason":"Shortest route already under threshold (dose 0).","distance_mi":0.204}},{"type":"Feature","geometry":{"type":"Polygon","coordinates":[[[-81.405667,28.5242],[-81.401333,28.5242],[-81.401333,28.5288],[-81.405667,28.5288],[-81.405667,28.5242]]]},"properties":{"block_id":"FIXTURE-0102","school_id":"sch_fixture_west","kids_est":14,"class":"green","shortest":{"len_m":237.6,"mean_c":31.51,"peak_c":34.01,"dose":0.0},"coolest":{"len_m":261.7,"mean_c":32.0,"peak_c":34.0,"dose":0.0},"delta_mean_c":0.49,"delta_dose_pct":0,"status_now":"walk","status_rec":"walk","reason":"Shortest route already under threshold (dose 0).","distance_mi":0.118}},{"type":"Feature","geometry":{"type":"Polygon","coordinates":[[[-81.401333,28.5242],[-81.397,28.5242],[-81.397,28.5288],[-81.401333,28.5288],[-81.401333,28.5242]]]},"properties":{"block_id":"FIXTURE-0202","school_id":"sch_fixture_west","kids_est":35,"class":"green","shortest":{"len_m":710.9,"mean_c":34.1,"peak_c":36.6,"dose":10.9},"coolest":{"len_m":781.4,"mean_c":33.84,"peak_c":35.84,"dose":9.1},"delta_mean_c":-0.26,"delta_dose_pct":-17,"status_now":"walk","status_rec":"walk","reason":"Shortest route already under threshold (dose 11).","distance_mi":0.353}},{"type":"Feature","geometry":{"type":"Polygon","coordinates":[[[-81.397,28.5242],[-81.392667,28.5242],[-81.392667,28.5288],[-81.397,28.5288],[-81.397,28.5242]]]},"properties":{"block_id":"FIXTURE-0302","school_id":"sch_fixture_west","kids_est":5,"class":"green","shortest":{"len_m":1231.3,"mean_c":33.98,"peak_c":36.48,"dose":16.8},"coolest":{"len_m":1347.9,"mean_c":33.76,"peak_c":35.76,"dose":14.3},"delta_mean_c":-0.22,"delta_dose_pct":-15,"status_now":"walk","status_rec":"walk","reason":"Shortest route already under threshold (dose 17).","distance_mi":0.612}},{"type":"Feature","geometry":{"type":"Polygon","coordinates":[[[-81.392667,28.5242],[-81.388333,28.5242],[-81.388333,28.5288],[-81.392667,28.5288],[-81.392667,28.5242]]]},"properties":{"block_id":"FIXTURE-0402","school_id":"sch_fixture_west","kids_est":42,"class":"green","shortest":{"len_m":1757.2,"mean_c":35.71,"peak_c":38.21,"dose":66.1},"coolest":{"len_m":2191.4,"mean_c":33.75,"peak_c":35.75,"dose":22.7},"delta_mean_c":-1.96,"delta_dose_pct":-66,"status_now":"walk","status_rec":"walk","reason":"Shortest route already under threshold (dose 66).","distance_mi":0.873}},{"type":"Feature","geometry":{"type":"Polygon","coordinates":[[[-81.388333,28.5242],[-81.384,28.5242],[-81.384,28.5288],[-81.388333,28.5288],[-81.388333,28.5242]]]},"properties":{"block_id":"FIXTURE-0502","school_id":"sch_fixture_west","kids_est":21,"class":"green","shortest":{"len_m":2284.8,"mean_c":37.52,"peak_c":40.02,"dose":143.4},"coolest":{"len_m":2842.0,"mean_c":34.28,"peak_c":36.28,"dose":50.7},"delta_mean_c":-3.24,"delta_dose_pct":-65,"status_now":"bus","status_rec":"walk","reason":"Shortest route already under threshold (dose 143).","distance_mi":1.136}},{"type":"Feature","geometry":{"type":"Polygon","coordinates":[[[-81.384,28.5242],[-81.379667,28.5242],[-81.379667,28.5288],[-81.384,28.5288],[-81.384,28.5242]]]},"properties":{"block_id":"FIXTURE-0602","school_id":"sch_fixture_west","kids_est":35,"class":"green","shortest":{"len_m":2813.4,"mean_c":37.45,"peak_c":39.95,"dose":173.9},"coolest":{"len_m":3527.0,"mean_c":34.14,"peak_c":36.14,"dose":55.9},"delta_mean_c":-3.31,"delta_dose_pct":-68,"status_now":"bus","status_rec":"walk","reason":"Shortest route already under threshold (dose 174).","distance_mi":1.399}},{"type":"Feature","geometry":{"type":"Polygon","coordinates":[[[-81.379667,28.5242],[-81.375333,28.5242],[-81.375333,28.5288],[-81.379667,28.5288],[-81.379667,28.5242]]]},"properties":{"block_id":"FIXTURE-0702","school_id":"sch_fixture_east","kids_est":35,"class":"yellow","shortest":{"len_m":3009.9,"mean_c":39.19,"peak_c":41.69,"dose":258.8},"coolest":{"len_m":3733.3,"mean_c":34.82,"peak_c":36.82,"dose":94.6},"delta_mean_c":-4.37,"delta_dose_pct":-63,"status_now":"walk","status_rec":"reroute","reason":"Shortest route exceeds threshold, but coolest route mean 34.8C stays under it (dose 95).","distance_mi":1.496}},{"type":"Feature","geometry":{"type":"Polygon","coordinates":[[[-81.375333,28.5242],[-81.371,28.5242],[-81.371,28.5288],[-81.375333,28.5288],[-81.375333,28.5242]]]},"properties":{"block_id":"FIXTURE-0802","school_id":"sch_fixture_east","kids_est":44,"class":"yellow","shortest":{"len_m":2797.3,"mean_c":39.09,"peak_c":41.59,"dose":236.6},"coolest":{"len_m":3491.8,"mean_c":34.65,"peak_c":36.65,"dose":80.2},"delta_mean_c":-4.44,"delta_dose_pct":-66,"status_now":"walk","status_rec":"reroute","reason":"Shortest route exceeds threshold, but coolest route mean 34.6C stays under it (dose 80).","distance_mi":1.391}},{"type":"Feature","geometry":{"type":"Polygon","coordinates":[[[-81.371,28.5242],[-81.366667,28.5242],[-81.366667,28.5288],[-81.371,28.5288],[-81.371,28.5242]]]},"properties":{"block_id":"FIXTURE-0902","school_id":"sch_fixture_east","kids_est":44,"class":"red","shortest":{"len_m":2674.2,"mean_c":40.97,"peak_c":43.47,"dose":296.0},"coolest":{"len_m":2946.1,"mean_c":38.99,"peak_c":40.99,"dose":245.0},"delta_mean_c":-1.98,"delta_dose_pct":-17,"status_now":"walk","status_rec":"bus_eligible","reason":"Coolest route mean 39.0C exceeds threshold (220 C-min dose, actual 245).","distance_mi":1.329}},{"type":"Feature","geometry":{"type":"Polygon","coordinates":[[[-81.366667,28.5242],[-81.362333,28.5242],[-81.362333,28.5288],[-81.366667,28.5288],[-81.366667,28.5242]]]},"properties":{"block_id":"FIXTURE-1002","school_id":"sch_fixture_east","kids_est":31,"class":"red","shortest":{"len_m":2653.2,"mean_c":41.22,"peak_c":43.72,"dose":302.9},"coolest":{"len_m":2912.3,"mean_c":39.3,"peak_c":41.3,"dose":254.8},"delta_mean_c":-1.92,"delta_dose_pct":-16,"status_now":"walk","status_rec":"bus_eligible","reason":"Coolest route mean 39.3C exceeds threshold (220 C-min dose, actual 255).","distance_mi":1.319}},{"type":"Feature","geometry":{"type":"Polygon","coordinates":[[[-81.362333,28.5242],[-81.358,28.5242],[-81.358,28.5288],[-81.362333,28.5288],[-81.362333,28.5242]]]},"properties":{"block_id":"FIXTURE-1102","school_id":"sch_fixture_east","kids_est":15,"class":"red","shortest":{"len_m":2736.5,"mean_c":42.92,"peak_c":45.42,"dose":377.0},"coolest":{"len_m":3052.4,"mean_c":39.95,"peak_c":41.95,"dose":294.8},"delta_mean_c":-2.97,"delta_dose_pct":-22,"status_now":"walk","status_rec":"bus_eligible","reason":"Coolest route mean 40.0C exceeds threshold (220 C-min dose, actual 295).","distance_mi":1.36}},{"type":"Feature","geometry":{"type":"Polygon","coordinates":[[[-81.41,28.5288],[-81.405667,28.5288],[-81.405667,28.5334],[-81.41,28.5334],[-81.41,28.5288]]]},"properties":{"block_id":"FIXTURE-0003","school_id":"sch_fixture_west","kids_est":37,"class":"green","shortest":{"len_m":590.1,"mean_c":31.42,"peak_c":33.92,"dose":0.0},"coolest":{"len_m":652.5,"mean_c":32.0,"peak_c":34.0,"dose":0.0},"delta_mean_c":0.58,"delta_dose_pct":0,"status_now":"walk","status_rec":"walk","reason":"Shortest route already under threshold (dose 0).","distance_mi":0.293}},{"type":"Feature","geometry":{"type":"Polygon","coordinates":[[[-81.405667,28.5288],[-81.401333,28.5288],[-81.401333,28.5334],[-81.405667,28.5334],[-81.405667,28.5288]]]},"properties":{"block_id":"FIXTURE-0103","school_id":"sch_fixture_west","kids_est":36,"class":"green","shortest":{"len_m":485.8,"mean_c":32.44,"peak_c":34.94,"dose":0.0},"coolest":{"len_m":533.0,"mean_c":32.0,"peak_c":34.0,"dose":0.0},"delta_mean_c":-0.44,"delta_dose_pct":0,"status_now":"walk","status_rec":"walk","reason":"Shortest route already under threshold (dose 0).","distance_mi":0.241}},{"type":"Feature","geometry":{"type":"Polygon","coordinates":[[[-81.401333,28.5288],[-81.397,28.5288],[-81.397,28.5334],[-81.401333,28.5334],[-81.401333,28.5288]]]},"properties":{"block_id":"FIXTURE-0203","school_id":"sch_fixture_west","kids_est":21,"class":"green","shortest":{"len_m":827.6,"mean_c":33.09,"peak_c":35.59,"dose":1.0},"coolest":{"len_m":918.4,"mean_c":33.06,"peak_c":35.06,"dose":0.8},"delta_mean_c":-0.03,"delta_dose_pct":-20,"status_now":"walk","status_rec":"walk","reason":"Shortest route already under threshold (dose 1).","distance_mi":0.411}},{"type":"Feature","geometry":{"type":"Polygon","coordinates":[[[-81.397,28.5288],[-81.392667,28.5288],[-81.392667,28.5334],[-81.397,28.5334],[-81.397,28.5288]]]},"properties":{"block_id":"FIXTURE-0303","school_id":"sch_fixture_west","kids_est":43,"class":"green","shortest":{"len_m":1302.1,"mean_c":33.36,"peak_c":35.86,"dose":6.5},"coolest":{"len_m":1433.1,"mean_c":33.27,"peak_c":35.27,"dose":5.4},"delta_mean_c":-0.09,"delta_dose_pct":-17,"status_now":"walk","status_rec":"walk","reason":"Shortest route already under threshold (dose 6).","distance_mi":0.647}},{"type":"Feature","geometry":{"type":"Polygon","coordinates":[[[-81.392667,28.5288],[-81.388333,28.5288],[-81.388333,28.5334],[-81.392667,28.5334],[-81.392667,28.5288]]]},"properties":{"block_id":"FIXTURE-0403","school_id":"sch_fixture_west","kids_est":6,"class":"green","shortest":{"len_m":1807.5,"mean_c":35.89,"peak_c":38.39,"dose":72.6},"coolest":{"len_m":2274.8,"mean_c":33.7,"peak_c":35.7,"dose":22.1},"delta_mean_c":-2.19,"delta_dose_pct":-70,"status_now":"walk","status_rec":"walk","reason":"Shortest route already under threshold (dose 73).","distance_mi":0.898}},{"type":"Feature","geometry":{"type":"Polygon","coordinates":[[[-81.388333,28.5288],[-81.384,28.5288],[-81.384,28.5334],[-81.388333,28.5334],[-81.388333,28.5288]]]},"properties":{"block_id":"FIXTURE-0503","school_id":"sch_fixture_west","kids_est":5,"class":"green","shortest":{"len_m":2323.7,"mean_c":35.82,"peak_c":38.32,"dose":91.0},"coolest":{"len_m":2882.9,"mean_c":33.83,"peak_c":35.83,"dose":33.2},"delta_mean_c":-1.99,"delta_dose_pct":-64,"status_now":"bus","status_rec":"walk","reason":"Shortest route already under threshold (dose 91).","distance_mi":1.155}},{"type":"Feature","geometry":{"type":"Polygon","coordinates":[[[-81.384,28.5288],[-81.379667,28.5288],[-81.379667,28.5334],[-81.384,28.5334],[-81.384,28.5288]]]},"properties":{"block_id":"FIXTURE-0603","school_id":"sch_fixture_east","kids_est":12,"class":"green","shortest":{"len_m":2809.4,"mean_c":37.97,"peak_c":40.47,"dose":193.9},"coolest":{"len_m":3516.1,"mean_c":34.3,"peak_c":36.3,"dose":63.6},"delta_mean_c":-3.67,"delta_dose_pct":-67,"status_now":"walk","status_rec":"walk","reason":"Shortest route already under threshold (dose 194).","distance_mi":1.397}},{"type":"Feature","geometry":{"type":"Polygon","coordinates":[[[-81.379667,28.5288],[-81.375333,28.5288],[-81.375333,28.5334],[-81.379667,28.5334],[-81.379667,28.5288]]]},"properties":{"block_id":"FIXTURE-0703","school_id":"sch_fixture_east","kids_est":23,"class":"green","shortest":{"len_m":2469.2,"mean_c":37.7,"peak_c":40.2,"dose":161.2},"coolest":{"len_m":3060.2,"mean_c":34.4,"peak_c":36.4,"dose":59.5},"delta_mean_c":-3.3,"delta_dose_pct":-63,"status_now":"walk","status_rec":"walk","reason":"Shortest route already under threshold (dose 161).","distance_mi":1.227}},{"type":"Feature","geometry":{"type":"Polygon","coordinates":[[[-81.375333,28.5288],[-81.371,28.5288],[-81.371,28.5334],[-81.375333,28.5334],[-81.375333,28.5288]]]},"properties":{"block_id":"FIXTURE-0803","school_id":"sch_fixture_east","kids_est":19,"class":"green","shortest":{"len_m":2205.1,"mean_c":39.79,"peak_c":42.29,"dose":208.0},"coolest":{"len_m":2769.9,"mean_c":34.69,"peak_c":36.69,"dose":65.1},"delta_mean_c":-5.1,"delta_dose_pct":-69,"status_now":"walk","status_rec":"walk","reason":"Shortest route already under threshold (dose 208).","distance_mi":1.096}},{"type":"Feature","geometry":{"type":"Polygon","coordinates":[[[-81.371,28.5288],[-81.366667,28.5288],[-81.366667,28.5334],[-81.371,28.5334],[-81.371,28.5288]]]},"properties":{"block_id":"FIXTURE-0903","school_id":"sch_fixture_east","kids_est":38,"class":"yellow","shortest":{"len_m":2046.7,"mean_c":40.82,"peak_c":43.32,"dose":222.3},"coolest":{"len_m":2519.6,"mean_c":35.52,"peak_c":37.52,"dose":88.1},"delta_mean_c":-5.3,"delta_dose_pct":-60,"status_now":"walk","status_rec":"reroute","reason":"Shortest route exceeds threshold, but coolest route mean 35.5C stays under it (dose 88).","distance_mi":1.017}},{"type":"Feature","geometry":{"type":"Polygon","coordinates":[[[-81.366667,28.5288],[-81.362333,28.5288],[-81.362333,28.5334],[-81.366667,28.5334],[-81.366667,28.5288]]]},"properties":{"block_id":"FIXTURE-1003","school_id":"sch_fixture_east","kids_est":8,"class":"yellow","shortest":{"len_m":2019.1,"mean_c":41.15,"peak_c":43.65,"dose":228.5},"coolest":{"len_m":2487.8,"mean_c":35.6,"peak_c":37.6,"dose":89.8},"delta_mean_c":-5.55,"delta_dose_pct":-61,"status_now":"walk","status_rec":"reroute","reason":"Shortest route exceeds threshold, but coolest route mean 35.6C stays under it (dose 90).","distance_mi":1.004}},{"type":"Feature","geometry":{"type":"Polygon","coordinates":[[[-81.362333,28.5288],[-81.358,28.5288],[-81.358,28.5334],[-81.362333,28.5334],[-81.362333,28.5288]]]},"properties":{"block_id":"FIXTURE-1103","school_id":"sch_fixture_east","kids_est":13,"class":"red","shortest":{"len_m":2127.3,"mean_c":42.97,"peak_c":45.47,"dose":294.6},"coolest":{"len_m":2351.8,"mean_c":40.35,"peak_c":42.35,"dose":240.1},"delta_mean_c":-2.62,"delta_dose_pct":-18,"status_now":"walk","status_rec":"bus_eligible","reason":"Coolest route mean 40.4C exceeds threshold (220 C-min dose, actual 240).","distance_mi":1.057}},{"type":"Feature","geometry":{"type":"Polygon","coordinates":[[[-81.41,28.5334],[-81.405667,28.5334],[-81.405667,28.538],[-81.41,28.538],[-81.41,28.5334]]]},"properties":{"block_id":"FIXTURE-0004","school_id":"sch_fixture_west","kids_est":26,"class":"green","shortest":{"len_m":1155.7,"mean_c":31.5,"peak_c":34.0,"dose":0.0},"coolest":{"len_m":1252.5,"mean_c":32.0,"peak_c":34.0,"dose":0.0},"delta_mean_c":0.5,"delta_dose_pct":0,"status_now":"walk","status_rec":"walk","reason":"Shortest route already under threshold (dose 0).","distance_mi":0.575}},{"type":"Feature","geometry":{"type":"Polygon","coordinates":[[[-81.405667,28.5334],[-81.401333,28.5334],[-81.401333,28.538],[-81.405667,28.538],[-81.405667,28.5334]]]},"properties":{"block_id":"FIXTURE-0104","school_id":"sch_fixture_west","kids_est":17,"class":"green","shortest":{"len_m":1106.1,"mean_c":31.46,"peak_c":33.96,"dose":0.0},"coolest":{"len_m":1211.3,"mean_c":32.0,"peak_c":34.0,"dose":0.0},"delta_mean_c":0.54,"delta_dose_pct":0,"status_now":"walk","status_rec":"walk","reason":"Shortest route already under threshold (dose 0).","distance_mi":0.55}},{"type":"Feature","geometry":{"type":"Polygon","coordinates":[[[-81.401333,28.5334],[-81.397,28.5334],[-81.397,28.538],[-81.401333,28.538],[-81.401333,28.5334]]]},"properties":{"block_id":"FIXTURE-0204","school_id":"sch_fixture_west","kids_est":18,"class":"green","shortest":{"len_m":1293.2,"mean_c":32.51,"peak_c":35.01,"dose":0.0},"coolest":{"len_m":1402.1,"mean_c":32.0,"peak_c":34.0,"dose":0.0},"delta_mean_c":-0.51,"delta_dose_pct":0,"status_now":"walk","status_rec":"walk","reason":"Shortest route already under threshold (dose 0).","distance_mi":0.643}},{"type":"Feature","geometry":{"type":"Polygon","coordinates":[[[-81.397,28.5334],[-81.392667,28.5334],[-81.392667,28.538],[-81.397,28.538],[-81.397,28.5334]]]},"properties":{"block_id":"FIXTURE-0304","school_id":"sch_fixture_west","kids_est":31,"class":"green","shortest":{"len_m":1637.9,"mean_c":34.53,"peak_c":37.03,"dose":34.8},"coolest":{"len_m":1815.9,"mean_c":34.11,"peak_c":36.11,"dose":28.0},"delta_mean_c":-0.42,"delta_dose_pct":-20,"status_now":"walk","status_rec":"walk","reason":"Shortest route already under threshold (dose 35).","distance_mi":0.814}},{"type":"Feature","geometry":{"type":"Polygon","coordinates":[[[-81.392667,28.5334],[-81.388333,28.5334],[-81.388333,28.538],[-81.392667,28.538],[-81.392667,28.5334]]]},"properties":{"block_id":"FIXTURE-0404","school_id":"sch_fixture_west","kids_est":28,"class":"green","shortest":{"len_m":2062.6,"mean_c":35.78,"peak_c":38.28,"dose":79.6},"coolest":{"len_m":2575.8,"mean_c":33.75,"peak_c":35.75,"dose":26.9},"delta_mean_c":-2.03,"delta_dose_pct":-66,"status_now":"bus","status_rec":"walk","reason":"Shortest route already under threshold (dose 80).","distance_mi":1.025}},{"type":"Feature","geometry":{"type":"Polygon","coordinates":[[[-81.388333,28.5334],[-81.384,28.5334],[-81.384,28.538],[-81.388333,28.538],[-81.388333,28.5334]]]},"properties":{"block_id":"FIXTURE-0504","school_id":"sch_fixture_west","kids_est":14,"class":"green","shortest":{"len_m":2527.3,"mean_c":36.57,"peak_c":39.07,"dose":125.3},"coolest":{"len_m":3117.5,"mean_c":34.12,"peak_c":36.12,"dose":48.6},"delta_mean_c":-2.45,"delta_dose_pct":-61,"status_now":"bus","status_rec":"walk","reason":"Shortest route already under threshold (dose 125).","distance_mi":1.256}},{"type":"Feature","geometry":{"type":"Polygon","coordinates":[[[-81.384,28.5334],[-81.379667,28.5334],[-81.379667,28.538],[-81.384,28.538],[-81.384,28.5334]]]},"properties":{"block_id":"FIXTURE-0604","school_id":"sch_fixture_east","kids_est":14,"class":"green","shortest":{"len_m":2395.4,"mean_c":37.79,"peak_c":40.29,"dose":159.4},"coolest":{"len_m":2953.5,"mean_c":34.52,"peak_c":36.52,"dose":62.2},"delta_mean_c":-3.27,"delta_dose_pct":-61,"status_now":"walk","status_rec":"walk","reason":"Shortest route already under threshold (dose 159).","distance_mi":1.191}},{"type":"Feature","geometry":{"type":"Polygon","coordinates":[[[-81.379667,28.5334],[-81.375333,28.5334],[-81.375333,28.538],[-81.379667,28.538],[-81.379667,28.5334]]]},"properties":{"block_id":"FIXTURE-0704","school_id":"sch_fixture_east","kids_est":32,"class":"green","shortest":{"len_m":1985.5,"mean_c":38.97,"peak_c":41.47,"dose":164.6},"coolest":{"len_m":2481.0,"mean_c":34.6,"peak_c":36.6,"dose":55.1},"delta_mean_c":-4.37,"delta_dose_pct":-67,"status_now":"walk","status_rec":"walk","reason":"Shortest route already under threshold (dose 165).","distance_mi":0.987}},{"type":"Feature","geometry":{"type":"Polygon","coordinates":[[[-81.375333,28.5334],[-81.371,28.5334],[-81.371,28.538],[-81.375333,28.538],[-81.375333,28.5334]]]},"properties":{"block_id":"FIXTURE-0804","school_id":"sch_fixture_east","kids_est":37,"class":"green","shortest":{"len_m":1645.5,"mean_c":38.82,"peak_c":41.32,"dose":133.0},"coolest":{"len_m":2054.4,"mean_c":34.58,"peak_c":36.58,"dose":45.0},"delta_mean_c":-4.24,"delta_dose_pct":-66,"status_now":"walk","status_rec":"walk","reason":"Shortest route already under threshold (dose 133).","distance_mi":0.818}},{"type":"Feature","geometry":{"type":"Polygon","coordinates":[[[-81.371,28.5334],[-81.366667,28.5334],[-81.366667,28.538],[-81.371,28.538],[-81.371,28.5334]]]},"properties":{"block_id":"FIXTURE-0904","school_id":"sch_fixture_east","kids_est":22,"class":"green","shortest":{"len_m":1426.2,"mean_c":41.96,"peak_c":44.46,"dose":177.5},"coolest":{"len_m":1574.7,"mean_c":39.65,"peak_c":41.65,"dose":145.5},"delta_mean_c":-2.31,"delta_dose_pct":-18,"status_now":"walk","status_rec":"walk","reason":"Shortest route already under threshold (dose 178).","distance_mi":0.709}},{"type":"Feature","geometry":{"type":"Polygon","coordinates":[[[-81.366667,28.5334],[-81.362333,28.5334],[-81.362333,28.538],[-81.366667,28.538],[-81.366667,28.5334]]]},"properties":{"block_id":"FIXTURE-1004","school_id":"sch_fixture_east","kids_est":8,"class":"green","shortest":{"len_m":1386.3,"mean_c":41.37,"peak_c":43.87,"dose":161.2},"coolest":{"len_m":1549.0,"mean_c":38.81,"peak_c":40.81,"dose":125.0},"delta_mean_c":-2.56,"delta_dose_pct":-22,"status_now":"walk","status_rec":"walk","reason":"Shortest route already under threshold (dose 161).","distance_mi":0.689}},{"type":"Feature","geometry":{"type":"Polygon","coordinates":[[[-81.362333,28.5334],[-81.358,28.5334],[-81.358,28.538],[-81.362333,28.538],[-81.362333,28.5334]]]},"properties":{"block_id":"FIXTURE-1104","school_id":"sch_fixture_east","kids_est":13,"class":"green","shortest":{"len_m":1539.7,"mean_c":42.66,"peak_c":45.16,"dose":206.6},"coolest":{"len_m":1687.5,"mean_c":40.47,"peak_c":42.47,"dose":175.0},"delta_mean_c":-2.19,"delta_dose_pct":-15,"status_now":"walk","status_rec":"walk","reason":"Shortest route already under threshold (dose 207).","distance_mi":0.765}},{"type":"Feature","geometry":{"type":"Polygon","coordinates":[[[-81.41,28.538],[-81.405667,28.538],[-81.405667,28.5426],[-81.41,28.5426],[-81.41,28.538]]]},"properties":{"block_id":"FIXTURE-0005","school_id":"sch_fixture_west","kids_est":36,"class":"green","shortest":{"len_m":1769.5,"mean_c":30.58,"peak_c":33.08,"dose":0.0},"coolest":{"len_m":1918.1,"mean_c":32.0,"peak_c":34.0,"dose":0.0},"delta_mean_c":1.42,"delta_dose_pct":0,"status_now":"walk","status_rec":"walk","reason":"Shortest route already under threshold (dose 0).","distance_mi":0.88}},{"type":"Feature","geometry":{"type":"Polygon","coordinates":[[[-81.405667,28.538],[-81.401333,28.538],[-81.401333,28.5426],[-81.405667,28.5426],[-81.405667,28.538]]]},"properties":{"block_id":"FIXTURE-0105","school_id":"sch_fixture_west","kids_est":14,"class":"green","shortest":{"len_m":1737.5,"mean_c":32.31,"peak_c":34.81,"dose":0.0},"coolest":{"len_m":1905.5,"mean_c":32.0,"peak_c":34.0,"dose":0.0},"delta_mean_c":-0.31,"delta_dose_pct":0,"status_now":"walk","status_rec":"walk","reason":"Shortest route already under threshold (dose 0).","distance_mi":0.864}},{"type":"Feature","geometry":{"type":"Polygon","coordinates":[[[-81.401333,28.538],[-81.397,28.538],[-81.397,28.5426],[-81.401333,28.5426],[-81.401333,28.538]]]},"properties":{"block_id":"FIXTURE-0205","school_id":"sch_fixture_west","kids_est":39,"class":"green","shortest":{"len_m":1862.2,"mean_c":32.95,"peak_c":35.45,"dose":0.0},"coolest":{"len_m":2023.4,"mean_c":32.0,"peak_c":34.0,"dose":0.0},"delta_mean_c":-0.95,"delta_dose_pct":0,"status_now":"walk","status_rec":"walk","reason":"Shortest route already under threshold (dose 0).","distance_mi":0.926}},{"type":"Feature","geometry":{"type":"Polygon","coordinates":[[[-81.397,28.538],[-81.392667,28.538],[-81.392667,28.5426],[-81.397,28.5426],[-81.397,28.538]]]},"properties":{"block_id":"FIXTURE-0305","school_id":"sch_fixture_west","kids_est":29,"class":"green","shortest":{"len_m":2116.2,"mean_c":34.05,"peak_c":36.55,"dose":30.9},"coolest":{"len_m":2324.6,"mean_c":33.8,"peak_c":35.8,"dose":25.9},"delta_mean_c":-0.25,"delta_dose_pct":-16,"status_now":"bus","status_rec":"walk","reason":"Shortest route already under threshold (dose 31).","distance_mi":1.052}},{"type":"Feature","geometry":{"type":"Polygon","coordinates":[[[-81.392667,28.538],[-81.388333,28.538],[-81.388333,28.5426],[-81.392667,28.5426],[-81.392667,28.538]]]},"properties":{"block_id":"FIXTURE-0405","school_id":"sch_fixture_west","kids_est":36,"class":"green","shortest":{"len_m":2459.6,"mean_c":35.88,"peak_c":38.38,"dose":98.4},"coolest":{"len_m":3094.5,"mean_c":33.7,"peak_c":35.7,"dose":30.1},"delta_mean_c":-2.18,"delta_dose_pct":-69,"status_now":"bus","status_rec":"walk","reason":"Shortest route already under threshold (dose 98).","distance_mi":1.223}},{"type":"Feature","geometry":{"type":"Polygon","coordinates":[[[-81.388333,28.538],[-81.384,28.538],[-81.384,28.5426],[-81.388333,28.5426],[-81.388333,28.538]]]},"properties":{"block_id":"FIXTURE-0505","school_id":"sch_fixture_east","kids_est":8,"class":"green","shortest":{"len_m":2597.7,"mean_c":35.34,"peak_c":37.84,"dose":84.4},"coolest":{"len_m":3273.1,"mean_c":33.56,"peak_c":35.56,"dose":25.3},"delta_mean_c":-1.78,"delta_dose_pct":-70,"status_now":"walk","status_rec":"walk","reason":"Shortest route already under threshold (dose 84).","distance_mi":1.291}},{"type":"Feature","geometry":{"type":"Polygon","coordinates":[[[-81.384,28.538],[-81.379667,28.538],[-81.379667,28.5426],[-81.384,28.5426],[-81.384,28.538]]]},"properties":{"block_id":"FIXTURE-0605","school_id":"sch_fixture_east","kids_est":36,"class":"green","shortest":{"len_m":2095.4,"mean_c":36.84,"peak_c":39.34,"dose":111.8},"coolest":{"len_m":2615.2,"mean_c":34.05,"peak_c":36.05,"dose":38.0},"delta_mean_c":-2.79,"delta_dose_pct":-66,"status_now":"walk","status_rec":"walk","reason":"Shortest route already under threshold (dose 112).","distance_mi":1.042}},{"type":"Feature","geometry":{"type":"Polygon","coordinates":[[[-81.379667,28.538],[-81.375333,28.538],[-81.375333,28.5426],[-81.379667,28.5426],[-81.379667,28.538]]]},"properties":{"block_id":"FIXTURE-0705","school_id":"sch_fixture_east","kids_est":32,"class":"green","shortest":{"len_m":1611.0,"mean_c":39.44,"peak_c":41.94,"dose":144.1},"coolest":{"len_m":2002.4,"mean_c":34.85,"peak_c":36.85,"dose":51.4},"delta_mean_c":-4.59,"delta_dose_pct":-64,"status_now":"walk","status_rec":"walk","reason":"Shortest route already under threshold (dose 144).","distance_mi":0.801}},{"type":"Feature","geometry":{"type":"Polygon","coordinates":[[[-81.375333,28.538],[-81.371,28.538],[-81.371,28.5426],[-81.375333,28.5426],[-81.375333,28.538]]]},"properties":{"block_id":"FIXTURE-0805","school_id":"sch_fixture_east","kids_est":22,"class":"green","shortest":{"len_m":1166.6,"mean_c":38.55,"peak_c":41.05,"dose":89.9},"coolest":{"len_m":1467.5,"mean_c":34.35,"peak_c":36.35,"dose":27.6},"delta_mean_c":-4.2,"delta_dose_pct":-69,"status_now":"walk","status_rec":"walk","reason":"Shortest route already under threshold (dose 90).","distance_mi":0.58}},{"type":"Feature","geometry":{"type":"Polygon","coordinates":[[[-81.371,28.538],[-81.366667,28.538],[-81.366667,28.5426],[-81.371,28.5426],[-81.371,28.538]]]},"properties":{"block_id":"FIXTURE-0905","school_id":"sch_fixture_east","kids_est":32,"class":"green","shortest":{"len_m":829.1,"mean_c":41.3,"peak_c":43.8,"dose":95.6},"coolest":{"len_m":915.2,"mean_c":39.17,"peak_c":41.17,"dose":78.4},"delta_mean_c":-2.13,"delta_dose_pct":-18,"status_now":"walk","status_rec":"walk","reason":"Shortest route already under threshold (dose 96).","distance_mi":0.412}},{"type":"Feature","geometry":{"type":"Polygon","coordinates":[[[-81.366667,28.538],[-81.362333,28.538],[-81.362333,28.5426],[-81.366667,28.5426],[-81.366667,28.538]]]},"properties":{"block_id":"FIXTURE-1005","school_id":"sch_fixture_east","kids_est":40,"class":"green","shortest":{"len_m":758.4,"mean_c":42.84,"peak_c":45.34,"dose":103.7},"coolest":{"len_m":850.7,"mean_c":39.68,"peak_c":41.68,"dose":78.9},"delta_mean_c":-3.16,"delta_dose_pct":-24,"status_now":"walk","status_rec":"walk","reason":"Shortest route already under threshold (dose 104).","distance_mi":0.377}},{"type":"Feature","geometry":{"type":"Polygon","coordinates":[[[-81.362333,28.538],[-81.358,28.538],[-81.358,28.5426],[-81.362333,28.5426],[-81.362333,28.538]]]},"properties":{"block_id":"FIXTURE-1105","school_id":"sch_fixture_east","kids_est":7,"class":"green","shortest":{"len_m":1012.0,"mean_c":41.96,"peak_c":44.46,"dose":125.9},"coolest":{"len_m":1115.0,"mean_c":39.73,"peak_c":41.73,"dose":104.2},"delta_mean_c":-2.23,"delta_dose_pct":-17,"status_now":"walk","status_rec":"walk","reason":"Shortest route already under threshold (dose 126).","distance_mi":0.503}},{"type":"Feature","geometry":{"type":"Polygon","coordinates":[[[-81.41,28.5426],[-81.405667,28.5426],[-81.405667,28.5472],[-81.41,28.5472],[-81.41,28.5426]]]},"properties":{"block_id":"FIXTURE-0006","school_id":"sch_fixture_west","kids_est":12,"class":"green","shortest":{"len_m":2394.7,"mean_c":31.15,"peak_c":33.65,"dose":0.0},"coolest":{"len_m":2615.4,"mean_c":32.0,"peak_c":34.0,"dose":0.0},"delta_mean_c":0.85,"delta_dose_pct":0,"status_now":"bus","status_rec":"walk","reason":"Shortest route already under threshold (dose 0).","distance_mi":1.19}},{"type":"Feature","geometry":{"type":"Polygon","coordinates":[[[-81.405667,28.5426],[-81.401333,28.5426],[-81.401333,28.5472],[-81.405667,28.5472],[-81.405667,28.5426]]]},"properties":{"block_id":"FIXTURE-0106","school_id":"sch_fixture_west","kids_est":9,"class":"green","shortest":{"len_m":2371.2,"mean_c":32.24,"peak_c":34.74,"dose":0.0},"coolest":{"len_m":2565.7,"mean_c":32.0,"peak_c":34.0,"dose":0.0},"delta_mean_c":-0.24,"delta_dose_pct":0,"status_now":"bus","status_rec":"walk","reason":"Shortest route already under threshold (dose 0).","distance_mi":1.179}},{"type":"Feature","geometry":{"type":"Polygon","coordinates":[[[-81.401333,28.5426],[-81.397,28.5426],[-81.397,28.5472],[-81.401333,28.5472],[-81.401333,28.5426]]]},"properties":{"block_id":"FIXTURE-0206","school_id":"sch_fixture_west","kids_est":20,"class":"green","shortest":{"len_m":2464.0,"mean_c":33.72,"peak_c":36.22,"dose":24.6},"coolest":{"len_m":2664.8,"mean_c":33.59,"peak_c":35.59,"dose":22.0},"delta_mean_c":-0.13,"delta_dose_pct":-11,"status_now":"bus","status_rec":"walk","reason":"Shortest route already under threshold (dose 25).","distance_mi":1.225}},{"type":"Feature","geometry":{"type":"Polygon","coordinates":[[[-81.397,28.5426],[-81.392667,28.5426],[-81.392667,28.5472],[-81.397,28.5472],[-81.397,28.5426]]]},"properties":{"block_id":"FIXTURE-0306","school_id":"sch_fixture_west","kids_est":30,"class":"green","shortest":{"len_m":2661.1,"mean_c":34.2,"peak_c":36.7,"dose":44.4},"coolest":{"len_m":2913.4,"mean_c":33.93,"peak_c":35.93,"dose":37.8},"delta_mean_c":-0.27,"delta_dose_pct":-15,"status_now":"bus","status_rec":"walk","reason":"Shortest route already under threshold (dose 44).","distance_mi":1.323}},{"type":"Feature","geometry":{"type":"Polygon","coordinates":[[[-81.392667,28.5426],[-81.388333,28.5426],[-81.388333,28.5472],[-81.392667,28.5472],[-81.392667,28.5426]]]},"properties":{"block_id":"FIXTURE-0406","school_id":"sch_fixture_west","kids_est":5,"class":"green","shortest":{"len_m":2941.6,"mean_c":35.81,"peak_c":38.31,"dose":114.8},"coolest":{"len_m":3690.3,"mean_c":33.71,"peak_c":35.71,"dose":36.5},"delta_mean_c":-2.1,"delta_dose_pct":-68,"status_now":"bus","status_rec":"walk","reason":"Shortest route already under threshold (dose 115).","distance_mi":1.462}},{"type":"Feature","geometry":{"type":"Polygon","coordinates":[[[-81.388333,28.5426],[-81.384,28.5426],[-81.384,28.5472],[-81.388333,28.5472],[-81.388333,28.5426]]]},"properties":{"block_id":"FIXTURE-0506","school_id":"sch_fixture_east","kids_est":11,"class":"green","shortest":{"len_m":2491.8,"mean_c":37.15,"peak_c":39.65,"dose":143.6},"coolest":{"len_m":3104.0,"mean_c":34.16,"peak_c":36.16,"dose":49.9},"delta_mean_c":-2.99,"delta_dose_pct":-65,"status_now":"walk","status_rec":"walk","reason":"Shortest route already under threshold (dose 144).","distance_mi":1.239}},{"type":"Feature","geometry":{"type":"Polygon","coordinates":[[[-81.384,28.5426],[-81.379667,28.5426],[-81.379667,28.5472],[-81.384,28.5472],[-81.384,28.5426]]]},"properties":{"block_id":"FIXTURE-0606","school_id":"sch_fixture_east","kids_est":44,"class":"green","shortest":{"len_m":1962.7,"mean_c":37.98,"peak_c":40.48,"dose":135.8},"coolest":{"len_m":2436.7,"mean_c":34.45,"peak_c":36.45,"dose":49.1},"delta_mean_c":-3.53,"delta_dose_pct":-64,"status_now":"walk","status_rec":"walk","reason":"Shortest route already under threshold (dose 136).","distance_mi":0.976}},{"type":"Feature","geometry":{"type":"Polygon","coordinates":[[[-81.379667,28.5426],[-81.375333,28.5426],[-81.375333,28.5472],[-81.379667,28.5472],[-81.379667,28.5426]]]},"properties":{"block_id":"FIXTURE-0706","school_id":"sch_fixture_east","kids_est":25,"class":"green","shortest":{"len_m":1434.1,"mean_c":37.34,"peak_c":39.84,"dose":86.4},"coolest":{"len_m":1781.9,"mean_c":34.25,"peak_c":36.25,"dose":31.0},"delta_mean_c":-3.09,"delta_dose_pct":-64,"status_now":"walk","status_rec":"walk","reason":"Shortest route already under threshold (dose 86).","distance_mi":0.713}},{"type":"Feature","geometry":{"type":"Polygon","coordinates":[[[-81.375333,28.5426],[-81.371,28.5426],[-81.371,28.5472],[-81.375333,28.5472],[-81.375333,28.5426]]]},"properties":{"block_id":"FIXTURE-0806","school_id":"sch_fixture_east","kids_est":28,"class":"green","shortest":{"len_m":906.7,"mean_c":38.79,"peak_c":41.29,"dose":72.9},"coolest":{"len_m":1127.4,"mean_c":34.65,"peak_c":36.65,"dose":25.9},"delta_mean_c":-4.14,"delta_dose_pct":-64,"status_now":"walk","status_rec":"walk","reason":"Shortest route already under threshold (dose 73).","distance_mi":0.451}},{"type":"Feature","geometry":{"type":"Polygon","coordinates":[[[-81.371,28.5426],[-81.366667,28.5426],[-81.366667,28.5472],[-81.371,28.5472],[-81.371,28.5426]]]},"properties":{"block_id":"FIXTURE-0906","school_id":"sch_fixture_east","kids_est":30,"class":"green","shortest":{"len_m":385.6,"mean_c":42.01,"peak_c":44.51,"dose":48.3},"coolest":{"len_m":426.8,"mean_c":39.61,"peak_c":41.61,"dose":39.2},"delta_mean_c":-2.4,"delta_dose_pct":-19,"status_now":"walk","status_rec":"walk","reason":"Shortest route already under threshold (dose 48).","distance_mi":0.192}},{"type":"Feature","geometry":{"type":"Polygon","coordinates":[[[-81.366667,28.5426],[-81.362333,28.5426],[-81.362333,28.5472],[-81.366667,28.5472],[-81.366667,28.5426]]]},"properties":{"block_id":"FIXTURE-1006","school_id":"sch_fixture_east","kids_est":36,"class":"green","shortest":{"len_m":191.0,"mean_c":42.22,"peak_c":44.72,"dose":24.5},"coolest":{"len_m":211.1,"mean_c":39.82,"peak_c":41.82,"dose":20.0},"delta_mean_c":-2.4,"delta_dose_pct":-18,"status_now":"walk","status_rec":"walk","reason":"Shortest route already under threshold (dose 24).","distance_mi":0.095}},{"type":"Feature","geometry":{"type":"Polygon","coordinates":[[[-81.362333,28.5426],[-81.358,28.5426],[-81.358,28.5472],[-81.362333,28.5472],[-81.362333,28.5426]]]},"properties":{"block_id":"FIXTURE-1106","school_id":"sch_fixture_east","kids_est":32,"class":"green","shortest":{"len_m":696.7,"mean_c":42.57,"peak_c":45.07,"dose":92.6},"coolest":{"len_m":769.7,"mean_c":40.08,"peak_c":42.08,"dose":75.7},"delta_mean_c":-2.49,"delta_dose_pct":-18,"status_now":"walk","status_rec":"walk","reason":"Shortest route already under threshold (dose 93).","distance_mi":0.346}},{"type":"Feature","geometry":{"type":"Polygon","coordinates":[[[-81.41,28.5472],[-81.405667,28.5472],[-81.405667,28.5518],[-81.41,28.5518],[-81.41,28.5472]]]},"properties":{"block_id":"FIXTURE-0007","school_id":"sch_fixture_west","kids_est":9,"class":"green","shortest":{"len_m":3024.3,"mean_c":31.57,"peak_c":34.07,"dose":0.0},"coolest":{"len_m":3306.0,"mean_c":32.0,"peak_c":34.0,"dose":0.0},"delta_mean_c":0.43,"delta_dose_pct":0,"status_now":"bus","status_rec":"walk","reason":"Shortest route already under threshold (dose 0).","distance_mi":1.503}},{"type":"Feature","geometry":{"type":"Polygon","coordinates":[[[-81.405667,28.5472],[-81.401333,28.5472],[-81.401333,28.5518],[-81.405667,28.5518],[-81.405667,28.5472]]]},"properties":{"block_id":"FIXTURE-0107","school_id":"sch_fixture_west","kids_est":7,"class":"green","shortest":{"len_m":3005.6,"mean_c":32.21,"peak_c":34.71,"dose":0.0},"coolest":{"len_m":3249.6,"mean_c":32.0,"peak_c":34.0,"dose":0.0},"delta_mean_c":-0.21,"delta_dose_pct":0,"status_now":"bus","status_rec":"walk","reason":"Shortest route already under threshold (dose 0).","distance_mi":1.494}},{"type":"Feature","geometry":{"type":"Polygon","coordinates":[[[-81.401333,28.5472],[-81.397,28.5472],[-81.397,28.5518],[-81.401333,28.5518],[-81.401333,28.5472]]]},"properties":{"block_id":"FIXTURE-0207","school_id":"sch_fixture_west","kids_est":12,"class":"green","shortest":{"len_m":3079.4,"mean_c":32.79,"peak_c":35.29,"dose":0.0},"coolest":{"len_m":3405.0,"mean_c":32.0,"peak_c":34.0,"dose":0.0},"delta_mean_c":-0.79,"delta_dose_pct":0,"status_now":"bus","status_rec":"walk","reason":"Shortest route already under threshold (dose 0).","distance_mi":1.531}},{"type":"Feature","geometry":{"type":"Polygon","coordinates":[[[-81.397,28.5472],[-81.392667,28.5472],[-81.392667,28.5518],[-81.397,28.5518],[-81.397,28.5472]]]},"properties":{"block_id":"FIXTURE-0307","school_id":"sch_fixture_west","kids_est":29,"class":"green","shortest":{"len_m":3239.3,"mean_c":34.08,"peak_c":36.58,"dose":48.6},"coolest":{"len_m":3530.5,"mean_c":33.86,"peak_c":35.86,"dose":42.1},"delta_mean_c":-0.22,"delta_dose_pct":-13,"status_now":"bus","status_rec":"walk","reason":"Shortest route already under threshold (dose 49).","distance_mi":1.61}},{"type":"Feature","geometry":{"type":"Polygon","coordinates":[[[-81.392667,28.5472],[-81.388333,28.5472],[-81.388333,28.5518],[-81.392667,28.5518],[-81.392667,28.5472]]]},"properties":{"block_id":"FIXTURE-0407","school_id":"sch_fixture_east","kids_est":34,"class":"green","shortest":{"len_m":3065.2,"mean_c":35.81,"peak_c":38.31,"dose":119.6},"coolest":{"len_m":3856.2,"mean_c":33.69,"peak_c":35.69,"dose":36.7},"delta_mean_c":-2.12,"delta_dose_pct":-69,"status_now":"bus","status_rec":"walk","reason":"Shortest route already under threshold (dose 120).","distance_mi":1.524}},{"type":"Feature","geometry":{"type":"Polygon","coordinates":[[[-81.388333,28.5472],[-81.384,28.5472],[-81.384,28.5518],[-81.388333,28.5518],[-81.388333,28.5472]]]},"properties":{"block_id":"FIXTURE-0507","school_id":"sch_fixture_east","kids_est":15,"class":"green","shortest":{"len_m":2545.2,"mean_c":35.77,"peak_c":38.27,"dose":97.9},"coolest":{"len_m":3143.9,"mean_c":33.86,"peak_c":35.86,"dose":37.5},"delta_mean_c":-1.91,"delta_dose_pct":-62,"status_now":"walk","status_rec":"walk","reason":"Shortest route already under threshold (dose 98).","distance_mi":1.265}},{"type":"Feature","geometry":{"type":"Polygon","coordinates":[[[-81.384,28.5472],[-81.379667,28.5472],[-81.379667,28.5518],[-81.384,28.5518],[-81.384,28.5472]]]},"properties":{"block_id":"FIXTURE-0607","school_id":"sch_fixture_east","kids_est":34,"class":"green","shortest":{"len_m":2030.1,"mean_c":37.56,"peak_c":40.06,"dose":128.6},"coolest":{"len_m":2532.0,"mean_c":34.25,"peak_c":36.25,"dose":44.0},"delta_mean_c":-3.31,"delta_dose_pct":-66,"status_now":"walk","status_rec":"walk","reason":"Shortest route already under threshold (dose 129).","distance_mi":1.009}},{"type":"Feature","geometry":{"type":"Polygon","coordinates":[[[-81.379667,28.5472],[-81.375333,28.5472],[-81.375333,28.5518],[-81.379667,28.5518],[-81.379667,28.5472]]]},"properties":{"block_id":"FIXTURE-0707","school_id":"sch_fixture_east","kids_est":26,"class":"green","shortest":{"len_m":1525.0,"mean_c":39.84,"peak_c":42.34,"dose":144.9},"coolest":{"len_m":1878.7,"mean_c":35.19,"peak_c":37.19,"dose":57.1},"delta_mean_c":-4.65,"delta_dose_pct":-61,"status_now":"walk","status_rec":"walk","reason":"Shortest route already under threshold (dose 145).","distance_mi":0.758}},{"type":"Feature","geometry":{"type":"Polygon","coordinates":[[[-81.375333,28.5472],[-81.371,28.5472],[-81.371,28.5518],[-81.375333,28.5518],[-81.375333,28.5472]]]},"properties":{"block_id":"FIXTURE-0807","school_id":"sch_fixture_east","kids_est":38,"class":"green","shortest":{"len_m":1044.7,"mean_c":40.41,"peak_c":42.91,"dose":107.5},"coolest":{"len_m":1286.4,"mean_c":35.38,"peak_c":37.38,"dose":42.5},"delta_mean_c":-5.03,"delta_dose_pct":-60,"status_now":"walk","status_rec":"walk","reason":"Shortest route already under threshold (dose 108).","distance_mi":0.519}},{"type":"Feature","geometry":{"type":"Polygon","coordinates":[[[-81.371,28.5472],[-81.366667,28.5472],[-81.366667,28.5518],[-81.371,28.5518],[-81.371,28.5472]]]},"properties":{"block_id":"FIXTURE-0907","school_id":"sch_fixture_east","kids_est":35,"class":"green","shortest":{"len_m":646.5,"mean_c":41.47,"peak_c":43.97,"dose":76.1},"coolest":{"len_m":812.2,"mean_c":35.11,"peak_c":37.11,"dose":23.8},"delta_mean_c":-6.36,"delta_dose_pct":-69,"status_now":"walk","status_rec":"walk","reason":"Shortest route already under threshold (dose 76).","distance_mi":0.321}},{"type":"Feature","geometry":{"type":"Polygon","coordinates":[[[-81.366667,28.5472],[-81.362333,28.5472],[-81.362333,28.5518],[-81.366667,28.5518],[-81.366667,28.5472]]]},"properties":{"block_id":"FIXTURE-1007","school_id":"sch_fixture_east","kids_est":9,"class":"green","shortest":{"len_m":552.9,"mean_c":42.22,"peak_c":44.72,"dose":70.8},"coolest":{"len_m":615.5,"mean_c":39.54,"peak_c":41.54,"dose":55.9},"delta_mean_c":-2.68,"delta_dose_pct":-21,"status_now":"walk","status_rec":"walk","reason":"Shortest route already under threshold (dose 71).","distance_mi":0.275}},{"type":"Feature","geometry":{"type":"Polygon","coordinates":[[[-81.362333,28.5472],[-81.358,28.5472],[-81.358,28.5518],[-81.362333,28.5518],[-81.362333,28.5472]]]},"properties":{"block_id":"FIXTURE-1107","school_id":"sch_fixture_east","kids_est":44,"class":"green","shortest":{"len_m":868.7,"mean_c":43.18,"peak_c":45.68,"dose":122.8},"coolest":{"len_m":957.7,"mean_c":40.62,"peak_c":42.62,"dose":101.3},"delta_mean_c":-2.56,"delta_dose_pct":-18,"status_now":"walk","status_rec":"walk","reason":"Shortest route already under threshold (dose 123).","distance_mi":0.432}},{"type":"Feature","geometry":{"type":"Polygon","coordinates":[[[-81.41,28.5518],[-81.405667,28.5518],[-81.405667,28.5564],[-81.41,28.5564],[-81.41,28.5518]]]},"properties":{"block_id":"FIXTURE-0008","school_id":"sch_fixture_west","kids_est":7,"class":"green","shortest":{"len_m":3655.9,"mean_c":31.39,"peak_c":33.89,"dose":0.0},"coolest":{"len_m":4055.6,"mean_c":32.0,"peak_c":34.0,"dose":0.0},"delta_mean_c":0.61,"delta_dose_pct":0,"status_now":"bus","status_rec":"walk","reason":"Shortest route already under threshold (dose 0).","distance_mi":1.817}},{"type":"Feature","geometry":{"type":"Polygon","coordinates":[[[-81.405667,28.5518],[-81.401333,28.5518],[-81.401333,28.5564],[-81.405667,28.5564],[-81.405667,28.5518]]]},"properties":{"block_id":"FIXTURE-0108","school_id":"sch_fixture_west","kids_est":15,"class":"green","shortest":{"len_m":3640.5,"mean_c":32.03,"peak_c":34.53,"dose":0.0},"coolest":{"len_m":3968.7,"mean_c":32.0,"peak_c":34.0,"dose":0.0},"delta_mean_c":-0.03,"delta_dose_pct":0,"status_now":"bus","status_rec":"walk","reason":"Shortest route already under threshold (dose 0).","distance_mi":1.81}},{"type":"Feature","geometry":{"type":"Polygon","coordinates":[[[-81.401333,28.5518],[-81.397,28.5518],[-81.397,28.5564],[-81.401333,28.5564],[-81.401333,28.5518]]]},"properties":{"block_id":"FIXTURE-0208","school_id":"sch_fixture_west","kids_est":30,"class":"green","shortest":{"len_m":3701.7,"mean_c":33.07,"peak_c":35.57,"dose":3.6},"coolest":{"len_m":4101.8,"mean_c":33.05,"peak_c":35.05,"dose":2.9},"delta_mean_c":-0.02,"delta_dose_pct":-19,"status_now":"bus","status_rec":"walk","reason":"Shortest route already under threshold (dose 4).","distance_mi":1.84}},{"type":"Feature","geometry":{"type":"Polygon","coordinates":[[[-81.397,28.5518],[-81.392667,28.5518],[-81.392667,28.5564],[-81.397,28.5564],[-81.397,28.5518]]]},"properties":{"block_id":"FIXTURE-0308","school_id":"sch_fixture_east","kids_est":22,"class":"green","shortest":{"len_m":3735.1,"mean_c":34.32,"peak_c":36.82,"dose":68.5},"coolest":{"len_m":4088.6,"mean_c":34.03,"peak_c":36.03,"dose":58.3},"delta_mean_c":-0.29,"delta_dose_pct":-15,"status_now":"bus","status_rec":"walk","reason":"Shortest route already under threshold (dose 68).","distance_mi":1.857}},{"type":"Feature","geometry":{"type":"Polygon","coordinates":[[[-81.392667,28.5518],[-81.388333,28.5518],[-81.388333,28.5564],[-81.392667,28.5564],[-81.392667,28.5518]]]},"properties":{"block_id":"FIXTURE-0408","school_id":"sch_fixture_east","kids_est":32,"class":"green","shortest":{"len_m":3236.1,"mean_c":35.0,"peak_c":37.5,"dose":89.9},"coolest":{"len_m":3575.9,"mean_c":34.48,"peak_c":36.48,"dose":73.4},"delta_mean_c":-0.52,"delta_dose_pct":-18,"status_now":"bus","status_rec":"walk","reason":"Shortest route already under threshold (dose 90).","distance_mi":1.609}},{"type":"Feature","geometry":{"type":"Polygon","coordinates":[[[-81.388333,28.5518],[-81.384,28.5518],[-81.384,28.5564],[-81.388333,28.5564],[-81.388333,28.5518]]]},"properties":{"block_id":"FIXTURE-0508","school_id":"sch_fixture_east","kids_est":30,"class":"green","shortest":{"len_m":2748.7,"mean_c":36.81,"peak_c":39.31,"dose":145.4},"coolest":{"len_m":3444.7,"mean_c":33.98,"peak_c":35.98,"dose":46.9},"delta_mean_c":-2.83,"delta_dose_pct":-68,"status_now":"walk","status_rec":"walk","reason":"Shortest route already under threshold (dose 145).","distance_mi":1.366}},{"type":"Feature","geometry":{"type":"Polygon","coordinates":[[[-81.384,28.5518],[-81.379667,28.5518],[-81.379667,28.5564],[-81.384,28.5564],[-81.384,28.5518]]]},"properties":{"block_id":"FIXTURE-0608","school_id":"sch_fixture_east","kids_est":6,"class":"green","shortest":{"len_m":2280.0,"mean_c":36.73,"peak_c":39.23,"dose":118.1},"coolest":{"len_m":2846.5,"mean_c":34.01,"peak_c":36.01,"dose":40.0},"delta_mean_c":-2.72,"delta_dose_pct":-66,"status_now":"walk","status_rec":"walk","reason":"Shortest route already under threshold (dose 118).","distance_mi":1.133}},{"type":"Feature","geometry":{"type":"Polygon","coordinates":[[[-81.379667,28.5518],[-81.375333,28.5518],[-81.375333,28.5564],[-81.379667,28.5564],[-81.379667,28.5518]]]},"properties":{"block_id":"FIXTURE-0708","school_id":"sch_fixture_east","kids_est":12,"class":"green","shortest":{"len_m":1844.7,"mean_c":38.71,"peak_c":41.21,"dose":146.3},"coolest":{"len_m":2323.1,"mean_c":34.37,"peak_c":36.37,"dose":44.2},"delta_mean_c":-4.34,"delta_dose_pct":-70,"status_now":"walk","status_rec":"walk","reason":"Shortest route already under threshold (dose 146).","distance_mi":0.917}},{"type":"Feature","geometry":{"type":"Polygon","coordinates":[[[-81.375333,28.5518],[-81.371,28.5518],[-81.371,28.5564],[-81.375333,28.5564],[-81.375333,28.5518]]]},"properties":{"block_id":"FIXTURE-0808","school_id":"sch_fixture_east","kids_est":42,"class":"green","shortest":{"len_m":1472.6,"mean_c":39.89,"peak_c":42.39,"dose":140.9},"coolest":{"len_m":1829.5,"mean_c":34.99,"peak_c":36.99,"dose":50.5},"delta_mean_c":-4.9,"delta_dose_pct":-64,"status_now":"walk","status_rec":"walk","reason":"Shortest route already under threshold (dose 141).","distance_mi":0.732}},{"type":"Feature","geometry":{"type":"Polygon","coordinates":[[[-81.371,28.5518],[-81.366667,28.5518],[-81.366667,28.5564],[-81.371,28.5564],[-81.371,28.5518]]]},"properties":{"block_id":"FIXTURE-0908","school_id":"sch_fixture_east","kids_est":8,"class":"green","shortest":{"len_m":1222.8,"mean_c":41.87,"peak_c":44.37,"dose":150.6},"coolest":{"len_m":1346.7,"mean_c":39.67,"peak_c":41.67,"dose":124.8},"delta_mean_c":-2.2,"delta_dose_pct":-17,"status_now":"walk","status_rec":"walk","reason":"Shortest route already under threshold (dose 151).","distance_mi":0.608}},{"type":"Feature","geometry":{"type":"Polygon","coordinates":[[[-81.366667,28.5518],[-81.362333,28.5518],[-81.362333,28.5564],[-81.366667,28.5564],[-81.366667,28.5518]]]},"properties":{"block_id":"FIXTURE-1008","school_id":"sch_fixture_east","kids_est":29,"class":"green","shortest":{"len_m":1176.0,"mean_c":41.07,"peak_c":43.57,"dose":131.8},"coolest":{"len_m":1321.4,"mean_c":38.42,"peak_c":40.42,"dose":99.4},"delta_mean_c":-2.65,"delta_dose_pct":-25,"status_now":"walk","status_rec":"walk","reason":"Shortest route already under threshold (dose 132).","distance_mi":0.585}},{"type":"Feature","geometry":{"type":"Polygon","coordinates":[[[-81.362333,28.5518],[-81.358,28.5518],[-81.358,28.5564],[-81.362333,28.5564],[-81.362333,28.5518]]]},"properties":{"block_id":"FIXTURE-1108","school_id":"sch_fixture_east","kids_est":12,"class":"green","shortest":{"len_m":1353.4,"mean_c":42.85,"peak_c":45.35,"dose":185.2},"coolest":{"len_m":1516.1,"mean_c":39.74,"peak_c":41.74,"dose":141.9},"delta_mean_c":-3.11,"delta_dose_pct":-23,"status_now":"walk","status_rec":"walk","reason":"Shortest route already under threshold (dose 185).","distance_mi":0.673}},{"type":"Feature","geometry":{"type":"Polygon","coordinates":[[[-81.41,28.5564],[-81.405667,28.5564],[-81.405667,28.561],[-81.41,28.561],[-81.41,28.5564]]]},"properties":{"block_id":"FIXTURE-0009","school_id":"sch_fixture_west","kids_est":11,"class":"green","shortest":{"len_m":4288.7,"mean_c":30.99,"peak_c":33.49,"dose":0.0},"coolest":{"len_m":4653.6,"mean_c":32.0,"peak_c":34.0,"dose":0.0},"delta_mean_c":1.01,"delta_dose_pct":0,"status_now":"bus","status_rec":"walk","reason":"Shortest route already under threshold (dose 0).","distance_mi":2.132}},{"type":"Feature","geometry":{"type":"Polygon","coordinates":[[[-81.405667,28.5564],[-81.401333,28.5564],[-81.401333,28.561],[-81.405667,28.561],[-81.405667,28.5564]]]},"properties":{"block_id":"FIXTURE-0109","school_id":"sch_fixture_west","kids_est":8,"class":"green","shortest":{"len_m":4275.6,"mean_c":32.33,"peak_c":34.83,"dose":0.0},"coolest":{"len_m":4707.4,"mean_c":32.0,"peak_c":34.0,"dose":0.0},"delta_mean_c":-0.33,"delta_dose_pct":0,"status_now":"bus","status_rec":"walk","reason":"Shortest route already under threshold (dose 0).","distance_mi":2.125}},{"type":"Feature","geometry":{"type":"Polygon","coordinates":[[[-81.401333,28.5564],[-81.397,28.5564],[-81.397,28.561],[-81.401333,28.561],[-81.401333,28.5564]]]},"properties":{"block_id":"FIXTURE-0209","school_id":"sch_fixture_west","kids_est":26,"class":"green","shortest":{"len_m":4327.8,"mean_c":33.42,"peak_c":35.92,"dose":25.2},"coolest":{"len_m":4698.5,"mean_c":33.34,"peak_c":35.34,"dose":22.2},"delta_mean_c":-0.08,"delta_dose_pct":-12,"status_now":"bus","status_rec":"walk","reason":"Shortest route already under threshold (dose 25).","distance_mi":2.151}},{"type":"Feature","geometry":{"type":"Polygon","coordinates":[[[-81.397,28.5564],[-81.392667,28.5564],[-81.392667,28.561],[-81.397,28.561],[-81.397,28.5564]]]},"properties":{"block_id":"FIXTURE-0309","school_id":"sch_fixture_east","kids_est":22,"class":"green","shortest":{"len_m":3979.4,"mean_c":34.22,"peak_c":36.72,"dose":67.4},"coolest":{"len_m":4352.1,"mean_c":33.95,"peak_c":35.95,"dose":57.6},"delta_mean_c":-0.27,"delta_dose_pct":-15,"status_now":"bus","status_rec":"walk","reason":"Shortest route already under threshold (dose 67).","distance_mi":1.978}},{"type":"Feature","geometry":{"type":"Polygon","coordinates":[[[-81.392667,28.5564],[-81.388333,28.5564],[-81.388333,28.561],[-81.392667,28.561],[-81.392667,28.5564]]]},"properties":{"block_id":"FIXTURE-0409","school_id":"sch_fixture_east","kids_est":17,"class":"green","shortest":{"len_m":3515.3,"mean_c":35.5,"peak_c":38.0,"dose":122.1},"coolest":{"len_m":4391.5,"mean_c":33.67,"peak_c":35.67,"dose":41.0},"delta_mean_c":-1.83,"delta_dose_pct":-66,"status_now":"bus","status_rec":"walk","reason":"Shortest route already under threshold (dose 122).","distance_mi":1.747}},{"type":"Feature","geometry":{"type":"Polygon","coordinates":[[[-81.388333,28.5564],[-81.384,28.5564],[-81.384,28.561],[-81.388333,28.561],[-81.388333,28.5564]]]},"properties":{"block_id":"FIXTURE-0509","school_id":"sch_fixture_east","kids_est":17,"class":"green","shortest":{"len_m":3072.5,"mean_c":36.13,"peak_c":38.63,"dose":133.6},"coolest":{"len_m":3822.6,"mean_c":33.89,"peak_c":35.89,"dose":47.1},"delta_mean_c":-2.24,"delta_dose_pct":-65,"status_now":"bus","status_rec":"walk","reason":"Shortest route already under threshold (dose 134).","distance_mi":1.527}},{"type":"Feature","geometry":{"type":"Polygon","coordinates":[[[-81.384,28.5564],[-81.379667,28.5564],[-81.379667,28.561],[-81.384,28.561],[-81.384,28.5564]]]},"properties":{"block_id":"FIXTURE-0609","school_id":"sch_fixture_east","kids_est":19,"class":"green","shortest":{"len_m":2661.4,"mean_c":36.85,"peak_c":39.35,"dose":142.3},"coolest":{"len_m":3314.8,"mean_c":34.08,"peak_c":36.08,"dose":49.6},"delta_mean_c":-2.77,"delta_dose_pct":-65,"status_now":"walk","status_rec":"walk","reason":"Shortest route already under threshold (dose 142).","distance_mi":1.323}},{"type":"Feature","geometry":{"type":"Polygon","coordinates":[[[-81.379667,28.5564],[-81.375333,28.5564],[-81.375333,28.561],[-81.379667,28.561],[-81.379667,28.5564]]]},"properties":{"block_id":"FIXTURE-0709","school_id":"sch_fixture_east","kids_est":35,"class":"green","shortest":{"len_m":2299.6,"mean_c":38.89,"peak_c":41.39,"dose":188.1},"coolest":{"len_m":2831.9,"mean_c":34.89,"peak_c":36.89,"dose":74.3},"delta_mean_c":-4.0,"delta_dose_pct":-60,"status_now":"walk","status_rec":"walk","reason":"Shortest route already under threshold (dose 188).","distance_mi":1.143}},{"type":"Feature","geometry":{"type":"Polygon","coordinates":[[[-81.375333,28.5564],[-81.371,28.5564],[-81.371,28.561],[-81.375333,28.561],[-81.375333,28.5564]]]},"properties":{"block_id":"FIXTURE-0809","school_id":"sch_fixture_east","kids_est":25,"class":"green","shortest":{"len_m":2013.4,"mean_c":38.65,"peak_c":41.15,"dose":158.0},"coolest":{"len_m":2476.8,"mean_c":34.83,"peak_c":36.83,"dose":63.1},"delta_mean_c":-3.82,"delta_dose_pct":-60,"status_now":"walk","status_rec":"walk","reason":"Shortest route already under threshold (dose 158).","distance_mi":1.001}},{"type":"Feature","geometry":{"type":"Polygon","coordinates":[[[-81.371,28.5564],[-81.366667,28.5564],[-81.366667,28.561],[-81.371,28.561],[-81.371,28.5564]]]},"properties":{"block_id":"FIXTURE-0909","school_id":"sch_fixture_east","kids_est":33,"class":"green","shortest":{"len_m":1838.6,"mean_c":41.45,"peak_c":43.95,"dose":215.8},"coolest":{"len_m":2065.4,"mean_c":38.68,"peak_c":40.68,"dose":163.0},"delta_mean_c":-2.77,"delta_dose_pct":-24,"status_now":"walk","status_rec":"walk","reason":"Shortest route already under threshold (dose 216).","distance_mi":0.914}},{"type":"Feature","geometry":{"type":"Polygon","coordinates":[[[-81.366667,28.5564],[-81.362333,28.5564],[-81.362333,28.561],[-81.366667,28.561],[-81.366667,28.5564]]]},"properties":{"block_id":"FIXTURE-1009","school_id":"sch_fixture_east","kids_est":12,"class":"yellow","shortest":{"len_m":1807.8,"mean_c":42.3,"peak_c":44.8,"dose":233.5},"coolest":{"len_m":2019.9,"mean_c":39.46,"peak_c":41.46,"dose":181.1},"delta_mean_c":-2.84,"delta_dose_pct":-22,"status_now":"walk","status_rec":"reroute","reason":"Shortest route exceeds threshold, but coolest route mean 39.5C stays under it (dose 181).","distance_mi":0.899}},{"type":"Feature","geometry":{"type":"Polygon","coordinates":[[[-81.362333,28.5564],[-81.358,28.5564],[-81.358,28.561],[-81.362333,28.561],[-81.362333,28.5564]]]},"properties":{"block_id":"FIXTURE-1109","school_id":"sch_fixture_east","kids_est":7,"class":"red","shortest":{"len_m":1928.0,"mean_c":42.93,"peak_c":45.43,"dose":265.9},"coolest":{"len_m":2123.1,"mean_c":40.48,"peak_c":42.48,"dose":220.5},"delta_mean_c":-2.45,"delta_dose_pct":-17,"status_now":"walk","status_rec":"bus_eligible","reason":"Coolest route mean 40.5C exceeds threshold (220 C-min dose, actual 220).","distance_mi":0.958}}]}