{"type":"FeatureCollection","features":[{"type":"Feature","geometry":{"type":"Polygon","coordinates":[[[-81.3893,28.6078],[-81.3806,28.6078],[-81.3806,28.62115],[-81.3893,28.62115],[-81.3893,28.6078]]]},"properties":{"block_id":"120951240001006","school_id":"sch_hungerford_elementary","kids_est":36,"class":"green","shortest":{"len_m":495.5,"mean_c":37.87,"peak_c":39.07,"dose":33.5},"coolest":{"len_m":547.6,"mean_c":36.59,"peak_c":37.59,"dose":27.3},"delta_mean_c":-1.28,"delta_dose_pct":-19,"distance_mi":0.246,"status_now":"walk","status_rec":"walk","reason":"Shortest route already under threshold (dose 34).","safe_until_hour":null}},{"type":"Feature","geometry":{"type":"Polygon","coordinates":[[[-81.3806,28.6078],[-81.3719,28.6078],[-81.3719,28.62115],[-81.3806,28.62115],[-81.3806,28.6078]]]},"properties":{"block_id":"120951241001006","school_id":"sch_hungerford_elementary","kids_est":32,"class":"green","shortest":{"len_m":567.3,"mean_c":37.54,"peak_c":38.74,"dose":35.8},"coolest":{"len_m":626.7,"mean_c":36.37,"peak_c":37.37,"dose":29.3},"delta_mean_c":-1.17,"delta_dose_pct":-18,"distance_mi":0.282,"status_now":"walk","status_rec":"walk","reason":"Shortest route already under threshold (dose 36).","safe_until_hour":null}},{"type":"Feature","geometry":{"type":"Polygon","coordinates":[[[-81.398,28.62115],[-81.3893,28.62115],[-81.3893,28.6345],[-81.398,28.6345],[-81.398,28.62115]]]},"properties":{"block_id":"120951239001007","school_id":"sch_hungerford_elementary","kids_est":35,"class":"yellow","shortest":{"len_m":2417.0,"mean_c":37.15,"peak_c":38.35,"dose":139.3},"coolest":{"len_m":3036.6,"mean_c":34.03,"peak_c":35.03,"dose":43.5},"delta_mean_c":-3.12,"delta_dose_pct":-69,"distance_mi":1.202,"status_now":"walk","status_rec":"reroute","reason":"Shortest route exceeds threshold, but coolest route mean 34.0C stays under it (dose 44).","safe_until_hour":null}},{"type":"Feature","geometry":{"type":"Polygon","coordinates":[[[-81.3893,28.62115],[-81.3806,28.62115],[-81.3806,28.6345],[-81.3893,28.6345],[-81.3893,28.62115]]]},"properties":{"block_id":"120951240001007","school_id":"sch_hungerford_elementary","kids_est":9,"class":"yellow","shortest":{"len_m":1913.1,"mean_c":37.83,"peak_c":39.03,"dose":128.3},"coolest":{"len_m":2129.5,"mean_c":36.43,"peak_c":37.43,"dose":101.3},"delta_mean_c":-1.4,"delta_dose_pct":-21,"distance_mi":0.951,"status_now":"walk","status_rec":"reroute","reason":"Shortest route exceeds threshold, but coolest route mean 36.4C stays under it (dose 101).","safe_until_hour":null}},{"type":"Feature","geometry":{"type":"Polygon","coordinates":[[[-81.3806,28.62115],[-81.3719,28.62115],[-81.3719,28.6345],[-81.3806,28.6345],[-81.3806,28.62115]]]},"properties":{"block_id":"120951241001007","school_id":"sch_hungerford_elementary","kids_est":44,"class":"red","shortest":{"len_m":1932.9,"mean_c":38.15,"peak_c":39.35,"dose":138.3},"coolest":{"len_m":2131.1,"mean_c":36.85,"peak_c":37.85,"dose":114.1},"delta_mean_c":-1.3,"delta_dose_pct":-17,"distance_mi":0.961,"status_now":"walk","status_rec":"bus_eligible","reason":"Coolest route mean 36.9C exceeds threshold (110 C-min dose, actual 114).","safe_until_hour":"14:00"}},{"type":"Feature","geometry":{"type":"Polygon","coordinates":[[[-81.3893,28.6345],[-81.3806,28.6345],[-81.3806,28.64785],[-81.3893,28.64785],[-81.3893,28.6345]]]},"properties":{"block_id":"120951240001008","school_id":"sch_hungerford_elementary","kids_est":29,"class":"red","shortest":{"len_m":3725.5,"mean_c":37.88,"peak_c":39.08,"dose":252.5},"coolest":{"len_m":4186.2,"mean_c":36.28,"peak_c":37.28,"dose":190.5},"delta_mean_c":-1.6,"delta_dose_pct":-25,"distance_mi":1.852,"status_now":"walk","status_rec":"bus_eligible","reason":"Coolest route mean 36.3C exceeds threshold (110 C-min dose, actual 190).","safe_until_hour":"10:00"}},{"type":"Feature","geometry":{"type":"Polygon","coordinates":[[[-81.3806,28.6345],[-81.3719,28.6345],[-81.3719,28.64785],[-81.3806,28.64785],[-81.3806,28.6345]]]},"properties":{"block_id":"120951241001008","school_id":"sch_hungerford_elementary","kids_est":12,"class":"red","shortest":{"len_m":3735.8,"mean_c":37.74,"peak_c":38.94,"dose":245.9},"coolest":{"len_m":4184.6,"mean_c":36.24,"peak_c":37.24,"dose":188.4},"delta_mean_c":-1.5,"delta_dose_pct":-23,"distance_mi":1.857,"status_now":"walk","status_rec":"bus_eligible","reason":"Coolest route mean 36.2C exceeds threshold (110 C-min dose, actual 188).","safe_until_hour":"09:00"}}]}