{"type":"FeatureCollection","features":[{"type":"Feature","geometry":{"type":"Polygon","coordinates":[[[-81.4241,28.5544],[-81.4154,28.5544],[-81.4154,28.56775],[-81.4241,28.56775],[-81.4241,28.5544]]]},"properties":{"block_id":"120951236001002","school_id":"sch_orlando_science_elementary_charter","kids_est":35,"class":"green","shortest":{"len_m":1061.0,"mean_c":36.73,"peak_c":37.93,"dose":55.0},"coolest":{"len_m":1330.1,"mean_c":33.96,"peak_c":34.96,"dose":17.7},"delta_mean_c":-2.77,"delta_dose_pct":-68,"distance_mi":0.527,"status_now":"walk","status_rec":"walk","reason":"Shortest route already under threshold (dose 55).","safe_until_hour":null}},{"type":"Feature","geometry":{"type":"Polygon","coordinates":[[[-81.4154,28.5544],[-81.4067,28.5544],[-81.4067,28.56775],[-81.4154,28.56775],[-81.4154,28.5544]]]},"properties":{"block_id":"120951237001002","school_id":"sch_orlando_science_elementary_charter","kids_est":35,"class":"green","shortest":{"len_m":711.4,"mean_c":36.51,"peak_c":37.71,"dose":34.7},"coolest":{"len_m":882.4,"mean_c":34.04,"peak_c":35.04,"dose":12.7},"delta_mean_c":-2.47,"delta_dose_pct":-63,"distance_mi":0.354,"status_now":"walk","status_rec":"walk","reason":"Shortest route already under threshold (dose 35).","safe_until_hour":null}},{"type":"Feature","geometry":{"type":"Polygon","coordinates":[[[-81.4067,28.5544],[-81.398,28.5544],[-81.398,28.56775],[-81.4067,28.56775],[-81.4067,28.5544]]]},"properties":{"block_id":"120951238001002","school_id":"sch_orlando_science_elementary_charter","kids_est":44,"class":"green","shortest":{"len_m":1465.5,"mean_c":36.57,"peak_c":37.77,"dose":72.7},"coolest":{"len_m":1829.3,"mean_c":33.97,"peak_c":34.97,"dose":24.7},"delta_mean_c":-2.6,"delta_dose_pct":-66,"distance_mi":0.728,"status_now":"walk","status_rec":"walk","reason":"Shortest route already under threshold (dose 73).","safe_until_hour":null}}]}