{"type":"FeatureCollection","features":[{"type":"Feature","geometry":{"type":"Polygon","coordinates":[[[-81.4589,28.6078],[-81.4502,28.6078],[-81.4502,28.62115],[-81.4589,28.62115],[-81.4589,28.6078]]]},"properties":{"block_id":"120951232001006","school_id":"sch_lockhart_elementary","kids_est":20,"class":"green","shortest":{"len_m":1987.8,"mean_c":34.92,"peak_c":36.12,"dose":53.0},"coolest":{"len_m":2149.8,"mean_c":34.59,"peak_c":35.59,"dose":47.4},"delta_mean_c":-0.33,"delta_dose_pct":-11,"distance_mi":0.988,"status_now":"walk","status_rec":"walk","reason":"Shortest route already under threshold (dose 53).","safe_until_hour":null}},{"type":"Feature","geometry":{"type":"Polygon","coordinates":[[[-81.4502,28.6078],[-81.4415,28.6078],[-81.4415,28.62115],[-81.4502,28.62115],[-81.4502,28.6078]]]},"properties":{"block_id":"120951233001006","school_id":"sch_lockhart_elementary","kids_est":30,"class":"green","shortest":{"len_m":1384.6,"mean_c":35.67,"peak_c":36.87,"dose":51.3},"coolest":{"len_m":1515.9,"mean_c":35.07,"peak_c":36.07,"dose":43.6},"delta_mean_c":-0.6,"delta_dose_pct":-15,"distance_mi":0.688,"status_now":"walk","status_rec":"walk","reason":"Shortest route already under threshold (dose 51).","safe_until_hour":null}},{"type":"Feature","geometry":{"type":"Polygon","coordinates":[[[-81.4415,28.6078],[-81.4328,28.6078],[-81.4328,28.62115],[-81.4415,28.62115],[-81.4415,28.6078]]]},"properties":{"block_id":"120951234001006","school_id":"sch_lockhart_elementary","kids_est":5,"class":"green","shortest":{"len_m":1463.4,"mean_c":35.75,"peak_c":36.95,"dose":55.9},"coolest":{"len_m":1835.8,"mean_c":33.7,"peak_c":34.7,"dose":17.8},"delta_mean_c":-2.05,"delta_dose_pct":-68,"distance_mi":0.727,"status_now":"walk","status_rec":"walk","reason":"Shortest route already under threshold (dose 56).","safe_until_hour":null}},{"type":"Feature","geometry":{"type":"Polygon","coordinates":[[[-81.4589,28.62115],[-81.4502,28.62115],[-81.4502,28.6345],[-81.4589,28.6345],[-81.4589,28.62115]]]},"properties":{"block_id":"120951232001007","school_id":"sch_lockhart_elementary","kids_est":12,"class":"green","shortest":{"len_m":1579.0,"mean_c":35.12,"peak_c":36.32,"dose":46.5},"coolest":{"len_m":1745.9,"mean_c":34.56,"peak_c":35.56,"dose":37.9},"delta_mean_c":-0.56,"delta_dose_pct":-18,"distance_mi":0.785,"status_now":"walk","status_rec":"walk","reason":"Shortest route already under threshold (dose 46).","safe_until_hour":null}},{"type":"Feature","geometry":{"type":"Polygon","coordinates":[[[-81.4502,28.62115],[-81.4415,28.62115],[-81.4415,28.6345],[-81.4502,28.6345],[-81.4502,28.62115]]]},"properties":{"block_id":"120951233001007","school_id":"sch_lockhart_elementary","kids_est":29,"class":"green","shortest":{"len_m":677.6,"mean_c":35.65,"peak_c":36.85,"dose":24.9},"coolest":{"len_m":738.5,"mean_c":35.11,"peak_c":36.11,"dose":21.6},"delta_mean_c":-0.54,"delta_dose_pct":-13,"distance_mi":0.337,"status_now":"walk","status_rec":"walk","reason":"Shortest route already under threshold (dose 25).","safe_until_hour":null}},{"type":"Feature","geometry":{"type":"Polygon","coordinates":[[[-81.4415,28.62115],[-81.4328,28.62115],[-81.4328,28.6345],[-81.4415,28.6345],[-81.4415,28.62115]]]},"properties":{"block_id":"120951234001007","school_id":"sch_lockhart_elementary","kids_est":34,"class":"green","shortest":{"len_m":826.7,"mean_c":35.53,"peak_c":36.73,"dose":29.0},"coolest":{"len_m":1040.0,"mean_c":33.62,"peak_c":34.62,"dose":8.9},"delta_mean_c":-1.91,"delta_dose_pct":-69,"distance_mi":0.411,"status_now":"walk","status_rec":"walk","reason":"Shortest route already under threshold (dose 29).","safe_until_hour":null}},{"type":"Feature","geometry":{"type":"Polygon","coordinates":[[[-81.4502,28.6345],[-81.4415,28.6345],[-81.4415,28.64785],[-81.4502,28.64785],[-81.4502,28.6345]]]},"properties":{"block_id":"120951233001008","school_id":"sch_lockhart_elementary","kids_est":22,"class":"green","shortest":{"len_m":2409.7,"mean_c":35.3,"peak_c":36.5,"dose":77.0},"coolest":{"len_m":2637.8,"mean_c":34.79,"peak_c":35.79,"dose":65.5},"delta_mean_c":-0.51,"delta_dose_pct":-15,"distance_mi":1.198,"status_now":"walk","status_rec":"walk","reason":"Shortest route already under threshold (dose 77).","safe_until_hour":null}}]}