{"type":"FeatureCollection","features":[{"type":"Feature","geometry":{"type":"Polygon","coordinates":[[[-81.4328,28.62115],[-81.4241,28.62115],[-81.4241,28.6345],[-81.4328,28.6345],[-81.4328,28.62115]]]},"properties":{"block_id":"120951235001007","school_id":"sch_riverside_elementary","kids_est":15,"class":"green","shortest":{"len_m":1165.6,"mean_c":35.51,"peak_c":36.71,"dose":40.6},"coolest":{"len_m":1439.8,"mean_c":33.78,"peak_c":34.78,"dose":15.5},"delta_mean_c":-1.73,"delta_dose_pct":-62,"distance_mi":0.579,"status_now":"walk","status_rec":"walk","reason":"Shortest route already under threshold (dose 41).","safe_until_hour":null}},{"type":"Feature","geometry":{"type":"Polygon","coordinates":[[[-81.4241,28.62115],[-81.4154,28.62115],[-81.4154,28.6345],[-81.4241,28.6345],[-81.4241,28.62115]]]},"properties":{"block_id":"120951236001007","school_id":"sch_riverside_elementary","kids_est":34,"class":"green","shortest":{"len_m":785.7,"mean_c":36.47,"peak_c":37.67,"dose":37.9},"coolest":{"len_m":980.0,"mean_c":33.96,"peak_c":34.96,"dose":13.0},"delta_mean_c":-2.51,"delta_dose_pct":-66,"distance_mi":0.391,"status_now":"walk","status_rec":"walk","reason":"Shortest route already under threshold (dose 38).","safe_until_hour":null}},{"type":"Feature","geometry":{"type":"Polygon","coordinates":[[[-81.4154,28.62115],[-81.4067,28.62115],[-81.4067,28.6345],[-81.4154,28.6345],[-81.4154,28.62115]]]},"properties":{"block_id":"120951237001007","school_id":"sch_riverside_elementary","kids_est":26,"class":"green","shortest":{"len_m":1460.9,"mean_c":37.36,"peak_c":38.56,"dose":88.5},"coolest":{"len_m":1799.7,"mean_c":34.39,"peak_c":35.39,"dose":34.8},"delta_mean_c":-2.97,"delta_dose_pct":-61,"distance_mi":0.726,"status_now":"walk","status_rec":"walk","reason":"Shortest route already under threshold (dose 88).","safe_until_hour":null}},{"type":"Feature","geometry":{"type":"Polygon","coordinates":[[[-81.4067,28.62115],[-81.398,28.62115],[-81.398,28.6345],[-81.4067,28.6345],[-81.4067,28.62115]]]},"properties":{"block_id":"120951238001007","school_id":"sch_riverside_elementary","kids_est":38,"class":"yellow","shortest":{"len_m":2430.9,"mean_c":37.49,"peak_c":38.69,"dose":151.6},"coolest":{"len_m":2993.3,"mean_c":34.44,"peak_c":35.44,"dose":59.9},"delta_mean_c":-3.05,"delta_dose_pct":-60,"distance_mi":1.208,"status_now":"walk","status_rec":"reroute","reason":"Shortest route exceeds threshold, but coolest route mean 34.4C stays under it (dose 60).","safe_until_hour":null}},{"type":"Feature","geometry":{"type":"Polygon","coordinates":[[[-81.4328,28.6345],[-81.4241,28.6345],[-81.4241,28.64785],[-81.4328,28.64785],[-81.4328,28.6345]]]},"properties":{"block_id":"120951235001008","school_id":"sch_riverside_elementary","kids_est":30,"class":"green","shortest":{"len_m":1393.5,"mean_c":36.7,"peak_c":37.9,"dose":71.6},"coolest":{"len_m":1746.3,"mean_c":33.95,"peak_c":34.95,"dose":23.1},"delta_mean_c":-2.75,"delta_dose_pct":-68,"distance_mi":0.693,"status_now":"walk","status_rec":"walk","reason":"Shortest route already under threshold (dose 72).","safe_until_hour":null}},{"type":"Feature","geometry":{"type":"Polygon","coordinates":[[[-81.4241,28.6345],[-81.4154,28.6345],[-81.4154,28.64785],[-81.4241,28.64785],[-81.4241,28.6345]]]},"properties":{"block_id":"120951236001008","school_id":"sch_riverside_elementary","kids_est":6,"class":"green","shortest":{"len_m":1095.7,"mean_c":36.34,"peak_c":37.54,"dose":50.8},"coolest":{"len_m":1368.0,"mean_c":33.91,"peak_c":34.91,"dose":17.2},"delta_mean_c":-2.43,"delta_dose_pct":-66,"distance_mi":0.545,"status_now":"walk","status_rec":"walk","reason":"Shortest route already under threshold (dose 51).","safe_until_hour":null}},{"type":"Feature","geometry":{"type":"Polygon","coordinates":[[[-81.4154,28.6345],[-81.4067,28.6345],[-81.4067,28.64785],[-81.4154,28.64785],[-81.4154,28.6345]]]},"properties":{"block_id":"120951237001008","school_id":"sch_riverside_elementary","kids_est":12,"class":"green","shortest":{"len_m":1648.4,"mean_c":36.23,"peak_c":37.43,"dose":73.9},"coolest":{"len_m":2075.9,"mean_c":33.77,"peak_c":34.77,"dose":22.3},"delta_mean_c":-2.46,"delta_dose_pct":-70,"distance_mi":0.819,"status_now":"walk","status_rec":"walk","reason":"Shortest route already under threshold (dose 74).","safe_until_hour":null}},{"type":"Feature","geometry":{"type":"Polygon","coordinates":[[[-81.4067,28.6345],[-81.398,28.6345],[-81.398,28.64785],[-81.4067,28.64785],[-81.4067,28.6345]]]},"properties":{"block_id":"120951238001008","school_id":"sch_riverside_elementary","kids_est":42,"class":"yellow","shortest":{"len_m":2547.9,"mean_c":36.65,"peak_c":37.85,"dose":129.2},"coolest":{"len_m":3165.4,"mean_c":34.05,"peak_c":35.05,"dose":46.3},"delta_mean_c":-2.6,"delta_dose_pct":-64,"distance_mi":1.267,"status_now":"walk","status_rec":"reroute","reason":"Shortest route exceeds threshold, but coolest route mean 34.0C stays under it (dose 46).","safe_until_hour":null}}]}