{"type":"FeatureCollection","features":[{"type":"Feature","geometry":{"type":"Polygon","coordinates":[[[-81.4763,28.5722],[-81.47195,28.5722],[-81.47195,28.57665],[-81.4763,28.57665],[-81.4763,28.5722]]]},"properties":{"block_id":"FIXTURE-0000","school_id":"sch_ridgewood_park_elementary","kids_est":19,"class":"green","shortest":{"len_m":2129.1,"mean_c":35.01,"peak_c":36.21,"dose":59.4},"coolest":{"len_m":2360.4,"mean_c":34.46,"peak_c":35.46,"dose":47.8},"delta_mean_c":-0.55,"delta_dose_pct":-20,"distance_mi":1.058,"status_now":"walk","status_rec":"walk","reason":"Shortest route already under threshold (dose 59).","safe_until_hour":null}},{"type":"Feature","geometry":{"type":"Polygon","coordinates":[[[-81.4763,28.57665],[-81.47195,28.57665],[-81.47195,28.5811],[-81.4763,28.5811],[-81.4763,28.57665]]]},"properties":{"block_id":"FIXTURE-0001","school_id":"sch_ridgewood_park_elementary","kids_est":6,"class":"green","shortest":{"len_m":1710.6,"mean_c":34.63,"peak_c":35.83,"dose":38.7},"coolest":{"len_m":1858.9,"mean_c":34.32,"peak_c":35.32,"dose":34.0},"delta_mean_c":-0.31,"delta_dose_pct":-12,"distance_mi":0.85,"status_now":"walk","status_rec":"walk","reason":"Shortest route already under threshold (dose 39).","safe_until_hour":null}},{"type":"Feature","geometry":{"type":"Polygon","coordinates":[[[-81.47195,28.57665],[-81.4676,28.57665],[-81.4676,28.5811],[-81.47195,28.5811],[-81.47195,28.57665]]]},"properties":{"block_id":"FIXTURE-0101","school_id":"sch_ridgewood_park_elementary","kids_est":28,"class":"green","shortest":{"len_m":1316.3,"mean_c":34.5,"peak_c":35.7,"dose":27.4},"coolest":{"len_m":1443.9,"mean_c":34.15,"peak_c":35.15,"dose":23.1},"delta_mean_c":-0.35,"delta_dose_pct":-16,"distance_mi":0.654,"status_now":"walk","status_rec":"walk","reason":"Shortest route already under threshold (dose 27).","safe_until_hour":null}},{"type":"Feature","geometry":{"type":"Polygon","coordinates":[[[-81.4676,28.57665],[-81.46325,28.57665],[-81.46325,28.5811],[-81.4676,28.5811],[-81.4676,28.57665]]]},"properties":{"block_id":"FIXTURE-0201","school_id":"sch_ridgewood_park_elementary","kids_est":24,"class":"green","shortest":{"len_m":1050.8,"mean_c":35.49,"peak_c":36.69,"dose":36.3},"coolest":{"len_m":1162.1,"mean_c":34.83,"peak_c":35.83,"dose":29.5},"delta_mean_c":-0.66,"delta_dose_pct":-19,"distance_mi":0.522,"status_now":"walk","status_rec":"walk","reason":"Shortest route already under threshold (dose 36).","safe_until_hour":null}},{"type":"Feature","geometry":{"type":"Polygon","coordinates":[[[-81.4763,28.5811],[-81.47195,28.5811],[-81.47195,28.58555],[-81.4763,28.58555],[-81.4763,28.5811]]]},"properties":{"block_id":"FIXTURE-0002","school_id":"sch_ridgewood_park_elementary","kids_est":7,"class":"green","shortest":{"len_m":1440.6,"mean_c":34.31,"peak_c":35.51,"dose":26.2},"coolest":{"len_m":1567.1,"mean_c":34.05,"peak_c":35.05,"dose":22.9},"delta_mean_c":-0.26,"delta_dose_pct":-13,"distance_mi":0.716,"status_now":"walk","status_rec":"walk","reason":"Shortest route already under threshold (dose 26).","safe_until_hour":null}},{"type":"Feature","geometry":{"type":"Polygon","coordinates":[[[-81.47195,28.5811],[-81.4676,28.5811],[-81.4676,28.58555],[-81.47195,28.58555],[-81.47195,28.5811]]]},"properties":{"block_id":"FIXTURE-0102","school_id":"sch_ridgewood_park_elementary","kids_est":14,"class":"green","shortest":{"len_m":939.1,"mean_c":34.61,"peak_c":35.81,"dose":21.0},"coolest":{"len_m":1034.6,"mean_c":34.21,"peak_c":35.21,"dose":17.4},"delta_mean_c":-0.4,"delta_dose_pct":-17,"distance_mi":0.467,"status_now":"walk","status_rec":"walk","reason":"Shortest route already under threshold (dose 21).","safe_until_hour":null}},{"type":"Feature","geometry":{"type":"Polygon","coordinates":[[[-81.4676,28.5811],[-81.46325,28.5811],[-81.46325,28.58555],[-81.4676,28.58555],[-81.4676,28.5811]]]},"properties":{"block_id":"FIXTURE-0202","school_id":"sch_ridgewood_park_elementary","kids_est":35,"class":"green","shortest":{"len_m":503.5,"mean_c":35.13,"peak_c":36.33,"dose":14.9},"coolest":{"len_m":553.4,"mean_c":34.63,"peak_c":35.63,"dose":12.5},"delta_mean_c":-0.5,"delta_dose_pct":-16,"distance_mi":0.25,"status_now":"walk","status_rec":"walk","reason":"Shortest route already under threshold (dose 15).","safe_until_hour":null}},{"type":"Feature","geometry":{"type":"Polygon","coordinates":[[[-81.46325,28.5811],[-81.4589,28.5811],[-81.4589,28.58555],[-81.46325,28.58555],[-81.46325,28.5811]]]},"properties":{"block_id":"FIXTURE-0302","school_id":"sch_ridgewood_park_elementary","kids_est":5,"class":"green","shortest":{"len_m":436.1,"mean_c":35.53,"peak_c":36.73,"dose":15.3},"coolest":{"len_m":477.4,"mean_c":34.96,"peak_c":35.96,"dose":13.0},"delta_mean_c":-0.57,"delta_dose_pct":-15,"distance_mi":0.217,"status_now":"walk","status_rec":"walk","reason":"Shortest route already under threshold (dose 15).","safe_until_hour":null}},{"type":"Feature","geometry":{"type":"Polygon","coordinates":[[[-81.4589,28.5811],[-81.45455,28.5811],[-81.45455,28.58555],[-81.4589,28.58555],[-81.4589,28.5811]]]},"properties":{"block_id":"FIXTURE-0402","school_id":"sch_ridgewood_park_elementary","kids_est":42,"class":"green","shortest":{"len_m":831.7,"mean_c":35.82,"peak_c":37.02,"dose":32.6},"coolest":{"len_m":1037.3,"mean_c":33.78,"peak_c":34.78,"dose":11.2},"delta_mean_c":-2.04,"delta_dose_pct":-66,"distance_mi":0.413,"status_now":"walk","status_rec":"walk","reason":"Shortest route already under threshold (dose 33).","safe_until_hour":null}},{"type":"Feature","geometry":{"type":"Polygon","coordinates":[[[-81.4763,28.58555],[-81.47195,28.58555],[-81.47195,28.59],[-81.4763,28.59],[-81.4763,28.58555]]]},"properties":{"block_id":"FIXTURE-0003","school_id":"sch_ridgewood_park_elementary","kids_est":37,"class":"green","shortest":{"len_m":1407.4,"mean_c":34.99,"peak_c":36.19,"dose":38.9},"coolest":{"len_m":1556.4,"mean_c":34.47,"peak_c":35.47,"dose":31.7},"delta_mean_c":-0.52,"delta_dose_pct":-19,"distance_mi":0.7,"status_now":"walk","status_rec":"walk","reason":"Shortest route already under threshold (dose 39).","safe_until_hour":null}},{"type":"Feature","geometry":{"type":"Polygon","coordinates":[[[-81.47195,28.58555],[-81.4676,28.58555],[-81.4676,28.59],[-81.47195,28.59],[-81.47195,28.58555]]]},"properties":{"block_id":"FIXTURE-0103","school_id":"sch_ridgewood_park_elementary","kids_est":36,"class":"green","shortest":{"len_m":887.4,"mean_c":34.67,"peak_c":35.87,"dose":20.6},"coolest":{"len_m":973.6,"mean_c":34.29,"peak_c":35.29,"dose":17.4},"delta_mean_c":-0.38,"delta_dose_pct":-16,"distance_mi":0.441,"status_now":"walk","status_rec":"walk","reason":"Shortest route already under threshold (dose 21).","safe_until_hour":null}},{"type":"Feature","geometry":{"type":"Polygon","coordinates":[[[-81.4676,28.58555],[-81.46325,28.58555],[-81.46325,28.59],[-81.4676,28.59],[-81.4676,28.58555]]]},"properties":{"block_id":"FIXTURE-0203","school_id":"sch_ridgewood_park_elementary","kids_est":21,"class":"green","shortest":{"len_m":398.8,"mean_c":34.86,"peak_c":36.06,"dose":10.3},"coolest":{"len_m":442.6,"mean_c":34.33,"peak_c":35.33,"dose":8.2},"delta_mean_c":-0.53,"delta_dose_pct":-20,"distance_mi":0.198,"status_now":"walk","status_rec":"walk","reason":"Shortest route already under threshold (dose 10).","safe_until_hour":null}},{"type":"Feature","geometry":{"type":"Polygon","coordinates":[[[-81.46325,28.58555],[-81.4589,28.58555],[-81.4589,28.59],[-81.46325,28.59],[-81.46325,28.58555]]]},"properties":{"block_id":"FIXTURE-0303","school_id":"sch_ridgewood_park_elementary","kids_est":43,"class":"green","shortest":{"len_m":309.3,"mean_c":34.9,"peak_c":36.1,"dose":8.2},"coolest":{"len_m":340.4,"mean_c":34.44,"peak_c":35.44,"dose":6.8},"delta_mean_c":-0.46,"delta_dose_pct":-17,"distance_mi":0.154,"status_now":"walk","status_rec":"walk","reason":"Shortest route already under threshold (dose 8).","safe_until_hour":null}},{"type":"Feature","geometry":{"type":"Polygon","coordinates":[[[-81.4589,28.58555],[-81.45455,28.58555],[-81.45455,28.59],[-81.4589,28.59],[-81.4589,28.58555]]]},"properties":{"block_id":"FIXTURE-0403","school_id":"sch_ridgewood_park_elementary","kids_est":6,"class":"green","shortest":{"len_m":772.8,"mean_c":36.21,"peak_c":37.41,"dose":34.5},"coolest":{"len_m":972.7,"mean_c":33.78,"peak_c":34.78,"dose":10.5},"delta_mean_c":-2.43,"delta_dose_pct":-70,"distance_mi":0.384,"status_now":"walk","status_rec":"walk","reason":"Shortest route already under threshold (dose 34).","safe_until_hour":null}}]}