{"type":"FeatureCollection","features":[{"type":"Feature","geometry":{"type":"Polygon","coordinates":[[[-81.4763,28.5544],[-81.4676,28.5544],[-81.4676,28.56775],[-81.4763,28.56775],[-81.4763,28.5544]]]},"properties":{"block_id":"120951230001002","school_id":"sch_robinswood_middle","kids_est":7,"class":"green","shortest":{"len_m":220.5,"mean_c":34.31,"peak_c":35.51,"dose":4.0},"coolest":{"len_m":239.9,"mean_c":34.05,"peak_c":35.05,"dose":3.5},"delta_mean_c":-0.26,"delta_dose_pct":-12,"distance_mi":0.11,"status_now":"walk","status_rec":"walk","reason":"Shortest route already under threshold (dose 4).","safe_until_hour":null}}]}