{"type":"FeatureCollection","features":[{"type":"Feature","geometry":{"type":"Polygon","coordinates":[[[-81.4415,28.6345],[-81.4328,28.6345],[-81.4328,28.64785],[-81.4415,28.64785],[-81.4415,28.6345]]]},"properties":{"block_id":"120951234001008","school_id":"sch_teague_middle_school","kids_est":32,"class":"green","shortest":{"len_m":2216.5,"mean_c":35.09,"peak_c":36.29,"dose":64.3},"coolest":{"len_m":2449.2,"mean_c":34.54,"peak_c":35.54,"dose":52.5},"delta_mean_c":-0.55,"delta_dose_pct":-18,"distance_mi":1.102,"status_now":"walk","status_rec":"walk","reason":"Shortest route already under threshold (dose 64).","safe_until_hour":null}},{"type":"Feature","geometry":{"type":"Polygon","coordinates":[[[-81.4589,28.64785],[-81.4502,28.64785],[-81.4502,28.6612],[-81.4589,28.6612],[-81.4589,28.64785]]]},"properties":{"block_id":"120951232001009","school_id":"sch_teague_middle_school","kids_est":26,"class":"green","shortest":{"len_m":2218.2,"mean_c":35.07,"peak_c":36.27,"dose":63.8},"coolest":{"len_m":2408.2,"mean_c":34.68,"peak_c":35.68,"dose":56.2},"delta_mean_c":-0.39,"delta_dose_pct":-12,"distance_mi":1.103,"status_now":"walk","status_rec":"walk","reason":"Shortest route already under threshold (dose 64).","safe_until_hour":null}},{"type":"Feature","geometry":{"type":"Polygon","coordinates":[[[-81.4502,28.64785],[-81.4415,28.64785],[-81.4415,28.6612],[-81.4502,28.6612],[-81.4502,28.64785]]]},"properties":{"block_id":"120951233001009","school_id":"sch_teague_middle_school","kids_est":22,"class":"green","shortest":{"len_m":1184.2,"mean_c":35.52,"peak_c":36.72,"dose":41.4},"coolest":{"len_m":1295.1,"mean_c":34.97,"peak_c":35.97,"dose":35.4},"delta_mean_c":-0.55,"delta_dose_pct":-14,"distance_mi":0.589,"status_now":"walk","status_rec":"walk","reason":"Shortest route already under threshold (dose 41).","safe_until_hour":null}},{"type":"Feature","geometry":{"type":"Polygon","coordinates":[[[-81.4415,28.64785],[-81.4328,28.64785],[-81.4328,28.6612],[-81.4415,28.6612],[-81.4415,28.64785]]]},"properties":{"block_id":"120951234001009","school_id":"sch_teague_middle_school","kids_est":17,"class":"green","shortest":{"len_m":376.2,"mean_c":35.64,"peak_c":36.84,"dose":13.8},"coolest":{"len_m":470.0,"mean_c":33.7,"peak_c":34.7,"dose":4.6},"delta_mean_c":-1.94,"delta_dose_pct":-67,"distance_mi":0.187,"status_now":"walk","status_rec":"walk","reason":"Shortest route already under threshold (dose 14).","safe_until_hour":null}},{"type":"Feature","geometry":{"type":"Polygon","coordinates":[[[-81.4328,28.64785],[-81.4241,28.64785],[-81.4241,28.6612],[-81.4328,28.6612],[-81.4328,28.64785]]]},"properties":{"block_id":"120951235001009","school_id":"sch_teague_middle_school","kids_est":17,"class":"green","shortest":{"len_m":1066.7,"mean_c":35.86,"peak_c":37.06,"dose":42.4},"coolest":{"len_m":1327.1,"mean_c":33.81,"peak_c":34.81,"dose":15.0},"delta_mean_c":-2.05,"delta_dose_pct":-65,"distance_mi":0.53,"status_now":"walk","status_rec":"walk","reason":"Shortest route already under threshold (dose 42).","safe_until_hour":null}}]}