{"type":"FeatureCollection","features":[{"type":"Feature","geometry":{"type":"Polygon","coordinates":[[[-81.482,28.5744],[-81.468,28.5744],[-81.468,28.594],[-81.482,28.594],[-81.482,28.5744]]]},"properties":{"block_id":"120951232001004","school_id":"sch_ridgewood_park_elementary","kids_est":18,"class":"green","shortest":{"len_m":1518.4,"mean_c":34.61,"peak_c":35.81,"dose":34.0},"coolest":{"len_m":1646.2,"mean_c":34.32,"peak_c":35.32,"dose":30.1},"delta_mean_c":-0.29,"delta_dose_pct":-11,"distance_mi":0.755,"status_now":"walk","status_rec":"walk","reason":"Shortest route already under threshold (dose 34).","safe_until_hour":null}},{"type":"Feature","geometry":{"type":"Polygon","coordinates":[[[-81.468,28.5744],[-81.454,28.5744],[-81.454,28.594],[-81.468,28.594],[-81.468,28.5744]]]},"properties":{"block_id":"120951233001004","school_id":"sch_ridgewood_park_elementary","kids_est":31,"class":"green","shortest":{"len_m":340.2,"mean_c":35.27,"peak_c":36.47,"dose":10.7},"coolest":{"len_m":377.1,"mean_c":34.64,"peak_c":35.64,"dose":8.6},"delta_mean_c":-0.63,"delta_dose_pct":-20,"distance_mi":0.169,"status_now":"walk","status_rec":"walk","reason":"Shortest route already under threshold (dose 11).","safe_until_hour":null}}]}