{"type":"FeatureCollection","features":[{"type":"Feature","geometry":{"type":"Polygon","coordinates":[[[-81.42009100034139,28.528184999772062],[-81.42006000037925,28.52697699982578],[-81.4199930004321,28.526977999809247],[-81.4189160003565,28.526975999842264],[-81.41881300042434,28.52698199974298],[-81.41860800038492,28.526980999759566],[-81.41843500013258,28.526968999957653],[-81.41830200006318,28.52695300021968],[-81.41810100022172,28.526915000043008],[-81.41800199958921,28.52689099963359],[-81.41795300008371,28.526876999852636],[-81.41790399967992,28.52685900013155],[-81.41791000042602,28.527022999844704],[-81.41790600022806,28.52752500039332],[-81.41791899974852,28.528410000337665],[-81.41804400032032,28.52840299975904],[-81.41978400019474,28.528222000308485],[-81.42009100034139,28.528184999772062]]]},"properties":{"block_id":"120950117013019","school_id":"sch_legends_academy_charter","kids_est":9,"class":"green","shortest":{"len_m":412.9,"mean_c":38.04,"peak_c":38.1,"dose":28.9},"coolest":{"len_m":413.5,"mean_c":38.04,"peak_c":38.1,"dose":28.8},"delta_mean_c":0.0,"delta_dose_pct":0,"distance_mi":0.229,"status_now":"walk","status_rec":"walk","reason":"Shortest route already under threshold (dose 29).","safe_until_hour":null}},{"type":"Feature","geometry":{"type":"Polygon","coordinates":[[[-81.4179870004189,28.534442000383564],[-81.41797300017521,28.53392699991845],[-81.41796800015233,28.533695999774793],[-81.41796399995438,28.533464999914028],[-81.41796099958131,28.533248999985805],[-81.4179589999315,28.533032999614836],[-81.4179580001066,28.532977999723713],[-81.41795599955846,28.53238599972371],[-81.41795499973354,28.531732000238144],[-81.416480000173,28.53175099985449],[-81.41594899972034,28.53176299990114],[-81.41414799974658,28.531801999846092],[-81.41384399997295,28.531824000051465],[-81.41395399957781,28.533195000131883],[-81.41397200001948,28.53345900038236],[-81.41402700027106,28.533685999787895],[-81.41406200043116,28.534273999930726],[-81.4140799999745,28.53450099994824],[-81.41491400037587,28.534510999857797],[-81.41538700020388,28.534498000211908],[-81.41604499997982,28.53448900021332],[-81.41622900010283,28.53448100012623],[-81.41664199965639,28.534461000300485],[-81.41710299978882,28.534456999861376],[-81.41721800031489,28.534455000036296],[-81.41754499965472,28.534449999684405],[-81.4179870004189,28.534442000383564]]]},"properties":{"block_id":"120950117021009","school_id":"sch_legends_academy_charter","kids_est":223,"class":"green","shortest":{"len_m":676.0,"mean_c":38.15,"peak_c":38.2,"dose":48.5},"coolest":{"len_m":676.0,"mean_c":38.15,"peak_c":38.2,"dose":48.5},"delta_mean_c":0.0,"delta_dose_pct":0,"distance_mi":0.335,"status_now":"walk","status_rec":"walk","reason":"Shortest route already under threshold (dose 48).","safe_until_hour":null}},{"type":"Feature","geometry":{"type":"Polygon","coordinates":[[[-81.41792499959632,28.528892999677065],[-81.4179229999465,28.528795999841943],[-81.41791999957344,28.52850599976982],[-81.41791899974852,28.528410000337665],[-81.41790600022806,28.52752500039332],[-81.41791000042602,28.527022999844704],[-81.41790399967992,28.52685900013155],[-81.41776200028801,28.52682099992099],[-81.41762199964762,28.526774999813927],[-81.4174869999284,28.526720999799835],[-81.41735499968391,28.526659999853013],[-81.41722699963739,28.52659199996125],[-81.41710500033697,28.526517000111014],[-81.41698800016111,28.526436000275943],[-81.41687699983304,28.526347999663514],[-81.41677300007596,28.526253999825137],[-81.41667500016666,28.52615499994661],[-81.41642200044667,28.525943000005746],[-81.41604499997982,28.526299000169665],[-81.41555600025828,28.52691100010672],[-81.41503999987424,28.527538000110077],[-81.41457899974179,28.528177999967752],[-81.41433100004468,28.528791000010735],[-81.41421100039408,28.528966000275222],[-81.41462200029781,28.528957999768856],[-81.41504900009507,28.528951000015883],[-81.41533899962498,28.52894600019208],[-81.41601499984259,28.52893599975446],[-81.41684099984802,28.528914999700497],[-81.41720599972099,28.5289069999795],[-81.41792499959632,28.528892999677065]]]},"properties":{"block_id":"120950117022008","school_id":"sch_legends_academy_charter","kids_est":0,"class":"green","shortest":{"len_m":218.6,"mean_c":38.07,"peak_c":38.1,"dose":15.4},"coolest":{"len_m":218.6,"mean_c":38.07,"peak_c":38.1,"dose":15.4},"delta_mean_c":0.0,"delta_dose_pct":0,"distance_mi":0.075,"status_now":"walk","status_rec":"walk","reason":"Shortest route already under threshold (dose 15).","safe_until_hour":null}},{"type":"Feature","geometry":{"type":"Polygon","coordinates":[[[-81.41794800006085,28.530901999990085],[-81.41793999966492,28.530027999950715],[-81.4179370001902,28.529800999768895],[-81.41792799996936,28.529120000236073],[-81.41792499959632,28.528892999677065],[-81.41720599972099,28.5289069999795],[-81.41684099984802,28.528914999700497],[-81.41601499984259,28.52893599975446],[-81.41533899962498,28.52894600019208],[-81.41504900009507,28.528951000015883],[-81.41462200029781,28.528957999768856],[-81.41421100039408,28.528966000275222],[-81.4140869996472,28.529170999922354],[-81.41392500016381,28.52981799982031],[-81.41386900008732,28.53007700007878],[-81.41383899995007,28.53025600038523],[-81.41374900043671,28.530774999638883],[-81.41374900043671,28.53098400028469],[-81.41473699992554,28.530920999756024],[-81.41536799993729,28.530881000327856],[-81.41794800006085,28.530901999990085]]]},"properties":{"block_id":"120950117022007","school_id":"sch_legends_academy_charter","kids_est":5,"class":"green","shortest":{"len_m":261.3,"mean_c":38.14,"peak_c":38.2,"dose":18.7},"coolest":{"len_m":261.3,"mean_c":38.14,"peak_c":38.2,"dose":18.7},"delta_mean_c":0.0,"delta_dose_pct":0,"distance_mi":0.122,"status_now":"walk","status_rec":"walk","reason":"Shortest route already under threshold (dose 19).","safe_until_hour":null}},{"type":"Feature","geometry":{"type":"Polygon","coordinates":[[[-81.41799200044179,28.53458099998737],[-81.41798999989365,28.53455300009892],[-81.4179870004189,28.534469000389088],[-81.4179870004189,28.534442000383564],[-81.41754499965472,28.534449999684405],[-81.41721800031489,28.534455000036296],[-81.41710299978882,28.534456999861376],[-81.41710500033697,28.534595000323357],[-81.41728199988898,28.53459199980055],[-81.41781400016656,28.53458299980999],[-81.41799200044179,28.53458099998737]]]},"properties":{"block_id":"120950117021010","school_id":"sch_legends_academy_charter","kids_est":0,"class":"green","shortest":{"len_m":945.8,"mean_c":38.04,"peak_c":38.1,"dose":66.4},"coolest":{"len_m":945.8,"mean_c":38.04,"peak_c":38.1,"dose":66.4},"delta_mean_c":0.0,"delta_dose_pct":0,"distance_mi":0.451,"status_now":"walk","status_rec":"walk","reason":"Shortest route already under threshold (dose 66).","safe_until_hour":null}},{"type":"Feature","geometry":{"type":"Polygon","coordinates":[[[-81.41710500033697,28.534595000323357],[-81.41710299978882,28.534456999861376],[-81.41664199965639,28.534461000300485],[-81.41622900010283,28.53448100012623],[-81.41623099975266,28.53458099998737],[-81.41640499982992,28.53458299980999],[-81.4169300004348,28.53459199980055],[-81.41710500033697,28.534595000323357]]]},"properties":{"block_id":"120950117021011","school_id":"sch_legends_academy_charter","kids_est":0,"class":"green","shortest":{"len_m":947.9,"mean_c":38.13,"peak_c":38.2,"dose":67.7},"coolest":{"len_m":947.9,"mean_c":38.13,"peak_c":38.2,"dose":67.7},"delta_mean_c":0.0,"delta_dose_pct":0,"distance_mi":0.438,"status_now":"walk","status_rec":"walk","reason":"Shortest route already under threshold (dose 68).","safe_until_hour":null}},{"type":"Feature","geometry":{"type":"Polygon","coordinates":[[[-81.41740099971467,28.521151999887493],[-81.41758400001277,28.520081000328574],[-81.41628600000425,28.519524000042956],[-81.41621800023218,28.51946199982347],[-81.40940299960116,28.52627900036967],[-81.40941600001996,28.527227000132775],[-81.40843600002874,28.52724699975283],[-81.40789500042865,28.52778799987569],[-81.40696399994293,28.5287200000145],[-81.40711299990585,28.528858000096683],[-81.40717599965504,28.528885999919765],[-81.4072500001732,28.52894600019208],[-81.40734399988453,28.528985000390215],[-81.40738999991528,28.52899200014094],[-81.40741199965659,28.52899599999825],[-81.4075179999618,28.528978999814246],[-81.40753700022839,28.528956999804183],[-81.40756800019051,28.528868999718025],[-81.40760599982535,28.528809000191142],[-81.40775499978827,28.52870399975307],[-81.40782400028355,28.528638000326136],[-81.4078979999034,28.528539000319064],[-81.40796700039868,28.528478999815068],[-81.4081099996155,28.528395999969213],[-81.40855900005239,28.52822600019502],[-81.40868999957364,28.528181999856002],[-81.40882099999321,28.52815399984589],[-81.40933200035437,28.52798399968141],[-81.40946200005071,28.527962000252906],[-81.40955599976205,28.527955999618705],[-81.40977400022025,28.527886999798948],[-81.40983600014452,28.527868000275333],[-81.41004200000886,28.52778599992413],[-81.4101790002762,28.527763999665044],[-81.4104470000648,28.52779099980301],[-81.41053400010343,28.52779099980301],[-81.4107769997777,28.527748000047755],[-81.41079400039443,28.52773500035689],[-81.4109330003116,28.527681000045416],[-81.41123200006236,28.527592999683197],[-81.4115810000418,28.527538000110077],[-81.41179299975391,28.527515999799235],[-81.41191699960248,28.527390000083017],[-81.41197299967897,28.527351000083957],[-81.41206100044084,28.527317999952075],[-81.41237199988714,28.52725199965728],[-81.41252199967496,28.52719699990624],[-81.41265899994234,28.527104000017893],[-81.41275199982874,28.527020999878562],[-81.41297000028693,28.526801000220033],[-81.41308900011263,28.52666399979888],[-81.41321999963388,28.526565000305432],[-81.41350599986416,28.526389000011832],[-81.4138049996149,28.526168999823465],[-81.41405499986014,28.52594899996521],[-81.4141920001275,28.525800000080277],[-81.41425999989956,28.525711999726177],[-81.41444700039563,28.525392999898585],[-81.4147400002986,28.52499099973563],[-81.41490199978197,28.52485900013709],[-81.41499600039164,28.52479899990616],[-81.41513299976066,28.524722000349037],[-81.41518899983716,28.52467200009397],[-81.41526400018023,28.524611999756637],[-81.41563099970304,28.524215999830613],[-81.4156499999696,28.524066999863955],[-81.41576799997038,28.523841000275365],[-81.41596799998692,28.523506000049746],[-81.41600499979685,28.523371000117326],[-81.4160859999877,28.523082000136796],[-81.41639800015723,28.52245999980736],[-81.41659800017378,28.52211899975193],[-81.41667900036464,28.521761999646337],[-81.41694600032832,28.521397999655928],[-81.4172829997139,28.521200000156885],[-81.41740099971467,28.521151999887493]]]},"properties":{"block_id":"120950117022023","school_id":"sch_legends_academy_charter","kids_est":0,"class":"green","shortest":{"len_m":107.1,"mean_c":38.11,"peak_c":38.2,"dose":7.7},"coolest":{"len_m":107.1,"mean_c":38.11,"peak_c":38.2,"dose":7.7},"delta_mean_c":0.0,"delta_dose_pct":0,"distance_mi":0.301,"status_now":"walk","status_rec":"walk","reason":"Shortest route already under threshold (dose 8).","safe_until_hour":null}},{"type":"Feature","geometry":{"type":"Polygon","coordinates":[[[-81.41604499997982,28.526299000169665],[-81.41642200044667,28.525943000005746],[-81.41513299976066,28.524722000349037],[-81.41499600039164,28.52479899990616],[-81.41490199978197,28.52485900013709],[-81.4147400002986,28.52499099973563],[-81.41444700039563,28.525392999898585],[-81.41425999989956,28.525711999726177],[-81.4141920001275,28.525800000080277],[-81.41405499986014,28.52594899996521],[-81.4138049996149,28.526168999823465],[-81.41350599986416,28.526389000011832],[-81.41321999963388,28.526565000305432],[-81.41308900011263,28.52666399979888],[-81.41297000028693,28.526801000220033],[-81.41275199982874,28.527020999878562],[-81.41265899994234,28.527104000017893],[-81.41252199967496,28.52719699990624],[-81.41237199988714,28.52725199965728],[-81.41206100044084,28.527317999952075],[-81.41197299967897,28.527351000083957],[-81.41191699960248,28.527390000083017],[-81.41179299975391,28.527515999799235],[-81.4115810000418,28.527538000110077],[-81.41123200006236,28.527592999683197],[-81.4109330003116,28.527681000045416],[-81.41079400039443,28.52773500035689],[-81.4107769997777,28.527748000047755],[-81.41053400010343,28.52779099980301],[-81.4104470000648,28.52779099980301],[-81.4101790002762,28.527763999665044],[-81.41004200000886,28.52778599992413],[-81.40983600014452,28.527868000275333],[-81.40977400022025,28.527886999798948],[-81.40955599976205,28.527955999618705],[-81.40946200005071,28.527962000252906],[-81.40933200035437,28.52798399968141],[-81.40882099999321,28.52815399984589],[-81.40868999957364,28.528181999856002],[-81.40855900005239,28.52822600019502],[-81.4081099996155,28.528395999969213],[-81.40796700039868,28.528478999815068],[-81.4078979999034,28.528539000319064],[-81.40782400028355,28.528638000326136],[-81.40775499978827,28.52870399975307],[-81.40760599982535,28.528809000191142],[-81.40756800019051,28.528868999718025],[-81.40753700022839,28.528956999804183],[-81.4075179999618,28.528978999814246],[-81.40741199965659,28.52899599999825],[-81.40738999991528,28.52899200014094],[-81.40734399988453,28.528985000390215],[-81.4072500001732,28.52894600019208],[-81.40717599965504,28.528885999919765],[-81.40711299990585,28.528858000096683],[-81.40709899966215,28.529593999851382],[-81.40726000021894,28.529576999763837],[-81.40732200014321,28.529567000175284],[-81.40739699958796,28.52955599983758],[-81.40744900036484,28.529549000124327],[-81.40771100030564,28.529473000050658],[-81.4078639995682,28.529417999880064],[-81.40797800026935,28.529369000234805],[-81.40817599973775,28.52929300003133],[-81.40837900012733,28.52922700018398],[-81.40858599981658,28.529172999847695],[-81.40882400036625,28.529126000014756],[-81.40899400024557,28.529104999998655],[-81.40916400012487,28.529091999685903],[-81.40979599996156,28.52908000012439],[-81.41041399955454,28.529068999735824],[-81.41042299977535,28.530028999905227],[-81.41043700001907,28.530966999632113],[-81.41138799969796,28.530946999928638],[-81.41294000014972,28.53097100020371],[-81.41374900043671,28.53098400028469],[-81.41374900043671,28.530774999638883],[-81.41383899995007,28.53025600038523],[-81.41386900008732,28.53007700007878],[-81.41392500016381,28.52981799982031],[-81.4140869996472,28.529170999922354],[-81.41421100039408,28.528966000275222],[-81.41433100004468,28.528791000010735],[-81.41457899974179,28.528177999967752],[-81.41503999987424,28.527538000110077],[-81.41555600025828,28.52691100010672],[-81.41604499997982,28.526299000169665]],[[-81.41461200025206,28.526630000254382],[-81.4146149997268,28.526963000056252],[-81.41460100038141,28.527036999606267],[-81.41456899969604,28.5271069999647],[-81.41453899955881,28.527149999981383],[-81.41442099955806,28.52728899973197],[-81.41376199995719,28.528079000317806],[-81.41369500001004,28.52813700031535],[-81.41361800001714,28.52818299982803],[-81.41353299962833,28.528217999632503],[-81.41344200029005,28.528238999825337],[-81.41272900026253,28.528307000233088],[-81.41267999985872,28.528323999736212],[-81.41264800007167,28.528345999878407],[-81.4126220001324,28.528379999658586],[-81.41260799988869,28.52841900006617],[-81.41260700006377,28.52848399966107],[-81.41262600033036,28.529016000071966],[-81.4127429996079,28.529013000179507],[-81.41309499996042,28.529004999676694],[-81.41321299996117,28.529002999748236],[-81.41321299996117,28.529552000001466],[-81.41321299996117,28.52960600014362],[-81.41320399974036,28.529645000097542],[-81.41318299982396,28.529681000163638],[-81.41315000021201,28.529707999810473],[-81.41310900020412,28.529725999834273],[-81.41306399999829,28.529732000367712],[-81.411940000067,28.529755000173115],[-81.41189300021135,28.529745999769453],[-81.41184999965533,28.529725999834273],[-81.41181700004337,28.52969600031902],[-81.41179399957883,28.529658000342078],[-81.41178699990614,28.52963800039019],[-81.41178500025632,28.529586000181926],[-81.4117769998604,28.529245000289976],[-81.41177600003547,28.52903700010575],[-81.41178899955595,28.529016000071966],[-81.4117840004314,28.528858000096683],[-81.41177000018769,28.52817200013509],[-81.41176599998973,28.52794599987642],[-81.41178199988327,28.527890999698243],[-81.41181799986828,28.527843000107605],[-81.41185100037855,28.527818999909478],[-81.41286800017969,28.527506999993584],[-81.41296100006612,28.52746500010135],[-81.41304700027985,28.527411999630893],[-81.41312500009764,28.52735000010404],[-81.41324200027351,28.527231000057057],[-81.41353699982629,28.52695900012173],[-81.41361299999427,28.526893000391397],[-81.41370099985782,28.526839999633324],[-81.41377500037598,28.526809000100858],[-81.41413000020322,28.52666599977173],[-81.41421100039408,28.526644000068146],[-81.41429500005967,28.526633000214677],[-81.41461200025206,28.526630000254382]]]},"properties":{"block_id":"120950117022003","school_id":"sch_legends_academy_charter","kids_est":17,"class":"green","shortest":{"len_m":1177.7,"mean_c":38.22,"peak_c":38.3,"dose":85.3},"coolest":{"len_m":1177.7,"mean_c":38.22,"peak_c":38.3,"dose":85.3},"delta_mean_c":0.0,"delta_dose_pct":0,"distance_mi":0.214,"status_now":"walk","status_rec":"walk","reason":"Shortest route already under threshold (dose 85).","safe_until_hour":null}},{"type":"Feature","geometry":{"type":"Polygon","coordinates":[[[-81.4146149997268,28.526963000056252],[-81.41461200025206,28.526630000254382],[-81.41429500005967,28.526633000214677],[-81.41421100039408,28.526644000068146],[-81.41413000020322,28.52666599977173],[-81.41377500037598,28.526809000100858],[-81.41370099985782,28.526839999633324],[-81.41361299999427,28.526893000391397],[-81.41353699982629,28.52695900012173],[-81.41324200027351,28.527231000057057],[-81.41312500009764,28.52735000010404],[-81.41304700027985,28.527411999630893],[-81.41296100006612,28.52746500010135],[-81.41286800017969,28.527506999993584],[-81.41185100037855,28.527818999909478],[-81.41181799986828,28.527843000107605],[-81.41178199988327,28.527890999698243],[-81.41176599998973,28.52794599987642],[-81.41177000018769,28.52817200013509],[-81.4117840004314,28.528858000096683],[-81.41178899955595,28.529016000071966],[-81.41177600003547,28.52903700010575],[-81.41194599991478,28.529032000286016],[-81.41245499972781,28.52901999992836],[-81.41262600033036,28.529016000071966],[-81.41260700006377,28.52848399966107],[-81.41260799988869,28.52841900006617],[-81.4126220001324,28.528379999658586],[-81.41264800007167,28.528345999878407],[-81.41267999985872,28.528323999736212],[-81.41272900026253,28.528307000233088],[-81.41344200029005,28.528238999825337],[-81.41353299962833,28.528217999632503],[-81.41361800001714,28.52818299982803],[-81.41369500001004,28.52813700031535],[-81.41376199995719,28.528079000317806],[-81.41442099955806,28.52728899973197],[-81.41453899955881,28.527149999981383],[-81.41456899969604,28.5271069999647],[-81.41460100038141,28.527036999606267],[-81.4146149997268,28.526963000056252]]]},"properties":{"block_id":"120950117022006","school_id":"sch_legends_academy_charter","kids_est":5,"class":"green","shortest":{"len_m":1316.9,"mean_c":38.23,"peak_c":38.3,"dose":95.4},"coolest":{"len_m":1316.9,"mean_c":38.23,"peak_c":38.3,"dose":95.4},"delta_mean_c":0.0,"delta_dose_pct":0,"distance_mi":0.135,"status_now":"walk","status_rec":"walk","reason":"Shortest route already under threshold (dose 95).","safe_until_hour":null}},{"type":"Feature","geometry":{"type":"Polygon","coordinates":[[[-81.41321299996117,28.529552000001466],[-81.41321299996117,28.529002999748236],[-81.41309499996042,28.529004999676694],[-81.4127429996079,28.529013000179507],[-81.41262600033036,28.529016000071966],[-81.41245499972781,28.52901999992836],[-81.41194599991478,28.529032000286016],[-81.41177600003547,28.52903700010575],[-81.4117769998604,28.529245000289976],[-81.41178500025632,28.529586000181926],[-81.41178699990614,28.52963800039019],[-81.41179399957883,28.529658000342078],[-81.41181700004337,28.52969600031902],[-81.41184999965533,28.529725999834273],[-81.41189300021135,28.529745999769453],[-81.411940000067,28.529755000173115],[-81.41306399999829,28.529732000367712],[-81.41310900020412,28.529725999834273],[-81.41315000021201,28.529707999810473],[-81.41318299982396,28.529681000163638],[-81.41320399974036,28.529645000097542],[-81.41321299996117,28.52960600014362],[-81.41321299996117,28.529552000001466]]]},"properties":{"block_id":"120950117022004","school_id":"sch_legends_academy_charter","kids_est":10,"class":"green","shortest":{"len_m":1260.4,"mean_c":38.23,"peak_c":38.3,"dose":91.3},"coolest":{"len_m":1260.4,"mean_c":38.23,"peak_c":38.3,"dose":91.3},"delta_mean_c":0.0,"delta_dose_pct":0,"distance_mi":0.184,"status_now":"walk","status_rec":"walk","reason":"Shortest route already under threshold (dose 91).","safe_until_hour":null}},{"type":"Feature","geometry":{"type":"Polygon","coordinates":[[[-81.41795499973354,28.531732000238144],[-81.41795499973354,28.531683000090307],[-81.41794999971069,28.531133999888475],[-81.41794800006085,28.530901999990085],[-81.41536799993729,28.530881000327856],[-81.41473699992554,28.530920999756024],[-81.41374900043671,28.53098400028469],[-81.41384399997295,28.531824000051465],[-81.41414799974658,28.531801999846092],[-81.41594899972034,28.53176299990114],[-81.416480000173,28.53175099985449],[-81.41795499973354,28.531732000238144]]]},"properties":{"block_id":"120950117021013","school_id":"sch_legends_academy_charter","kids_est":33,"class":"green","shortest":{"len_m":541.5,"mean_c":38.15,"peak_c":38.2,"dose":38.8},"coolest":{"len_m":541.5,"mean_c":38.15,"peak_c":38.2,"dose":38.8},"delta_mean_c":0.0,"delta_dose_pct":0,"distance_mi":0.214,"status_now":"walk","status_rec":"walk","reason":"Shortest route already under threshold (dose 39).","safe_until_hour":null}}]}