{"type":"FeatureCollection","features":[{"type":"Feature","geometry":{"type":"Polygon","coordinates":[[[-81.4415,28.5544],[-81.4328,28.5544],[-81.4328,28.56775],[-81.4415,28.56775],[-81.4415,28.5544]]]},"properties":{"block_id":"120951234001002","school_id":"sch_lucious_and_emma_nixon_academy_charter","kids_est":42,"class":"green","shortest":{"len_m":1036.7,"mean_c":35.82,"peak_c":37.02,"dose":40.6},"coolest":{"len_m":1292.9,"mean_c":33.77,"peak_c":34.77,"dose":13.9},"delta_mean_c":-2.05,"delta_dose_pct":-66,"distance_mi":0.515,"status_now":"walk","status_rec":"walk","reason":"Shortest route already under threshold (dose 41).","safe_until_hour":null}},{"type":"Feature","geometry":{"type":"Polygon","coordinates":[[[-81.4328,28.5544],[-81.4241,28.5544],[-81.4241,28.56775],[-81.4328,28.56775],[-81.4328,28.5544]]]},"properties":{"block_id":"120951235001002","school_id":"sch_lucious_and_emma_nixon_academy_charter","kids_est":21,"class":"green","shortest":{"len_m":872.4,"mean_c":36.54,"peak_c":37.74,"dose":42.9},"coolest":{"len_m":1085.2,"mean_c":34.01,"peak_c":35.01,"dose":15.2},"delta_mean_c":-2.53,"delta_dose_pct":-65,"distance_mi":0.434,"status_now":"walk","status_rec":"walk","reason":"Shortest route already under threshold (dose 43).","safe_until_hour":null}},{"type":"Feature","geometry":{"type":"Polygon","coordinates":[[[-81.4415,28.56775],[-81.4328,28.56775],[-81.4328,28.5811],[-81.4415,28.5811],[-81.4415,28.56775]]]},"properties":{"block_id":"120951234001003","school_id":"sch_lucious_and_emma_nixon_academy_charter","kids_est":6,"class":"green","shortest":{"len_m":1260.0,"mean_c":36.21,"peak_c":37.41,"dose":56.2},"coolest":{"len_m":1585.8,"mean_c":33.78,"peak_c":34.78,"dose":17.1},"delta_mean_c":-2.43,"delta_dose_pct":-70,"distance_mi":0.626,"status_now":"walk","status_rec":"walk","reason":"Shortest route already under threshold (dose 56).","safe_until_hour":null}},{"type":"Feature","geometry":{"type":"Polygon","coordinates":[[[-81.4328,28.56775],[-81.4241,28.56775],[-81.4241,28.5811],[-81.4328,28.5811],[-81.4328,28.56775]]]},"properties":{"block_id":"120951235001003","school_id":"sch_lucious_and_emma_nixon_academy_charter","kids_est":5,"class":"green","shortest":{"len_m":1128.7,"mean_c":35.75,"peak_c":36.95,"dose":43.1},"coolest":{"len_m":1400.3,"mean_c":33.81,"peak_c":34.81,"dose":15.7},"delta_mean_c":-1.94,"delta_dose_pct":-64,"distance_mi":0.561,"status_now":"walk","status_rec":"walk","reason":"Shortest route already under threshold (dose 43).","safe_until_hour":null}}]}