{"type":"FeatureCollection","features":[{"type":"Feature","geometry":{"type":"Polygon","coordinates":[[[-81.42619600041962,28.547404000264834],[-81.42619100039674,28.547251999779743],[-81.42572600006632,28.547258000104183],[-81.4256959999291,28.547258999895174],[-81.42488099979431,28.54725700031318],[-81.42433400034646,28.54726999996289],[-81.42413400032991,28.547276000286246],[-81.42386999984096,28.5472749997063],[-81.42310800030793,28.54727399991546],[-81.42282999957528,28.54727399991546],[-81.42180500027652,28.547280000238594],[-81.42089200023247,28.5472899997243],[-81.4208239995621,28.5472899997243],[-81.42028399978692,28.547292000094778],[-81.420062999854,28.54729600004659],[-81.420062999854,28.547360999833188],[-81.4200639996789,28.547555999741444],[-81.4200639996789,28.547587000272248],[-81.42019099990051,28.547428999736972],[-81.4211340000818,28.54743199989417],[-81.42310400010997,28.54741399973877],[-81.42386900001605,28.547416999896384],[-81.42420200010199,28.54741399973877],[-81.42590199979342,28.54739600036934],[-81.42619600041962,28.547404000264834]]]},"properties":{"block_id":"120950183002081","school_id":"sch_orlando_science_elementary_charter","kids_est":0,"class":"red","shortest":{"len_m":2003.9,"mean_c":37.58,"peak_c":37.9,"dose":127.7},"coolest":{"len_m":2003.9,"mean_c":37.58,"peak_c":37.9,"dose":127.7},"delta_mean_c":0.0,"delta_dose_pct":0,"distance_mi":0.865,"status_now":"walk","status_rec":"bus_eligible","reason":"Coolest route mean 37.6C exceeds threshold (110 C-min dose, actual 128).","safe_until_hour":"14:00"}},{"type":"Feature","geometry":{"type":"Polygon","coordinates":[[[-81.42007399972464,28.54907400025412],[-81.42007299989973,28.549030999715253],[-81.42007299989973,28.54890399991135],[-81.42007299989973,28.54886199986794],[-81.42007100024992,28.548613999946433],[-81.420070000425,28.54850900030644],[-81.42001299962527,28.54850900030644],[-81.41955099966792,28.548513000212004],[-81.41955200039114,28.548843999956887],[-81.41955300021606,28.549078000138188],[-81.4196489995772,28.549078000138188],[-81.41973399996601,28.54907700036446],[-81.41998800040922,28.54907400025412],[-81.42007399972464,28.54907400025412]]]},"properties":{"block_id":"120950183002030","school_id":"sch_orlando_science_elementary_charter","kids_est":2,"class":"green","shortest":{"len_m":1513.9,"mean_c":37.48,"peak_c":37.8,"dose":94.3},"coolest":{"len_m":1513.9,"mean_c":37.48,"peak_c":37.8,"dose":94.3},"delta_mean_c":0.0,"delta_dose_pct":0,"distance_mi":0.657,"status_now":"walk","status_rec":"walk","reason":"Shortest route already under threshold (dose 94).","safe_until_hour":null}},{"type":"Feature","geometry":{"type":"Polygon","coordinates":[[[-81.41955200039114,28.549173999677716],[-81.41955300021606,28.549078000138188],[-81.41922699980282,28.549082000022075],[-81.41921299955911,28.549082999795825],[-81.41918199959696,28.549079999685603],[-81.41912600041879,28.549060000264102],[-81.4190999995812,28.549044999709114],[-81.41906000029655,28.54900400028547],[-81.41903699983202,28.54895500027968],[-81.41903199980914,28.54890099979602],[-81.41903199980914,28.54887900000024],[-81.41852399982102,28.54887900000024],[-81.41852499964594,28.549016999719523],[-81.41801300035819,28.54902099960575],[-81.41801199963494,28.549179000119832],[-81.41856999985178,28.549185000334493],[-81.41911200017508,28.54918399977269],[-81.41955200039114,28.549173999677716]]]},"properties":{"block_id":"120950183002032","school_id":"sch_orlando_science_elementary_charter","kids_est":0,"class":"green","shortest":{"len_m":1594.9,"mean_c":37.5,"peak_c":37.8,"dose":99.5},"coolest":{"len_m":1594.9,"mean_c":37.5,"peak_c":37.8,"dose":99.5},"delta_mean_c":0.0,"delta_dose_pct":0,"distance_mi":0.602,"status_now":"walk","status_rec":"walk","reason":"Shortest route already under threshold (dose 100).","safe_until_hour":null}},{"type":"Feature","geometry":{"type":"Polygon","coordinates":[[[-81.42007999957241,28.552519999913013],[-81.42007899974752,28.55247699999228],[-81.42007500044788,28.552027000171538],[-81.42007399972464,28.55187800007711],[-81.42007200007481,28.551693000137814],[-81.42007100024992,28.551570000177417],[-81.42007100024992,28.55149100016559],[-81.42007399972464,28.550331000338858],[-81.42007600027277,28.549945000030906],[-81.42007500044788,28.54976999989126],[-81.42007399972464,28.549248000200077],[-81.42007399972464,28.54907400025412],[-81.41998800040922,28.54907400025412],[-81.41973399996601,28.54907700036446],[-81.4196489995772,28.549078000138188],[-81.41955300021606,28.549078000138188],[-81.41955200039114,28.549173999677716],[-81.41911200017508,28.54918399977269],[-81.41856999985178,28.549185000334493],[-81.41801199963494,28.549179000119832],[-81.41801300035819,28.54902099960575],[-81.41852499964594,28.549016999719523],[-81.41852399982102,28.54887900000024],[-81.41903199980914,28.54887900000024],[-81.41903099998422,28.548738999757163],[-81.41903000015932,28.54862199974941],[-81.4189599998391,28.548620999971348],[-81.41896300021217,28.547600999668965],[-81.41895700036439,28.54748899970847],[-81.41895800018929,28.547304999740224],[-81.41886799977762,28.54729999999817],[-81.41870799994403,28.5472849999816],[-81.41854800011048,28.54726500021917],[-81.41842400026191,28.547243000081632],[-81.41823299956789,28.54720900007515],[-81.41807699993228,28.547172999684996],[-81.4179229999465,28.54713200032168],[-81.4177699997856,28.547084999819326],[-81.4168740003583,28.546777999900602],[-81.41668000018953,28.546715999931767],[-81.4161000002314,28.546533999787034],[-81.41609799968326,28.546575000172258],[-81.41609500020853,28.5467019996283],[-81.41609400038361,28.54674399974406],[-81.41609500020853,28.54688599986098],[-81.41610100005632,28.547311000061583],[-81.41610299970614,28.54745399999228],[-81.41611500030001,28.547484999764],[-81.41615399975977,28.54757900039066],[-81.41616700017856,28.547610999913296],[-81.41619200029292,28.547636999912825],[-81.41620700036152,28.547669000206888],[-81.41620999983627,28.547703000064864],[-81.41620900001135,28.547746000356856],[-81.41620800018643,28.548193000187155],[-81.41620800018643,28.548341999971985],[-81.41620999983627,28.548498000368202],[-81.41621599968404,28.54896600017025],[-81.4162190000571,28.549121999642068],[-81.41656399983857,28.54912099986876],[-81.41710299978882,28.549120000095453],[-81.4175990000814,28.549113999877143],[-81.41785299962629,28.549112000330375],[-81.41789600018231,28.549120000095453],[-81.4179380000151,28.549144000176245],[-81.41796300012948,28.549169999797304],[-81.41797999984789,28.549207000066357],[-81.41798300022094,28.54922599968768],[-81.41798300022094,28.549266999813995],[-81.4179859996957,28.549681000060332],[-81.4179870004189,28.54981900030686],[-81.41799099971855,28.54996100022305],[-81.41800300031242,28.550386999611852],[-81.41800699961209,28.55052900034024],[-81.41800999998513,28.550736000158864],[-81.41801199963494,28.550808000069026],[-81.41800900016023,28.551357000329595],[-81.41800900016023,28.551564999848832],[-81.4180080003353,28.551624000081524],[-81.4180080003353,28.55180000004423],[-81.4180080003353,28.551859999892567],[-81.41800699961209,28.552037999741213],[-81.41800400013734,28.55257499985953],[-81.41800400013734,28.552650999838736],[-81.41812399978794,28.552650999838736],[-81.41889700008993,28.552637000324275],[-81.42007600027277,28.552649000359054],[-81.42007700009769,28.552626999768147],[-81.42007999957241,28.552519999913013]]]},"properties":{"block_id":"120950183002029","school_id":"sch_orlando_science_elementary_charter","kids_est":14,"class":"green","shortest":{"len_m":1685.9,"mean_c":37.51,"peak_c":37.8,"dose":105.5},"coolest":{"len_m":1685.9,"mean_c":37.51,"peak_c":37.8,"dose":105.5},"delta_mean_c":0.0,"delta_dose_pct":0,"distance_mi":0.558,"status_now":"walk","status_rec":"walk","reason":"Shortest route already under threshold (dose 106).","safe_until_hour":null}},{"type":"Feature","geometry":{"type":"Polygon","coordinates":[[[-81.41800499996225,28.552861999960623],[-81.41800400013734,28.552650999838736],[-81.41648400037096,28.552662999871927],[-81.41516999957058,28.552689000202285],[-81.41514600017945,28.552689000202285],[-81.41462599959745,28.552689999941713],[-81.41396100014882,28.552690999681126],[-81.41396799982152,28.552933000258058],[-81.41699999985667,28.552870999967592],[-81.41800499996225,28.552861999960623]]]},"properties":{"block_id":"120950183002001","school_id":"sch_orlando_science_elementary_charter","kids_est":0,"class":"green","shortest":{"len_m":735.6,"mean_c":37.3,"peak_c":37.4,"dose":44.1},"coolest":{"len_m":735.6,"mean_c":37.3,"peak_c":37.4,"dose":44.1},"delta_mean_c":0.0,"delta_dose_pct":0,"distance_mi":0.296,"status_now":"walk","status_rec":"walk","reason":"Shortest route already under threshold (dose 44).","safe_until_hour":null}},{"type":"Feature","geometry":{"type":"Polygon","coordinates":[[[-81.41370500005578,28.552924999993582],[-81.41369500001004,28.552692999949027],[-81.4123550001687,28.552704000238183],[-81.4108339996791,28.552720000011117],[-81.40876800028975,28.552732000036492],[-81.40764699983322,28.55274000031565],[-81.40728399961006,28.5527490003331],[-81.40722400023392,28.552750999810826],[-81.4072290002568,28.552960999995467],[-81.40981000020524,28.552948999996183],[-81.41077199975481,28.552933000258058],[-81.4121650001979,28.55291999972927],[-81.41370500005578,28.552924999993582]]]},"properties":{"block_id":"120950183003001","school_id":"sch_orlando_science_elementary_charter","kids_est":0,"class":"green","shortest":{"len_m":720.6,"mean_c":37.28,"peak_c":37.3,"dose":43.1},"coolest":{"len_m":720.6,"mean_c":37.28,"peak_c":37.3,"dose":43.0},"delta_mean_c":0.0,"delta_dose_pct":0,"distance_mi":0.28,"status_now":"walk","status_rec":"walk","reason":"Shortest route already under threshold (dose 43).","safe_until_hour":null}},{"type":"Feature","geometry":{"type":"Polygon","coordinates":[[[-81.42145700012199,28.55594099981812],[-81.42144999955097,28.555791000029263],[-81.42141299974107,28.55497700018375],[-81.42010600041,28.55496000024686],[-81.42010899988475,28.55514799990675],[-81.42011200025779,28.55528800030832],[-81.42011800010556,28.55559600037875],[-81.42011800010556,28.555714999949476],[-81.42011999975539,28.55590400033718],[-81.42145700012199,28.55594099981812]]]},"properties":{"block_id":"120950187002032","school_id":"sch_orlando_science_elementary_charter","kids_est":11,"class":"green","shortest":{"len_m":1550.6,"mean_c":37.49,"peak_c":37.9,"dose":97.1},"coolest":{"len_m":1550.6,"mean_c":37.49,"peak_c":37.9,"dose":97.1},"delta_mean_c":0.0,"delta_dose_pct":0,"distance_mi":0.475,"status_now":"walk","status_rec":"walk","reason":"Shortest route already under threshold (dose 97).","safe_until_hour":null}},{"type":"Feature","geometry":{"type":"Polygon","coordinates":[[[-81.4157050002212,28.563117000238364],[-81.41572500031268,28.561841999684933],[-81.41550900040261,28.560862000324242],[-81.41537200013525,28.56040999992757],[-81.41532299973146,28.560295000387953],[-81.41521399995152,28.56003900005601],[-81.41518999966208,28.56003699992767],[-81.41511900041527,28.560032000001225],[-81.41497999959978,28.560025999615732],[-81.4154380002575,28.56149100034679],[-81.4155369999917,28.56188600016681],[-81.41554899968727,28.56281100015707],[-81.41538899985369,28.56369900001071],[-81.41514199998149,28.564488999741847],[-81.41480899989557,28.565500999653867],[-81.41458700013771,28.566450999908888],[-81.41461100042714,28.567302999999974],[-81.41461800009986,28.567352999744788],[-81.41466099975754,28.567672999915512],[-81.41473500027571,28.567883000312285],[-81.4147839997812,28.568124999889147],[-81.4150159995848,28.569268999678524],[-81.41503099965341,28.56933900037351],[-81.41501899995785,28.569437000321507],[-81.41503599967628,28.56950999964388],[-81.41510099997362,28.56977800026656],[-81.41555899973301,28.569731999984466],[-81.41572299976454,28.5697150000638],[-81.4156419995737,28.569275000325995],[-81.41556799995384,28.56886400015319],[-81.41535200004378,28.56808000005559],[-81.41534799984582,28.568062999868022],[-81.41515600022518,28.567196999673587],[-81.41505800031591,28.566452000306587],[-81.41509699977566,28.5656279999504],[-81.41543099968648,28.564314000108],[-81.4157050002212,28.563117000238364]]]},"properties":{"block_id":"120950187001034","school_id":"sch_orlando_science_elementary_charter","kids_est":0,"class":"red","shortest":{"len_m":3059.3,"mean_c":37.37,"peak_c":37.4,"dose":185.7},"coolest":{"len_m":3059.3,"mean_c":37.37,"peak_c":37.4,"dose":185.7},"delta_mean_c":0.0,"delta_dose_pct":0,"distance_mi":0.61,"status_now":"walk","status_rec":"bus_eligible","reason":"Coolest route mean 37.4C exceeds threshold (110 C-min dose, actual 186).","safe_until_hour":"13:00"}},{"type":"Feature","geometry":{"type":"Polygon","coordinates":[[[-81.4200920001663,28.559936000104354],[-81.42008999961817,28.559893000056412],[-81.42008899979325,28.559844000384032],[-81.42006799987686,28.558475000139733],[-81.42005600018129,28.558138999881937],[-81.41868899967746,28.55815300024287],[-81.41848500036129,28.558159999633645],[-81.41808199995515,28.558166000125496],[-81.41808000030534,28.557992999614207],[-81.41807399955924,28.55758000018123],[-81.41806500023671,28.556960000116987],[-81.41805600001588,28.55636799996698],[-81.41797300017521,28.556368999671474],[-81.41797599964993,28.555967999836355],[-81.41797800019808,28.55570499968569],[-81.41797900002298,28.5555660003398],[-81.4179859996957,28.554762999617743],[-81.41799599974144,28.5535590003309],[-81.41799900011448,28.553297999942462],[-81.41800099976429,28.55296699999456],[-81.41800499996225,28.552861999960623],[-81.41699999985667,28.552870999967592],[-81.41396799982152,28.552933000258058],[-81.41398500043827,28.553501000125166],[-81.4140010003318,28.55429800029167],[-81.41398500043827,28.555219000240722],[-81.41395000027816,28.555690999788304],[-81.41394100005733,28.555815999877396],[-81.41402100042326,28.556416999679218],[-81.41412799965508,28.5568719997509],[-81.41424999985382,28.55729600019269],[-81.41452699986324,28.558098000054162],[-81.41481399991842,28.55893799980399],[-81.41506900018656,28.55965400029543],[-81.41521399995152,28.56003900005601],[-81.41535200004378,28.560048999908037],[-81.41669500025816,28.560005999906302],[-81.41782199966416,28.55998400006373],[-81.41924400041957,28.55995599982709],[-81.4200920001663,28.559936000104354]]]},"properties":{"block_id":"120950187002038","school_id":"sch_orlando_science_elementary_charter","kids_est":19,"class":"green","shortest":{"len_m":636.7,"mean_c":37.39,"peak_c":37.5,"dose":38.8},"coolest":{"len_m":636.7,"mean_c":37.39,"peak_c":37.5,"dose":38.8},"delta_mean_c":0.0,"delta_dose_pct":0,"distance_mi":0.213,"status_now":"walk","status_rec":"walk","reason":"Shortest route already under threshold (dose 39).","safe_until_hour":null}},{"type":"Feature","geometry":{"type":"Polygon","coordinates":[[[-81.41518999966208,28.56003699992767],[-81.41521399995152,28.56003900005601],[-81.41506900018656,28.55965400029543],[-81.41481399991842,28.55893799980399],[-81.41452699986324,28.558098000054162],[-81.41424999985382,28.55729600019269],[-81.41412799965508,28.5568719997509],[-81.41402100042326,28.556416999679218],[-81.41394100005733,28.555815999877396],[-81.41395000027816,28.555690999788304],[-81.41374400041383,28.555695999920953],[-81.41386400006444,28.556437999774364],[-81.41411199976156,28.557374000099173],[-81.41454299975679,28.558714999892686],[-81.41482700033721,28.55959400015473],[-81.41497999959978,28.560025999615732],[-81.41511900041527,28.560032000001225],[-81.41518999966208,28.56003699992767]]]},"properties":{"block_id":"120950187001027","school_id":"sch_orlando_science_elementary_charter","kids_est":0,"class":"green","shortest":{"len_m":455.6,"mean_c":37.36,"peak_c":37.4,"dose":27.6},"coolest":{"len_m":455.6,"mean_c":37.36,"peak_c":37.4,"dose":27.6},"delta_mean_c":0.0,"delta_dose_pct":0,"distance_mi":0.149,"status_now":"walk","status_rec":"walk","reason":"Shortest route already under threshold (dose 28).","safe_until_hour":null}},{"type":"Feature","geometry":{"type":"Polygon","coordinates":[[[-81.43041000011236,28.552768000104383],[-81.43040900028744,28.552640000333103],[-81.43040799956422,28.552534000232104],[-81.43033399994437,28.55252699967828],[-81.43026600017232,28.552534000232104],[-81.42982400030644,28.552528999949295],[-81.4295189998096,28.552528999949295],[-81.42939800033407,28.55253199996119],[-81.42936999984668,28.55253100022026],[-81.42927500031044,28.552528999949295],[-81.4252730003298,28.552559999805236],[-81.42495799978721,28.552568000097445],[-81.42386999984096,28.55257499985953],[-81.42276299962813,28.55259899994191],[-81.42185299995711,28.55261099998108],[-81.42140900044141,28.552617999740303],[-81.42068899984288,28.552644999821577],[-81.42022799971042,28.552647999830164],[-81.42007600027277,28.552649000359054],[-81.42007299989973,28.552717999743738],[-81.42007299989973,28.552741000054596],[-81.42007299989973,28.55280599963662],[-81.42007399972464,28.552861999960623],[-81.42022299968755,28.55286599970079],[-81.42063699996433,28.552858999958104],[-81.42250999990814,28.552828999928305],[-81.42394600000894,28.55280599963662],[-81.42526300028406,28.552802999632526],[-81.42656999961511,28.552799999628352],[-81.42666300039984,28.552799999628352],[-81.42729900043447,28.5527860001337],[-81.42774399977509,28.552776000380792],[-81.42945500023549,28.55275200033875],[-81.42976099965892,28.5527599998273],[-81.4298419998498,28.55276200009394],[-81.43026799982215,28.5527560000831],[-81.43041000011236,28.552768000104383]]]},"properties":{"block_id":"120950183002003","school_id":"sch_orlando_science_elementary_charter","kids_est":0,"class":"green","shortest":{"len_m":1641.8,"mean_c":37.56,"peak_c":38.1,"dose":104.1},"coolest":{"len_m":1641.8,"mean_c":37.56,"peak_c":38.1,"dose":104.1},"delta_mean_c":0.0,"delta_dose_pct":0,"distance_mi":0.784,"status_now":"walk","status_rec":"walk","reason":"Shortest route already under threshold (dose 104).","safe_until_hour":null}},{"type":"Feature","geometry":{"type":"Polygon","coordinates":[[[-81.42008499959529,28.55368099981599],[-81.42008399977038,28.553642999810396],[-81.42008299994546,28.5535309999635],[-81.42008299994546,28.553493999635638],[-81.42008100029565,28.553407999782927],[-81.42007999957241,28.553362999969714],[-81.4200779999226,28.55315299979777],[-81.42007700009769,28.55306800019147],[-81.42007600027277,28.553002000245645],[-81.42007399972464,28.552861999960623],[-81.41842599991175,28.552880999711483],[-81.41842300043699,28.552997999721562],[-81.41842300043699,28.553059999937247],[-81.41842000006396,28.553187999987014],[-81.4184169996909,28.5535749999739],[-81.418415999866,28.553703999916472],[-81.41858200044567,28.553701999667798],[-81.41908000038802,28.553697000229512],[-81.4192469998943,28.553695999710584],[-81.41941400029889,28.55369299973179],[-81.4199170002641,28.55368300006506],[-81.42008499959529,28.55368099981599]]]},"properties":{"block_id":"120950187002036","school_id":"sch_orlando_science_elementary_charter","kids_est":0,"class":"green","shortest":{"len_m":1059.1,"mean_c":37.37,"peak_c":37.6,"dose":64.6},"coolest":{"len_m":1059.1,"mean_c":37.37,"peak_c":37.6,"dose":64.6},"delta_mean_c":0.0,"delta_dose_pct":0,"distance_mi":0.429,"status_now":"walk","status_rec":"walk","reason":"Shortest route already under threshold (dose 65).","safe_until_hour":null}},{"type":"Feature","geometry":{"type":"Polygon","coordinates":[[[-81.40785900044364,28.557080000210767],[-81.4078619999184,28.55690200020674],[-81.40751600031199,28.55690599979349],[-81.40747899960374,28.55690700028194],[-81.40660900011568,28.55690700028194],[-81.40647900041934,28.556912000356828],[-81.40626400033419,28.55692199971685],[-81.40619999986177,28.556937999637846],[-81.40614200013546,28.556965000189372],[-81.40616999972454,28.556989999758773],[-81.40620800025769,28.55704499973732],[-81.40623300037205,28.55711999994862],[-81.40624599989252,28.557158000277294],[-81.40626199978605,28.557249999977998],[-81.40626500015911,28.55766700026339],[-81.40626699980892,28.55785100027272],[-81.4066790004359,28.55784900010283],[-81.40675499970556,28.55784900010283],[-81.40679800026157,28.55784600024243],[-81.40688299975207,28.557833000320358],[-81.40700599977572,28.557796999617235],[-81.4070829997686,28.55776200017115],[-81.40715399991372,28.557719000024164],[-81.40773899989475,28.55727399978376],[-81.4077849999255,28.557234000104433],[-81.4078209999105,28.557187000165925],[-81.40784600002486,28.55713500014231],[-81.40785900044364,28.557080000210767]]]},"properties":{"block_id":"120950187001032","school_id":"sch_orlando_science_elementary_charter","kids_est":5,"class":"green","shortest":{"len_m":1588.4,"mean_c":37.3,"peak_c":37.3,"dose":95.3},"coolest":{"len_m":1588.4,"mean_c":37.3,"peak_c":37.3,"dose":95.2},"delta_mean_c":0.0,"delta_dose_pct":0,"distance_mi":0.377,"status_now":"walk","status_rec":"walk","reason":"Shortest route already under threshold (dose 95).","safe_until_hour":null}},{"type":"Feature","geometry":{"type":"Polygon","coordinates":[[[-81.40965399967133,28.55637000016501],[-81.4096510001966,28.555970000041995],[-81.4096510001966,28.55578200027183],[-81.4096510001966,28.555602999939527],[-81.4096510001966,28.555272999851535],[-81.40963899960272,28.55519799990242],[-81.4096169998614,28.555169999970907],[-81.40958099987641,28.55515500028631],[-81.40952700034804,28.55515500028631],[-81.40934900007281,28.555156000002327],[-81.40917900019349,28.55515699971832],[-81.40893399997111,28.555158999939376],[-81.40874599965014,28.555170999686773],[-81.40867100020537,28.555169999970907],[-81.40850200015097,28.555169999970907],[-81.40832700024879,28.555172000191696],[-81.4080240003001,28.555177000348987],[-81.40797700044443,28.55519299974612],[-81.4079399997362,28.555222999891424],[-81.40785900044364,28.555317999637484],[-81.40776800020706,28.555427000021297],[-81.40774100044288,28.5554450003851],[-81.40769799988685,28.555460999741506],[-81.40765000020629,28.555463999669865],[-81.40751600031199,28.555463999669865],[-81.40683500007148,28.555468000100237],[-81.40660800029079,28.555470000315378],[-81.40654999966614,28.555470000315378],[-81.40637999978682,28.55547199974147],[-81.40632299988542,28.555473000243545],[-81.40620200040992,28.555473000243545],[-81.40584199966149,28.555474999669528],[-81.4057220000109,28.555476000171563],[-81.4057220000109,28.555581999677813],[-81.40572299983579,28.555900999632307],[-81.40572399966071,28.556007999996712],[-81.40572399966071,28.556037999909698],[-81.40572399966071,28.556129000093346],[-81.40572500038394,28.556159999678407],[-81.40581300024749,28.55616199988039],[-81.40590299976087,28.556161000173926],[-81.40643800041147,28.55615699976988],[-81.40661699961329,28.5561560000633],[-81.40700900014876,28.55615300015466],[-81.40746199988531,28.556150999952507],[-81.40750299989318,28.55616400008234],[-81.40753800005328,28.556186999640424],[-81.40777200040502,28.556405000073877],[-81.40781300041289,28.556424999678423],[-81.40785900044364,28.55643199997306],[-81.40808500039947,28.55643199997306],[-81.40847799986153,28.55643199997306],[-81.40864899956577,28.556431000269164],[-81.40903799972817,28.5564299997762],[-81.40916199957674,28.556431000269164],[-81.40933400000418,28.55643400016988],[-81.40952200032517,28.55643700007052],[-81.40957800040167,28.556437999774364],[-81.40961500021159,28.55642699987537],[-81.40964199997578,28.556402000172273],[-81.40965399967133,28.55637000016501]]]},"properties":{"block_id":"120950187001036","school_id":"sch_orlando_science_elementary_charter","kids_est":9,"class":"green","shortest":{"len_m":1483.2,"mean_c":37.3,"peak_c":37.3,"dose":88.6},"coolest":{"len_m":1483.2,"mean_c":37.3,"peak_c":37.3,"dose":88.5},"delta_mean_c":0.0,"delta_dose_pct":0,"distance_mi":0.307,"status_now":"walk","status_rec":"walk","reason":"Shortest route already under threshold (dose 89).","safe_until_hour":null}},{"type":"Feature","geometry":{"type":"Polygon","coordinates":[[[-81.42007299989973,28.552717999743738],[-81.42007600027277,28.552649000359054],[-81.41889700008993,28.552637000324275],[-81.41812399978794,28.552650999838736],[-81.41800400013734,28.552650999838736],[-81.41800499996225,28.552861999960623],[-81.41842599991175,28.552880999711483],[-81.42007399972464,28.552861999960623],[-81.42007299989973,28.55280599963662],[-81.42007299989973,28.552741000054596],[-81.42007299989973,28.552717999743738]]]},"properties":{"block_id":"120950183002002","school_id":"sch_orlando_science_elementary_charter","kids_est":0,"class":"green","shortest":{"len_m":1010.2,"mean_c":37.36,"peak_c":37.6,"dose":61.4},"coolest":{"len_m":1010.2,"mean_c":37.36,"peak_c":37.6,"dose":61.4},"delta_mean_c":0.0,"delta_dose_pct":0,"distance_mi":0.436,"status_now":"walk","status_rec":"walk","reason":"Shortest route already under threshold (dose 61).","safe_until_hour":null}},{"type":"Feature","geometry":{"type":"Polygon","coordinates":[[[-81.42015400009058,28.558050999712357],[-81.42015200044077,28.557946999704022],[-81.42014599969467,28.557637000025494],[-81.42014499986976,28.55753400009063],[-81.42014099967179,28.557371999920214],[-81.42013200034927,28.55688900016809],[-81.42012899997621,28.556728000284245],[-81.4201270003264,28.55656299976562],[-81.4201209995803,28.556067999814207],[-81.42011999975539,28.55590400033718],[-81.42011800010556,28.555714999949476],[-81.42011800010556,28.55559600037875],[-81.42011200025779,28.55528800030832],[-81.42010899988475,28.55514799990675],[-81.42010600041,28.55496000024686],[-81.42010300003697,28.554865999896553],[-81.42009600036427,28.554586999873425],[-81.42009600036427,28.554566999919746],[-81.42009499964104,28.554493999701435],[-81.42009399981613,28.554450999797737],[-81.42009299999121,28.554364000214186],[-81.4200920001663,28.554321999981383],[-81.4200920001663,28.554279000007433],[-81.42008999961817,28.55415899987723],[-81.42008600031853,28.553799999973034],[-81.42008499959529,28.55368099981599],[-81.4199170002641,28.55368300006506],[-81.41941400029889,28.55369299973179],[-81.4192469998943,28.553695999710584],[-81.4192400002216,28.554572000105765],[-81.41923600002364,28.555119999961867],[-81.41923299965059,28.556290999809427],[-81.4192469998943,28.55637399977192],[-81.41929899977285,28.556511999925974],[-81.41931200019164,28.556593000309512],[-81.41930999964347,28.557098999989513],[-81.41931100036672,28.5571900000451],[-81.41932700026022,28.5580670002508],[-81.41947000037537,28.558063999607565],[-81.41990200019549,28.558055000044437],[-81.42004600013556,28.558052999878417],[-81.42006700005196,28.558052000189903],[-81.42013200034927,28.558050999712357],[-81.42015400009058,28.558050999712357]]]},"properties":{"block_id":"120950187002035","school_id":"sch_orlando_science_elementary_charter","kids_est":15,"class":"green","shortest":{"len_m":1429.8,"mean_c":37.47,"peak_c":37.8,"dose":88.9},"coolest":{"len_m":1429.8,"mean_c":37.47,"peak_c":37.8,"dose":88.9},"delta_mean_c":0.0,"delta_dose_pct":0,"distance_mi":0.406,"status_now":"walk","status_rec":"walk","reason":"Shortest route already under threshold (dose 89).","safe_until_hour":null}},{"type":"Feature","geometry":{"type":"Polygon","coordinates":[[[-81.40982199990083,28.557770000068142],[-81.40981900042608,28.557593000134606],[-81.40981799970288,28.557482000238412],[-81.40981900042608,28.557065000009313],[-81.409820000251,28.55688900016809],[-81.40942799971552,28.556891000356234],[-81.40825299973065,28.55689900031936],[-81.4078619999184,28.55690200020674],[-81.40785900044364,28.557080000210767],[-81.40784600002486,28.55713500014231],[-81.4078209999105,28.557187000165925],[-81.4077849999255,28.557234000104433],[-81.40773899989475,28.55727399978376],[-81.40715399991372,28.557719000024164],[-81.4070829997686,28.55776200017115],[-81.40700599977572,28.557796999617235],[-81.40688299975207,28.557833000320358],[-81.40679800026157,28.55784600024243],[-81.40675499970556,28.55784900010283],[-81.4066790004359,28.55784900010283],[-81.40626699980892,28.55785100027272],[-81.40626799963384,28.55803799981561],[-81.4062719998318,28.558552999961677],[-81.40627100000688,28.55859899960701],[-81.40627000018199,28.558786000188174],[-81.4063479999998,28.558788000340275],[-81.40696300011801,28.55878199988387],[-81.407039000286,28.55877800036839],[-81.40708000029389,28.55877600021611],[-81.40719499992161,28.558756000269184],[-81.40730600024969,28.558722000035104],[-81.40741000000675,28.558674000289244],[-81.40750700009114,28.558615000062147],[-81.40806500030797,28.558186000184516],[-81.40839599984577,28.557940000299137],[-81.40849100028032,28.557882999829896],[-81.40859400021249,28.557836999871686],[-81.40870299999243,28.557803000129773],[-81.40875900006891,28.55779200037341],[-81.40887299987175,28.557777999964475],[-81.4090519999719,28.557777000273344],[-81.40953099964769,28.557777000273344],[-81.40982199990083,28.557770000068142]]]},"properties":{"block_id":"120950187001030","school_id":"sch_orlando_science_elementary_charter","kids_est":28,"class":"green","shortest":{"len_m":1653.6,"mean_c":37.3,"peak_c":37.3,"dose":99.2},"coolest":{"len_m":1653.6,"mean_c":37.3,"peak_c":37.3,"dose":99.1},"delta_mean_c":0.0,"delta_dose_pct":0,"distance_mi":0.322,"status_now":"walk","status_rec":"walk","reason":"Shortest route already under threshold (dose 99).","safe_until_hour":null}},{"type":"Feature","geometry":{"type":"Polygon","coordinates":[[[-81.409820000251,28.55688900016809],[-81.40981900042608,28.556821999761148],[-81.40981900042608,28.55662099986264],[-81.40981900042608,28.556554000074176],[-81.40981699987796,28.55581200024929],[-81.40981699987796,28.555684999944383],[-81.40981100003016,28.555084999625798],[-81.40980699983221,28.55358600017092],[-81.40981000020524,28.552948999996183],[-81.4072290002568,28.552960999995467],[-81.40638800018274,28.55295299973305],[-81.4057079997672,28.55292100025559],[-81.40571899963784,28.5532039996864],[-81.40570500029246,28.55350600036182],[-81.40570600011736,28.553680000085965],[-81.40589199989022,28.55397900021452],[-81.40579200033109,28.554279000007433],[-81.40571399961497,28.554648999942422],[-81.4057220000109,28.555476000171563],[-81.40584199966149,28.555474999669528],[-81.40620200040992,28.555473000243545],[-81.40632299988542,28.555473000243545],[-81.40637999978682,28.55547199974147],[-81.40654999966614,28.555470000315378],[-81.40660800029079,28.555470000315378],[-81.40683500007148,28.555468000100237],[-81.40751600031199,28.555463999669865],[-81.40765000020629,28.555463999669865],[-81.40769799988685,28.555460999741506],[-81.40774100044288,28.5554450003851],[-81.40776800020706,28.555427000021297],[-81.40785900044364,28.555317999637484],[-81.4079399997362,28.555222999891424],[-81.40797700044443,28.55519299974612],[-81.4080240003001,28.555177000348987],[-81.40832700024879,28.555172000191696],[-81.40850200015097,28.555169999970907],[-81.40867100020537,28.555169999970907],[-81.40874599965014,28.555170999686773],[-81.40893399997111,28.555158999939376],[-81.40917900019349,28.55515699971832],[-81.40934900007281,28.555156000002327],[-81.40952700034804,28.55515500028631],[-81.40958099987641,28.55515500028631],[-81.4096169998614,28.555169999970907],[-81.40963899960272,28.55519799990242],[-81.4096510001966,28.555272999851535],[-81.4096510001966,28.555602999939527],[-81.4096510001966,28.55578200027183],[-81.4096510001966,28.555970000041995],[-81.40965399967133,28.55637000016501],[-81.40964199997578,28.556402000172273],[-81.40961500021159,28.55642699987537],[-81.40957800040167,28.556437999774364],[-81.40952200032517,28.55643700007052],[-81.40933400000418,28.55643400016988],[-81.40916199957674,28.556431000269164],[-81.40903799972817,28.5564299997762],[-81.40864899956577,28.556431000269164],[-81.40847799986153,28.55643199997306],[-81.40808500039947,28.55643199997306],[-81.40785900044364,28.55643199997306],[-81.40781300041289,28.556424999678423],[-81.40777200040502,28.556405000073877],[-81.40753800005328,28.556186999640424],[-81.40750299989318,28.55616400008234],[-81.40746199988531,28.556150999952507],[-81.40700900014876,28.55615300015466],[-81.40661699961329,28.5561560000633],[-81.40643800041147,28.55615699976988],[-81.40590299976087,28.556161000173926],[-81.40581300024749,28.55616199988039],[-81.40572500038394,28.556159999678407],[-81.40572600020886,28.556359000258844],[-81.40572799985867,28.556498999839167],[-81.4057379999044,28.55656799985686],[-81.40575999964572,28.55663499963642],[-81.40579300015601,28.556697999778827],[-81.40583599981372,28.55675700029133],[-81.40588799969225,28.55680899971261],[-81.40597100043122,28.556862000386058],[-81.406053000447,28.556915999943154],[-81.40614200013546,28.556965000189372],[-81.40619999986177,28.556937999637846],[-81.40626400033419,28.55692199971685],[-81.40647900041934,28.556912000356828],[-81.40660900011568,28.55690700028194],[-81.40747899960374,28.55690700028194],[-81.40751600031199,28.55690599979349],[-81.4078619999184,28.55690200020674],[-81.40825299973065,28.55689900031936],[-81.40942799971552,28.556891000356234],[-81.409820000251,28.55688900016809]]]},"properties":{"block_id":"120950187001028","school_id":"sch_orlando_science_elementary_charter","kids_est":40,"class":"green","shortest":{"len_m":1074.8,"mean_c":37.3,"peak_c":37.3,"dose":64.1},"coolest":{"len_m":1074.8,"mean_c":37.3,"peak_c":37.3,"dose":64.0},"delta_mean_c":0.0,"delta_dose_pct":0,"distance_mi":0.34,"status_now":"walk","status_rec":"walk","reason":"Shortest route already under threshold (dose 64).","safe_until_hour":null}},{"type":"Feature","geometry":{"type":"Polygon","coordinates":[[[-81.41554899968727,28.56281100015707],[-81.4155369999917,28.56188600016681],[-81.4154380002575,28.56149100034679],[-81.41497999959978,28.560025999615732],[-81.41482700033721,28.55959400015473],[-81.41454299975679,28.558714999892686],[-81.41411199976156,28.557374000099173],[-81.41386400006444,28.556437999774364],[-81.41374400041383,28.555695999920953],[-81.41375899958413,28.554184999838174],[-81.41370500005578,28.552924999993582],[-81.4121650001979,28.55291999972927],[-81.41077199975481,28.552933000258058],[-81.40981000020524,28.552948999996183],[-81.40980699983221,28.55358600017092],[-81.40981100003016,28.555084999625798],[-81.40981699987796,28.555684999944383],[-81.40981699987796,28.55581200024929],[-81.40981900042608,28.556554000074176],[-81.40981900042608,28.55662099986264],[-81.40981900042608,28.556821999761148],[-81.409820000251,28.55688900016809],[-81.40981900042608,28.557065000009313],[-81.40981799970288,28.557482000238412],[-81.40981900042608,28.557593000134606],[-81.40982199990083,28.557770000068142],[-81.40982400044896,28.557943000156865],[-81.40982600009879,28.558062999919166],[-81.40982299972573,28.558462999979945],[-81.40982199990083,28.558637000190828],[-81.40972900001441,28.558652000168294],[-81.40920299958464,28.558699000241823],[-81.4090529997968,28.55872100035295],[-81.40891600042777,28.55875900010364],[-81.40876999993958,28.558818999931315],[-81.40873599960439,28.558840000336346],[-81.40866000033473,28.558897000287402],[-81.4083709997314,28.559156000063727],[-81.40795900000276,28.55951699998972],[-81.40788799985765,28.55956599981435],[-81.4078059998419,28.559606999859334],[-81.40772600037427,28.559640000134188],[-81.40765000020629,28.559666000319513],[-81.40759199958165,28.559681000150405],[-81.40746000023549,28.5596900003635],[-81.40704799960852,28.5596900003635],[-81.40703400026314,28.5596900003635],[-81.40637899996193,28.559743000375462],[-81.40627799967957,28.559746999854287],[-81.40627799967957,28.55955399977887],[-81.40627799967957,28.55939200035002],[-81.4062719998318,28.558977999624883],[-81.40627000018199,28.558786000188174],[-81.40627100000688,28.55859899960701],[-81.4062719998318,28.558552999961677],[-81.40626799963384,28.55803799981561],[-81.40626699980892,28.55785100027272],[-81.40626500015911,28.55766700026339],[-81.40626199978605,28.557249999977998],[-81.40624599989252,28.557158000277294],[-81.40623300037205,28.55711999994862],[-81.40620800025769,28.55704499973732],[-81.40616999972454,28.556989999758773],[-81.40614200013546,28.556965000189372],[-81.406053000447,28.556915999943154],[-81.40597100043122,28.556862000386058],[-81.40588799969225,28.55680899971261],[-81.40583599981372,28.55675700029133],[-81.40579300015601,28.556697999778827],[-81.40575999964572,28.55663499963642],[-81.4057379999044,28.55656799985686],[-81.40572799985867,28.556498999839167],[-81.40572600020886,28.556359000258844],[-81.40572500038394,28.556159999678407],[-81.40572399966071,28.556129000093346],[-81.40572399966071,28.556037999909698],[-81.40572399966071,28.556007999996712],[-81.40449299959933,28.55602100014414],[-81.40332099998749,28.55602900017343],[-81.40329199967516,28.55608399986498],[-81.40325099966729,28.556132999709405],[-81.40319999961366,28.556174000302473],[-81.40305300019888,28.556266999779513],[-81.40299299992444,28.55632099964178],[-81.40294199987079,28.55638199977432],[-81.40290300041107,28.55644799996852],[-81.40287499992365,28.556519999917953],[-81.40284499978642,28.556681999821368],[-81.40283499974068,28.557065000009313],[-81.40228800029283,28.55706900037886],[-81.40228800029283,28.557117999764838],[-81.40228800029283,28.557265999849136],[-81.40228900011772,28.557315999627967],[-81.40228900011772,28.557501999638408],[-81.40228999994264,28.557532999608163],[-81.4022659996532,28.557660999743042],[-81.40223300004124,28.557749999930078],[-81.4021119996674,28.55803099962769],[-81.40207400003257,28.558077999978423],[-81.40202499962876,28.558115000273368],[-81.40196600007754,28.558140000358655],[-81.40183800003102,28.558166000125496],[-81.40171400018245,28.55820499976364],[-81.40162600031891,28.558259000209855],[-81.4015269996864,28.558337999877647],[-81.40123600033158,28.55862500004945],[-81.40096199979688,28.558897000287402],[-81.40082600025275,28.559038000116704],[-81.40080500033635,28.5590689996342],[-81.40079299974246,28.559104000223755],[-81.40073699966598,28.5593639999559],[-81.40070499987893,28.55948599981519],[-81.40069400000826,28.559514999851462],[-81.40015800043106,28.55936600009702],[-81.3999130002087,28.559302999973216],[-81.39983799986561,28.559288000088458],[-81.39974400015427,28.559275000344453],[-81.39945000042641,28.55925100020585],[-81.39911499979235,28.55923600031368],[-81.39894900011099,28.5592340001701],[-81.39873599967567,28.559246999919218],[-81.3986250002459,28.559259999666683],[-81.39843100007712,28.559295000192783],[-81.39830100038078,28.55932900024177],[-81.39820099992338,28.559363000279856],[-81.39788700010399,28.55949700018362],[-81.39741099990293,28.559700999921585],[-81.39713300006859,28.559847999858963],[-81.39724799969633,28.56000899970514],[-81.39927600034913,28.563200999981287],[-81.39939199980178,28.563412000260865],[-81.39955900020635,28.56367700015104],[-81.3995909999934,28.563709000304012],[-81.39961399955962,28.563845999887416],[-81.40025399979221,28.5647240002802],[-81.40031800026465,28.56481000035611],[-81.40137699989857,28.565986000141354],[-81.40148200037888,28.565906999902015],[-81.40238600020211,28.566884999626428],[-81.40269699964843,28.56730899997065],[-81.4027510000751,28.56729399964892],[-81.40285800020521,28.56727999971496],[-81.4029779998558,28.56727799972425],[-81.40398999963406,28.56726199979712],[-81.40432799974289,28.567257999814906],[-81.40438399981939,28.567257000213832],[-81.40455100022396,28.567253999832587],[-81.40460800012536,28.567253999832587],[-81.40488000011193,28.567249000248978],[-81.40521300019786,28.567245000266315],[-81.40569900044467,28.56723700030056],[-81.40581800027036,28.567235999910313],[-81.40589600008816,28.567235999910313],[-81.40597300008106,28.567235000309022],[-81.40629699994616,28.567229999935527],[-81.40727000026467,28.567217000383426],[-81.40759499995468,28.567212999610586],[-81.40760199962739,28.568019999984617],[-81.40760400017552,28.56814999996371],[-81.40761300039637,28.568554000281477],[-81.407616999696,28.56901800016222],[-81.40763299958952,28.569173999900585],[-81.40764500018341,28.5692249999166],[-81.40766899957454,28.56929699980429],[-81.4077280000241,28.569422000303177],[-81.40783900035217,28.56959999964649],[-81.40786699994126,28.569647999932],[-81.40789100023069,28.569692000305924],[-81.40791299997201,28.56974300007088],[-81.40793399988841,28.569801000005565],[-81.40794899995701,28.569853999659475],[-81.40796499985055,28.56992099966011],[-81.4079759997212,28.570000000041695],[-81.40798199956899,28.570059000198118],[-81.4079830002922,28.570089999625246],[-81.40798400011712,28.570159999774027],[-81.40798800031509,28.57036299978441],[-81.40799400016286,28.57061900024953],[-81.4080030003837,28.57100699961915],[-81.40802099992703,28.571169000103733],[-81.40824400040812,28.571149999709178],[-81.40846000031819,28.5711409996872],[-81.40912700031495,28.571131999664427],[-81.40939199973052,28.571113000052136],[-81.4097010004253,28.57107100019105],[-81.40981400040323,28.571049999859785],[-81.41000299965079,28.571015000087222],[-81.41028700023122,28.57094499971838],[-81.41099199986284,28.570584999903147],[-81.41303399986104,28.570042000330286],[-81.41392599998873,28.56989999988825],[-81.41458700013771,28.56983099993206],[-81.41510099997362,28.56977800026656],[-81.41503599967628,28.56950999964388],[-81.41501899995785,28.569437000321507],[-81.41503099965341,28.56933900037351],[-81.4150159995848,28.569268999678524],[-81.4147839997812,28.568124999889147],[-81.41473500027571,28.567883000312285],[-81.41466099975754,28.567672999915512],[-81.41461800009986,28.567352999744788],[-81.41461100042714,28.567302999999974],[-81.41458700013771,28.566450999908888],[-81.41480899989557,28.565500999653867],[-81.41514199998149,28.564488999741847],[-81.41538899985369,28.56369900001071],[-81.41554899968727,28.56281100015707]]]},"properties":{"block_id":"120950187001021","school_id":"sch_orlando_science_elementary_charter","kids_est":229,"class":"green","shortest":{"len_m":1436.3,"mean_c":37.34,"peak_c":37.4,"dose":86.9},"coolest":{"len_m":1436.3,"mean_c":37.34,"peak_c":37.4,"dose":86.9},"delta_mean_c":0.0,"delta_dose_pct":0,"distance_mi":0.518,"status_now":"walk","status_rec":"walk","reason":"Shortest route already under threshold (dose 87).","safe_until_hour":null}},{"type":"Feature","geometry":{"type":"Polygon","coordinates":[[[-81.41396799982152,28.552933000258058],[-81.41396100014882,28.552690999681126],[-81.41383200027738,28.55269200020961],[-81.41369500001004,28.552692999949027],[-81.41370500005578,28.552924999993582],[-81.41390500007233,28.55292799999419],[-81.41396799982152,28.552933000258058]]]},"properties":{"block_id":"120950183002000","school_id":"sch_orlando_science_elementary_charter","kids_est":0,"class":"green","shortest":{"len_m":491.5,"mean_c":37.3,"peak_c":37.3,"dose":29.5},"coolest":{"len_m":491.5,"mean_c":37.3,"peak_c":37.3,"dose":29.5},"delta_mean_c":0.0,"delta_dose_pct":0,"distance_mi":0.24,"status_now":"walk","status_rec":"walk","reason":"Shortest route already under threshold (dose 30).","safe_until_hour":null}},{"type":"Feature","geometry":{"type":"Polygon","coordinates":[[[-81.42315099996566,28.55433399982412],[-81.42314099991991,28.55367400012743],[-81.42251800030408,28.553680000085965],[-81.42250999990814,28.55315299979777],[-81.42250800025832,28.553029999964696],[-81.42250599971018,28.552921999992805],[-81.42250999990814,28.552828999928305],[-81.42063699996433,28.552858999958104],[-81.42063600013944,28.552940999732915],[-81.42064299981213,28.55335400000473],[-81.42017500000698,28.553357999726217],[-81.42017900020494,28.55353300021543],[-81.42017900020494,28.553639999830153],[-81.42017900020494,28.55367600037665],[-81.42017900020494,28.553796000268274],[-81.42017900020494,28.554155999911682],[-81.42017900020494,28.55427600004531],[-81.42017900020494,28.554319000020428],[-81.42017900020494,28.554361999978042],[-81.42045500038947,28.55435999974186],[-81.42209700035458,28.55434400021814],[-81.42315099996566,28.55433399982412]]]},"properties":{"block_id":"120950187002033","school_id":"sch_orlando_science_elementary_charter","kids_est":0,"class":"green","shortest":{"len_m":1283.4,"mean_c":37.44,"peak_c":37.8,"dose":79.4},"coolest":{"len_m":1283.4,"mean_c":37.44,"peak_c":37.8,"dose":79.4},"delta_mean_c":0.0,"delta_dose_pct":0,"distance_mi":0.549,"status_now":"walk","status_rec":"walk","reason":"Shortest route already under threshold (dose 79).","safe_until_hour":null}},{"type":"Feature","geometry":{"type":"Polygon","coordinates":[[[-81.42526900013183,28.553445000141025],[-81.42526900013183,28.553029999964696],[-81.42526400010898,28.552897000246578],[-81.42526300028406,28.552802999632526],[-81.42394600000894,28.55280599963662],[-81.42250999990814,28.552828999928305],[-81.42250599971018,28.552921999992805],[-81.42250800025832,28.553029999964696],[-81.42250999990814,28.55315299979777],[-81.42251800030408,28.553680000085965],[-81.42314099991991,28.55367400012743],[-81.42315099996566,28.55433399982412],[-81.42209700035458,28.55434400021814],[-81.42045500038947,28.55435999974186],[-81.42017900020494,28.554361999978042],[-81.42017900020494,28.554319000020428],[-81.42017900020494,28.55427600004531],[-81.42017900020494,28.554155999911682],[-81.42017900020494,28.553796000268274],[-81.42017900020494,28.55367600037665],[-81.42017900020494,28.553639999830153],[-81.42017900020494,28.55353300021543],[-81.42017500000698,28.553357999726217],[-81.42064299981213,28.55335400000473],[-81.42063600013944,28.552940999732915],[-81.42063699996433,28.552858999958104],[-81.42022299968755,28.55286599970079],[-81.42007399972464,28.552861999960623],[-81.42007600027277,28.553002000245645],[-81.42007700009769,28.55306800019147],[-81.4200779999226,28.55315299979777],[-81.42007999957241,28.553362999969714],[-81.42008100029565,28.553407999782927],[-81.42008299994546,28.553493999635638],[-81.42008299994546,28.5535309999635],[-81.42008399977038,28.553642999810396],[-81.42008499959529,28.55368099981599],[-81.42008600031853,28.553799999973034],[-81.42008999961817,28.55415899987723],[-81.4200920001663,28.554279000007433],[-81.4200920001663,28.554321999981383],[-81.42009299999121,28.554364000214186],[-81.42009399981613,28.554450999797737],[-81.42009499964104,28.554493999701435],[-81.42009600036427,28.554566999919746],[-81.42009600036427,28.554586999873425],[-81.42010300003697,28.554865999896553],[-81.42010600041,28.55496000024686],[-81.42141299974107,28.55497700018375],[-81.42144999955097,28.555791000029263],[-81.42145700012199,28.55594099981812],[-81.42011999975539,28.55590400033718],[-81.4201209995803,28.556067999814207],[-81.4201270003264,28.55656299976562],[-81.42012899997621,28.556728000284245],[-81.42013200034927,28.55688900016809],[-81.42014099967179,28.557371999920214],[-81.42014499986976,28.55753400009063],[-81.42014599969467,28.557637000025494],[-81.42015200044077,28.557946999704022],[-81.42015400009058,28.558050999712357],[-81.42015400009058,28.558105999925623],[-81.42015699956532,28.55827100039295],[-81.42015800028854,28.558327000177123],[-81.42015999993835,28.558485000140397],[-81.42016599978615,28.55895999986517],[-81.42016900015919,28.559119000134736],[-81.42017099980902,28.55926300027581],[-81.42017800038003,28.559696999651997],[-81.42018099985475,28.55984200025202],[-81.42018099985475,28.55985999986087],[-81.42018099985475,28.559914999917993],[-81.42018199967967,28.55993399997408],[-81.42061900042101,28.559940000364804],[-81.42077199968355,28.559936999774965],[-81.4225419996952,28.559902999922294],[-81.42290699956817,28.559895999858465],[-81.42290200044363,28.55981199984494],[-81.42284999966677,28.55629899981815],[-81.42318000027797,28.556295000208387],[-81.42526599975879,28.55626999968496],[-81.42526900013183,28.555479999812416],[-81.42526900013183,28.555361999690213],[-81.42526900013183,28.553445000141025]]]},"properties":{"block_id":"120950187002031","school_id":"sch_orlando_science_elementary_charter","kids_est":111,"class":"green","shortest":{"len_m":1691.9,"mean_c":37.56,"peak_c":38.0,"dose":107.5},"coolest":{"len_m":1691.9,"mean_c":37.56,"peak_c":38.0,"dose":107.5},"delta_mean_c":0.0,"delta_dose_pct":0,"distance_mi":0.574,"status_now":"walk","status_rec":"walk","reason":"Shortest route already under threshold (dose 108).","safe_until_hour":null}},{"type":"Feature","geometry":{"type":"Polygon","coordinates":[[[-81.42668000011828,28.55408799961744],[-81.42667500009541,28.553864999690386],[-81.42667500009541,28.553843999871024],[-81.42666400022475,28.55318200000045],[-81.4266609998517,28.552955999732937],[-81.4266609998517,28.552936999995538],[-81.4266609998517,28.552897999984047],[-81.42666300039984,28.552799999628352],[-81.42656999961511,28.552799999628352],[-81.42656999961511,28.552882000238174],[-81.42657299998817,28.553086000169554],[-81.42658600040696,28.553843000142535],[-81.42658899988167,28.554035999641293],[-81.42657700018613,28.554086000165114],[-81.42668000011828,28.55408799961744]]]},"properties":{"block_id":"120950187002023","school_id":"sch_orlando_science_elementary_charter","kids_est":0,"class":"red","shortest":{"len_m":1823.6,"mean_c":37.62,"peak_c":38.2,"dose":117.6},"coolest":{"len_m":1823.6,"mean_c":37.62,"peak_c":38.2,"dose":117.6},"delta_mean_c":0.0,"delta_dose_pct":0,"distance_mi":0.849,"status_now":"walk","status_rec":"bus_eligible","reason":"Coolest route mean 37.6C exceeds threshold (110 C-min dose, actual 118).","safe_until_hour":"14:00"}},{"type":"Feature","geometry":{"type":"Polygon","coordinates":[[[-81.41800699961209,28.55052900034024],[-81.41800300031242,28.550386999611852],[-81.41799099971855,28.54996100022305],[-81.4179870004189,28.54981900030686],[-81.41721599976675,28.54982399992926],[-81.41694600032832,28.549826000251674],[-81.41519800005798,28.549847999849625],[-81.41490400033013,28.549848999616035],[-81.41421200021897,28.549853000259745],[-81.41413400040119,28.54985400002617],[-81.41405400003524,28.54985400002617],[-81.41384200032313,28.54985700011427],[-81.41385999986647,28.550265000255624],[-81.41386900008732,28.550569000199705],[-81.41404999983729,28.550566999891462],[-81.41412900037831,28.550566999891462],[-81.4148549999263,28.55055900023624],[-81.41490400033013,28.550557999687502],[-81.41559399989312,28.55055499961935],[-81.41723099983535,28.5505349996889],[-81.4175150004158,28.550531999620098],[-81.41800699961209,28.55052900034024]]]},"properties":{"block_id":"120950183002036","school_id":"sch_orlando_science_elementary_charter","kids_est":75,"class":"green","shortest":{"len_m":1161.2,"mean_c":37.38,"peak_c":37.6,"dose":70.7},"coolest":{"len_m":1161.2,"mean_c":37.38,"peak_c":37.6,"dose":70.7},"delta_mean_c":0.0,"delta_dose_pct":0,"distance_mi":0.451,"status_now":"walk","status_rec":"walk","reason":"Shortest route already under threshold (dose 71).","safe_until_hour":null}},{"type":"Feature","geometry":{"type":"Polygon","coordinates":[[[-81.41932700026022,28.5580670002508],[-81.41931100036672,28.5571900000451],[-81.41930999964347,28.557098999989513],[-81.41931200019164,28.556593000309512],[-81.41929899977285,28.556511999925974],[-81.4192469998943,28.55637399977192],[-81.41923299965059,28.556290999809427],[-81.41923600002364,28.555119999961867],[-81.4192400002216,28.554572000105765],[-81.4192469998943,28.553695999710584],[-81.41908000038802,28.553697000229512],[-81.41858200044567,28.553701999667798],[-81.418415999866,28.553703999916472],[-81.41841300039125,28.554611000286254],[-81.41841300039125,28.55468700037393],[-81.41840499999535,28.555128000059568],[-81.41839900014756,28.556295000208387],[-81.41840900019331,28.556378999872127],[-81.41844600000321,28.5564879999465],[-81.41847000029267,28.556597999610343],[-81.41847699996536,28.55670899964956],[-81.41848600018619,28.557213000168062],[-81.41848600018619,28.55732299986342],[-81.41848600018619,28.55743499962158],[-81.41849600023194,28.55778200030691],[-81.41849200003396,28.55799199992507],[-81.41849899970667,28.558021000372992],[-81.41851600032342,28.558047000169157],[-81.41855700033129,28.558072999958913],[-81.41858800029345,28.55808099983227],[-81.4186850003778,28.558078999666744],[-81.41881300042434,28.558075999812846],[-81.41919800038882,28.55806899962751],[-81.41932700026022,28.5580670002508]]]},"properties":{"block_id":"120950187002037","school_id":"sch_orlando_science_elementary_charter","kids_est":58,"class":"green","shortest":{"len_m":1429.8,"mean_c":37.47,"peak_c":37.8,"dose":88.9},"coolest":{"len_m":1429.8,"mean_c":37.47,"peak_c":37.8,"dose":88.9},"delta_mean_c":0.0,"delta_dose_pct":0,"distance_mi":0.355,"status_now":"walk","status_rec":"walk","reason":"Shortest route already under threshold (dose 89).","safe_until_hour":null}},{"type":"Feature","geometry":{"type":"Polygon","coordinates":[[[-81.41398500043827,28.555219000240722],[-81.4140010003318,28.55429800029167],[-81.41398500043827,28.553501000125166],[-81.41396799982152,28.552933000258058],[-81.41390500007233,28.55292799999419],[-81.41370500005578,28.552924999993582],[-81.41375899958413,28.554184999838174],[-81.41374400041383,28.555695999920953],[-81.41395000027816,28.555690999788304],[-81.41398500043827,28.555219000240722]]]},"properties":{"block_id":"120950187001033","school_id":"sch_orlando_science_elementary_charter","kids_est":0,"class":"green","shortest":{"len_m":507.7,"mean_c":37.3,"peak_c":37.4,"dose":30.6},"coolest":{"len_m":507.7,"mean_c":37.3,"peak_c":37.4,"dose":30.6},"delta_mean_c":0.0,"delta_dose_pct":0,"distance_mi":0.144,"status_now":"walk","status_rec":"walk","reason":"Shortest route already under threshold (dose 31).","safe_until_hour":null}},{"type":"Feature","geometry":{"type":"Polygon","coordinates":[[[-81.42388900010754,28.549927000305036],[-81.42388499990957,28.549441000230154],[-81.42388200043483,28.549044999709114],[-81.42386700036623,28.548051000254247],[-81.42386700036623,28.54798399974708],[-81.42386900001605,28.547498999963388],[-81.42386900001605,28.54745399999228],[-81.42386900001605,28.547416999896384],[-81.42310400010997,28.54741399973877],[-81.4211340000818,28.54743199989417],[-81.42019099990051,28.547428999736972],[-81.4200639996789,28.547587000272248],[-81.42006500040212,28.54762199994424],[-81.42006600022704,28.54786999983444],[-81.420070000425,28.54850900030644],[-81.42007100024992,28.548613999946433],[-81.42007299989973,28.54886199986794],[-81.42007299989973,28.54890399991135],[-81.42007299989973,28.549030999715253],[-81.42007399972464,28.54907400025412],[-81.42007399972464,28.549248000200077],[-81.42007500044788,28.54976999989126],[-81.42007600027277,28.549945000030906],[-81.42083799980578,28.549939999625163],[-81.4214710003657,28.54993599977378],[-81.42222000037825,28.549938000094006],[-81.4231259998513,28.549931999922308],[-81.42388900010754,28.549927000305036]]]},"properties":{"block_id":"120950183002042","school_id":"sch_orlando_science_elementary_charter","kids_est":0,"class":"red","shortest":{"len_m":1790.9,"mean_c":37.54,"peak_c":37.9,"dose":113.2},"coolest":{"len_m":1790.9,"mean_c":37.54,"peak_c":37.9,"dose":113.2},"delta_mean_c":0.0,"delta_dose_pct":0,"distance_mi":0.752,"status_now":"walk","status_rec":"bus_eligible","reason":"Coolest route mean 37.5C exceeds threshold (110 C-min dose, actual 113).","safe_until_hour":"14:00"}},{"type":"Feature","geometry":{"type":"Polygon","coordinates":[[[-81.4179870004189,28.54981900030686],[-81.4179859996957,28.549681000060332],[-81.41798300022094,28.549266999813995],[-81.41798300022094,28.54922599968768],[-81.41797999984789,28.549207000066357],[-81.41796300012948,28.549169999797304],[-81.4179380000151,28.549144000176245],[-81.41789600018231,28.549120000095453],[-81.41785299962629,28.549112000330375],[-81.4175990000814,28.549113999877143],[-81.41710299978882,28.549120000095453],[-81.41656399983857,28.54912099986876],[-81.4162190000571,28.549121999642068],[-81.41579899993252,28.54912600031347],[-81.41453899955881,28.549141000067827],[-81.41412000015748,28.549145999722427],[-81.41404099961645,28.549145999722427],[-81.41381300001082,28.549148999830702],[-81.41384200032313,28.54985700011427],[-81.41405400003524,28.54985400002617],[-81.41413400040119,28.54985400002617],[-81.41421200021897,28.549853000259745],[-81.41490400033013,28.549848999616035],[-81.41519800005798,28.549847999849625],[-81.41694600032832,28.549826000251674],[-81.41721599976675,28.54982399992926],[-81.4179870004189,28.54981900030686]]]},"properties":{"block_id":"120950183002037","school_id":"sch_orlando_science_elementary_charter","kids_est":31,"class":"green","shortest":{"len_m":1161.2,"mean_c":37.38,"peak_c":37.6,"dose":70.7},"coolest":{"len_m":1161.2,"mean_c":37.38,"peak_c":37.6,"dose":70.7},"delta_mean_c":0.0,"delta_dose_pct":0,"distance_mi":0.495,"status_now":"walk","status_rec":"walk","reason":"Shortest route already under threshold (dose 71).","safe_until_hour":null}},{"type":"Feature","geometry":{"type":"Polygon","coordinates":[[[-81.4293570003262,28.55156899963828],[-81.42937400004465,28.55082499988724],[-81.42193400014797,28.550896999736537],[-81.4219430003688,28.551675999670714],[-81.42007200007481,28.551693000137814],[-81.42007399972464,28.55187800007711],[-81.42007500044788,28.552027000171538],[-81.42007899974752,28.55247699999228],[-81.42007999957241,28.552519999913013],[-81.42007700009769,28.552626999768147],[-81.42007600027277,28.552649000359054],[-81.42022799971042,28.552647999830164],[-81.42068899984288,28.552644999821577],[-81.42140900044141,28.552617999740303],[-81.42185299995711,28.55261099998108],[-81.42276299962813,28.55259899994191],[-81.42386999984096,28.55257499985953],[-81.42495799978721,28.552568000097445],[-81.4252730003298,28.552559999805236],[-81.42927500031044,28.552528999949295],[-81.42936999984668,28.55253100022026],[-81.42936800019687,28.552446999853643],[-81.42936300017399,28.552067999996375],[-81.4293570003262,28.55156899963828]]]},"properties":{"block_id":"120950183002028","school_id":"sch_orlando_science_elementary_charter","kids_est":7,"class":"green","shortest":{"len_m":1664.9,"mean_c":37.57,"peak_c":38.1,"dose":105.8},"coolest":{"len_m":1664.9,"mean_c":37.57,"peak_c":38.1,"dose":105.8},"delta_mean_c":0.0,"delta_dose_pct":0,"distance_mi":0.794,"status_now":"walk","status_rec":"walk","reason":"Shortest route already under threshold (dose 106).","safe_until_hour":null}},{"type":"Feature","geometry":{"type":"Polygon","coordinates":[[[-81.41801199963494,28.550808000069026],[-81.41800999998513,28.550736000158864],[-81.41800699961209,28.55052900034024],[-81.4175150004158,28.550531999620098],[-81.41723099983535,28.5505349996889],[-81.41559399989312,28.55055499961935],[-81.41490400033013,28.550557999687502],[-81.4148549999263,28.55055900023624],[-81.41412900037831,28.550566999891462],[-81.41404999983729,28.550566999891462],[-81.41386900008732,28.550569000199705],[-81.41388699963066,28.551176000068406],[-81.41394699990512,28.552194999929792],[-81.41396100014882,28.552690999681126],[-81.41462599959745,28.552689999941713],[-81.41462099957458,28.552590999652054],[-81.41461800009986,28.552178000332805],[-81.41516299989789,28.552173000033022],[-81.41516399972281,28.552293999802696],[-81.41516600027094,28.552584999631538],[-81.41516999957058,28.552689000202285],[-81.41648400037096,28.552662999871927],[-81.41800400013734,28.552650999838736],[-81.41800400013734,28.55257499985953],[-81.41800699961209,28.552037999741213],[-81.4180080003353,28.551859999892567],[-81.4180080003353,28.55180000004423],[-81.4180080003353,28.551624000081524],[-81.41800900016023,28.551564999848832],[-81.41800900016023,28.551357000329595],[-81.41801199963494,28.550808000069026]]]},"properties":{"block_id":"120950183002033","school_id":"sch_orlando_science_elementary_charter","kids_est":22,"class":"green","shortest":{"len_m":1029.0,"mean_c":37.34,"peak_c":37.5,"dose":62.3},"coolest":{"len_m":1029.0,"mean_c":37.34,"peak_c":37.5,"dose":62.3},"delta_mean_c":0.0,"delta_dose_pct":0,"distance_mi":0.362,"status_now":"walk","status_rec":"walk","reason":"Shortest route already under threshold (dose 62).","safe_until_hour":null}},{"type":"Feature","geometry":{"type":"Polygon","coordinates":[[[-81.41396100014882,28.552690999681126],[-81.41394699990512,28.552194999929792],[-81.41388699963066,28.551176000068406],[-81.41386900008732,28.550569000199705],[-81.41385999986647,28.550265000255624],[-81.41384200032313,28.54985700011427],[-81.41381700020878,28.549857999880594],[-81.41361399981918,28.549866000378103],[-81.41361399981918,28.550193999737346],[-81.41361399981918,28.550582000229653],[-81.41369500001004,28.552692999949027],[-81.41383200027738,28.55269200020961],[-81.41396100014882,28.552690999681126]]]},"properties":{"block_id":"120950183002035","school_id":"sch_orlando_science_elementary_charter","kids_est":0,"class":"green","shortest":{"len_m":710.0,"mean_c":37.3,"peak_c":37.3,"dose":42.5},"coolest":{"len_m":710.0,"mean_c":37.3,"peak_c":37.3,"dose":42.5},"delta_mean_c":0.0,"delta_dose_pct":0,"distance_mi":0.341,"status_now":"walk","status_rec":"walk","reason":"Shortest route already under threshold (dose 42).","safe_until_hour":null}},{"type":"Feature","geometry":{"type":"Polygon","coordinates":[[[-81.40982600009879,28.558062999919166],[-81.40982400044896,28.557943000156865],[-81.40982199990083,28.557770000068142],[-81.40953099964769,28.557777000273344],[-81.4090519999719,28.557777000273344],[-81.40887299987175,28.557777999964475],[-81.40875900006891,28.55779200037341],[-81.40870299999243,28.557803000129773],[-81.40859400021249,28.557836999871686],[-81.40849100028032,28.557882999829896],[-81.40839599984577,28.557940000299137],[-81.40806500030797,28.558186000184516],[-81.40750700009114,28.558615000062147],[-81.40741000000675,28.558674000289244],[-81.40730600024969,28.558722000035104],[-81.40719499992161,28.558756000269184],[-81.40708000029389,28.55877600021611],[-81.407039000286,28.55877800036839],[-81.40696300011801,28.55878199988387],[-81.4063479999998,28.558788000340275],[-81.40627000018199,28.558786000188174],[-81.4062719998318,28.558977999624883],[-81.40627799967957,28.55939200035002],[-81.40627799967957,28.55955399977887],[-81.40627799967957,28.559746999854287],[-81.40637899996193,28.559743000375462],[-81.40703400026314,28.5596900003635],[-81.40704799960852,28.5596900003635],[-81.40746000023549,28.5596900003635],[-81.40759199958165,28.559681000150405],[-81.40765000020629,28.559666000319513],[-81.40772600037427,28.559640000134188],[-81.4078059998419,28.559606999859334],[-81.40788799985765,28.55956599981435],[-81.40795900000276,28.55951699998972],[-81.4083709997314,28.559156000063727],[-81.40866000033473,28.558897000287402],[-81.40873599960439,28.558840000336346],[-81.40876999993958,28.558818999931315],[-81.40891600042777,28.55875900010364],[-81.4090529997968,28.55872100035295],[-81.40920299958464,28.558699000241823],[-81.40972900001441,28.558652000168294],[-81.40982199990083,28.558637000190828],[-81.40982299972573,28.558462999979945],[-81.40982600009879,28.558062999919166]]]},"properties":{"block_id":"120950187001031","school_id":"sch_orlando_science_elementary_charter","kids_est":33,"class":"green","shortest":{"len_m":1690.8,"mean_c":37.3,"peak_c":37.3,"dose":101.5},"coolest":{"len_m":1690.8,"mean_c":37.3,"peak_c":37.3,"dose":101.4},"delta_mean_c":0.0,"delta_dose_pct":0,"distance_mi":0.349,"status_now":"walk","status_rec":"walk","reason":"Shortest route already under threshold (dose 102).","safe_until_hour":null}},{"type":"Feature","geometry":{"type":"Polygon","coordinates":[[[-81.41516999957058,28.552689000202285],[-81.41516600027094,28.552584999631538],[-81.41516399972281,28.552293999802696],[-81.41516299989789,28.552173000033022],[-81.41461800009986,28.552178000332805],[-81.41462099957458,28.552590999652054],[-81.41462599959745,28.552689999941713],[-81.41514600017945,28.552689000202285],[-81.41516999957058,28.552689000202285]]]},"properties":{"block_id":"120950183002034","school_id":"sch_orlando_science_elementary_charter","kids_est":0,"class":"green","shortest":{"len_m":654.8,"mean_c":37.3,"peak_c":37.3,"dose":39.2},"coolest":{"len_m":654.8,"mean_c":37.3,"peak_c":37.3,"dose":39.2},"delta_mean_c":0.0,"delta_dose_pct":0,"distance_mi":0.285,"status_now":"walk","status_rec":"walk","reason":"Shortest route already under threshold (dose 39).","safe_until_hour":null}},{"type":"Feature","geometry":{"type":"Polygon","coordinates":[[[-81.42018199967967,28.55993399997408],[-81.42018099985475,28.559914999917993],[-81.42018099985475,28.55985999986087],[-81.42018099985475,28.55984200025202],[-81.42017800038003,28.559696999651997],[-81.42017099980902,28.55926300027581],[-81.42016900015919,28.559119000134736],[-81.42016599978615,28.55895999986517],[-81.42015999993835,28.558485000140397],[-81.42015800028854,28.558327000177123],[-81.42015699956532,28.55827100039295],[-81.42015400009058,28.558105999925623],[-81.42015400009058,28.558050999712357],[-81.42013200034927,28.558050999712357],[-81.42006700005196,28.558052000189903],[-81.42004600013556,28.558052999878417],[-81.41990200019549,28.558055000044437],[-81.41947000037537,28.558063999607565],[-81.41932700026022,28.5580670002508],[-81.41919800038882,28.55806899962751],[-81.41881300042434,28.558075999812846],[-81.4186850003778,28.558078999666744],[-81.41858800029345,28.55808099983227],[-81.41855700033129,28.558072999958913],[-81.41851600032342,28.558047000169157],[-81.41849899970667,28.558021000372992],[-81.41849200003396,28.55799199992507],[-81.41849600023194,28.55778200030691],[-81.41848600018619,28.55743499962158],[-81.41848600018619,28.55732299986342],[-81.41848600018619,28.557213000168062],[-81.41847699996536,28.55670899964956],[-81.41847000029267,28.556597999610343],[-81.41844600000321,28.5564879999465],[-81.41840900019331,28.556378999872127],[-81.41839900014756,28.556295000208387],[-81.41840499999535,28.555128000059568],[-81.41841300039125,28.55468700037393],[-81.41841300039125,28.554611000286254],[-81.418415999866,28.553703999916472],[-81.4184169996909,28.5535749999739],[-81.41842000006396,28.553187999987014],[-81.41842300043699,28.553059999937247],[-81.41842300043699,28.552997999721562],[-81.41842599991175,28.552880999711483],[-81.41800499996225,28.552861999960623],[-81.41800099976429,28.55296699999456],[-81.41799900011448,28.553297999942462],[-81.41799599974144,28.5535590003309],[-81.4179859996957,28.554762999617743],[-81.41797900002298,28.5555660003398],[-81.41797800019808,28.55570499968569],[-81.41797599964993,28.555967999836355],[-81.41797300017521,28.556368999671474],[-81.41805600001588,28.55636799996698],[-81.41806500023671,28.556960000116987],[-81.41807399955924,28.55758000018123],[-81.41808000030534,28.557992999614207],[-81.41808199995515,28.558166000125496],[-81.41848500036129,28.558159999633645],[-81.41868899967746,28.55815300024287],[-81.42005600018129,28.558138999881937],[-81.42006799987686,28.558475000139733],[-81.42008899979325,28.559844000384032],[-81.42008999961817,28.559893000056412],[-81.4200920001663,28.559936000104354],[-81.4201559997404,28.55993399997408],[-81.42018199967967,28.55993399997408]]]},"properties":{"block_id":"120950187002034","school_id":"sch_orlando_science_elementary_charter","kids_est":7,"class":"green","shortest":{"len_m":1009.3,"mean_c":37.36,"peak_c":37.5,"dose":61.4},"coolest":{"len_m":1009.3,"mean_c":37.36,"peak_c":37.5,"dose":61.4},"delta_mean_c":0.0,"delta_dose_pct":0,"distance_mi":0.322,"status_now":"walk","status_rec":"walk","reason":"Shortest route already under threshold (dose 61).","safe_until_hour":null}}]}