{"type":"FeatureCollection","features":[{"type":"Feature","geometry":{"type":"Polygon","coordinates":[[[-81.39772999974517,28.602994999964924],[-81.39772999974517,28.602981000051226],[-81.39771499967655,28.602984000201907],[-81.39770100033117,28.602994999964924],[-81.39768000041477,28.60299700006512],[-81.39761799959217,28.602994999964924],[-81.39610200002375,28.60297599979989],[-81.39521699956877,28.602972000387364],[-81.39388400029844,28.60295899973241],[-81.39355399968724,28.60295200016771],[-81.39351500022751,28.603537999741505],[-81.39351199985445,28.603684999934703],[-81.39352000025039,28.603846999764624],[-81.39361200031189,28.60384499968061],[-81.39554100033217,28.60386000030976],[-81.39749000044397,28.60385700018409],[-81.39752899990371,28.603849999890585],[-81.39758699963002,28.603822000289163],[-81.39762400033828,28.60378899967894],[-81.39768600026254,28.60367600033119],[-81.3977180000496,28.603154999972823],[-81.39772999974517,28.602994999964924]]]},"properties":{"block_id":"120950153003002","school_id":"sch_pinecrest_creek_charter","kids_est":0,"class":"green","shortest":{"len_m":665.6,"mean_c":37.5,"peak_c":37.5,"dose":41.4},"coolest":{"len_m":665.6,"mean_c":37.5,"peak_c":37.5,"dose":41.4},"delta_mean_c":0.0,"delta_dose_pct":0,"distance_mi":0.197,"status_now":"walk","status_rec":"walk","reason":"Shortest route already under threshold (dose 41).","safe_until_hour":null}},{"type":"Feature","geometry":{"type":"Polygon","coordinates":[[[-81.4081029999428,28.600506000360998],[-81.4082579997535,28.600356000227077],[-81.40799800036082,28.600354000076614],[-81.40721800038615,28.60034799962498],[-81.40695800009516,28.600346000263077],[-81.40688299975207,28.600345000187758],[-81.40685599998788,28.60034799962498],[-81.4068140001551,28.60036500011494],[-81.40669000030655,28.600481000090653],[-81.40648400044222,28.600677000221044],[-81.4061310002648,28.601019999963846],[-81.40600499986812,28.601141000344057],[-81.40577800008738,28.601362000098845],[-81.40597399990598,28.601523000291294],[-81.4060390002033,28.60157599973249],[-81.40610399960232,28.601629999998686],[-81.40616899989963,28.60168300017455],[-81.40623500002187,28.601736000323687],[-81.4063000003192,28.60178999971896],[-81.40636600044144,28.601842999814178],[-81.40643099984045,28.601895999882604],[-81.40657200030577,28.60200999962674],[-81.40657499978049,28.601996000370452],[-81.40666400036727,28.601909999940865],[-81.40670000035229,28.6018760002468],[-81.40671700007073,28.601859000001298],[-81.4068219996527,28.60175700004803],[-81.40687400042955,28.60170499997181],[-81.4069260003081,28.601653999932815],[-81.40695899992005,28.601621000219115],[-81.40703099989008,28.60155299984433],[-81.40705900037749,28.601525999694914],[-81.40710500040825,28.601479999891787],[-81.40713499964714,28.601451000382674],[-81.4072440003254,28.601342999638543],[-81.407292000006,28.6012979998215],[-81.40733100036405,28.60125900038517],[-81.4074479996416,28.60114499982629],[-81.40748799982457,28.601106999612533],[-81.40764199981037,28.60095600026693],[-81.4081029999428,28.600506000360998]]]},"properties":{"block_id":"120950125001009","school_id":"sch_pinecrest_creek_charter","kids_est":0,"class":"green","shortest":{"len_m":1529.2,"mean_c":37.54,"peak_c":37.6,"dose":96.1},"coolest":{"len_m":1529.2,"mean_c":37.54,"peak_c":37.6,"dose":96.1},"delta_mean_c":0.0,"delta_dose_pct":0,"distance_mi":0.577,"status_now":"walk","status_rec":"walk","reason":"Shortest route already under threshold (dose 96).","safe_until_hour":null}},{"type":"Feature","geometry":{"type":"Polygon","coordinates":[[[-81.40718599970077,28.60370500001488],[-81.4072359999295,28.603645999806904],[-81.40718499987587,28.60360699966463],[-81.4071389998451,28.60357000038586],[-81.40710600023316,28.6035450000558],[-81.40692499958486,28.603401999851677],[-81.40678400001788,28.60328900008775],[-81.40673999963695,28.603260000289243],[-81.40671600024581,28.603286999993102],[-81.40667600006283,28.603334999887647],[-81.40708399959354,28.603624999671446],[-81.40718599970077,28.60370500001488]]]},"properties":{"block_id":"120950125001000","school_id":"sch_pinecrest_creek_charter","kids_est":0,"class":"green","shortest":{"len_m":1002.7,"mean_c":37.52,"peak_c":37.6,"dose":62.8},"coolest":{"len_m":1002.7,"mean_c":37.52,"peak_c":37.6,"dose":62.8},"delta_mean_c":0.0,"delta_dose_pct":0,"distance_mi":0.526,"status_now":"walk","status_rec":"walk","reason":"Shortest route already under threshold (dose 63).","safe_until_hour":null}},{"type":"Feature","geometry":{"type":"Polygon","coordinates":[[[-81.40645199975685,28.602127000210988],[-81.40657200030577,28.60200999962674],[-81.40643099984045,28.601895999882604],[-81.40636600044144,28.601842999814178],[-81.4063000003192,28.60178999971896],[-81.40623500002187,28.601736000323687],[-81.40616899989963,28.60168300017455],[-81.40610399960232,28.601629999998686],[-81.4060390002033,28.60157599973249],[-81.40597399990598,28.601523000291294],[-81.40577800008738,28.601362000098845],[-81.4054979997049,28.60164400009239],[-81.40546900029089,28.601666999960564],[-81.40540700036662,28.60170700009657],[-81.40530500025937,28.60175399986231],[-81.40519599958112,28.601787000322897],[-81.40499700028779,28.60181999998445],[-81.40471299970736,28.60185399969663],[-81.40444400009385,28.601880999761786],[-81.40548099998647,28.60256499962372],[-81.40580300020174,28.602778999962112],[-81.40595299998957,28.602621000277736],[-81.40608299968592,28.602484999989713],[-81.40626699980892,28.60230300008278],[-81.40641499994695,28.602160999823834],[-81.40645199975685,28.602127000210988]]]},"properties":{"block_id":"120950125001008","school_id":"sch_pinecrest_creek_charter","kids_est":3,"class":"green","shortest":{"len_m":1010.9,"mean_c":37.5,"peak_c":37.6,"dose":63.2},"coolest":{"len_m":1010.9,"mean_c":37.5,"peak_c":37.6,"dose":63.2},"delta_mean_c":0.0,"delta_dose_pct":0,"distance_mi":0.479,"status_now":"walk","status_rec":"walk","reason":"Shortest route already under threshold (dose 63).","safe_until_hour":null}},{"type":"Feature","geometry":{"type":"Polygon","coordinates":[[[-81.41404599963931,28.596061000310954],[-81.41406499990589,28.59595700001712],[-81.41404099961645,28.595940000391593],[-81.41398399971503,28.595901999873202],[-81.41391500011807,28.59591800017617],[-81.41383999977499,28.595951000103174],[-81.41386499988936,28.596022999836304],[-81.41388400015593,28.596137999756902],[-81.41386499988936,28.59621000015066],[-81.413727999622,28.59618799999175],[-81.41370300040596,28.596110999793677],[-81.41371599992644,28.596006000221465],[-81.41382800007942,28.595798000210795],[-81.413847000346,28.595764000116823],[-81.41386300023954,28.595751000147533],[-81.41348699959758,28.59574899990943],[-81.41050800016417,28.595726000323538],[-81.41051400001196,28.596377000238697],[-81.4115309998131,28.596369000122472],[-81.41254900033746,28.5963610000056],[-81.41255699983506,28.596962000088443],[-81.41256100003302,28.597307999649587],[-81.41259100017027,28.59731300017062],[-81.41264300004879,28.597321000214972],[-81.41278600016393,28.597315999694388],[-81.41300500044706,28.5972659999961],[-81.41357799983416,28.596716000168183],[-81.413727999622,28.59666700029479],[-81.41386499988936,28.59664999999542],[-81.41389000000372,28.596546000284338],[-81.41380999963778,28.596511999643663],[-81.41377200000292,28.596496000219805],[-81.4137839996985,28.596435999795485],[-81.41381499966064,28.59640300002074],[-81.41394000023243,28.5963920003564],[-81.41402700027106,28.596303999845546],[-81.41402899992089,28.59627599981098],[-81.41404599963931,28.596061000310954]]]},"properties":{"block_id":"120950125001019","school_id":"sch_pinecrest_creek_charter","kids_est":0,"class":"red","shortest":{"len_m":1978.0,"mean_c":37.54,"peak_c":37.6,"dose":124.6},"coolest":{"len_m":1978.0,"mean_c":37.54,"peak_c":37.6,"dose":124.6},"delta_mean_c":0.0,"delta_dose_pct":0,"distance_mi":1.036,"status_now":"walk","status_rec":"bus_eligible","reason":"Coolest route mean 37.5C exceeds threshold (110 C-min dose, actual 125).","safe_until_hour":"14:00"}},{"type":"Feature","geometry":{"type":"Polygon","coordinates":[[[-81.40387900020431,28.605804999862617],[-81.40388199967904,28.60572500032947],[-81.40369599990622,28.605764999709322],[-81.40343399996539,28.605813000049157],[-81.40309599985659,28.60586799973797],[-81.40278200003723,28.605910999919104],[-81.40271799956481,28.6068819997824],[-81.40266599968626,28.607663000017745],[-81.4028919996421,28.607669000051583],[-81.40376899970114,28.60766600003474],[-81.40379100034076,28.60714999979851],[-81.40387500000635,28.60586599969242],[-81.40387900020431,28.605804999862617]]]},"properties":{"block_id":"120950152021022","school_id":"sch_pinecrest_creek_charter","kids_est":3,"class":"green","shortest":{"len_m":647.9,"mean_c":37.5,"peak_c":37.5,"dose":40.2},"coolest":{"len_m":647.9,"mean_c":37.5,"peak_c":37.5,"dose":40.2},"delta_mean_c":0.0,"delta_dose_pct":0,"distance_mi":0.323,"status_now":"walk","status_rec":"walk","reason":"Shortest route already under threshold (dose 40).","safe_until_hour":null}},{"type":"Feature","geometry":{"type":"Polygon","coordinates":[[[-81.40171400018245,28.605436000059434],[-81.40174799961935,28.604912999689198],[-81.40088999982686,28.604886999646588],[-81.40091199956815,28.60453699966014],[-81.40069200035845,28.604535000377947],[-81.40056900033481,28.604870999920486],[-81.4003519997015,28.604880000210333],[-81.40036599994521,28.60466000000231],[-81.40040799977801,28.603983999907793],[-81.40041799982374,28.603822000289163],[-81.40035300042474,28.603805999612188],[-81.4004200003719,28.602752000127722],[-81.39774900001174,28.602697999649422],[-81.39772999974517,28.602981000051226],[-81.39772999974517,28.602994999964924],[-81.3977180000496,28.603154999972823],[-81.39768600026254,28.60367600033119],[-81.39762400033828,28.60378899967894],[-81.39758699963002,28.603822000289163],[-81.39752899990371,28.603849999890585],[-81.39749000044397,28.60385700018409],[-81.39554100033217,28.60386000030976],[-81.39361200031189,28.60384499968061],[-81.39352000025039,28.603846999764624],[-81.3935219999002,28.60386599977209],[-81.39353199994594,28.603996999647283],[-81.39357200012891,28.604255000332667],[-81.39358200017465,28.604425999612463],[-81.39357700015177,28.60459700019129],[-81.39353399959577,28.605015999764372],[-81.39346900019675,28.60566000031895],[-81.39339399985369,28.606392000104027],[-81.39335500039392,28.606707999723724],[-81.39335000037107,28.606820999753825],[-81.39335899969358,28.60689699997795],[-81.39338299998302,28.60698300026894],[-81.39370000017544,28.606646000367437],[-81.39408900033784,28.60633399984598],[-81.39449500021873,28.60608099963761],[-81.39520800024624,28.605827999608657],[-81.39578099963337,28.605742999973437],[-81.39748799989582,28.605756000283975],[-81.39837099980268,28.60576199963804],[-81.39903699997454,28.605759000355356],[-81.40047300007534,28.605752000188566],[-81.40169999993876,28.605775999969865],[-81.40171400018245,28.605436000059434]]]},"properties":{"block_id":"120950153003001","school_id":"sch_pinecrest_creek_charter","kids_est":1,"class":"green","shortest":{"len_m":369.7,"mean_c":37.5,"peak_c":37.5,"dose":23.0},"coolest":{"len_m":369.7,"mean_c":37.5,"peak_c":37.5,"dose":23.0},"delta_mean_c":0.0,"delta_dose_pct":0,"distance_mi":0.069,"status_now":"walk","status_rec":"walk","reason":"Shortest route already under threshold (dose 23).","safe_until_hour":null}},{"type":"Feature","geometry":{"type":"Polygon","coordinates":[[[-81.40283100044104,28.605129000037024],[-81.40289900021308,28.60394299980882],[-81.40246400001992,28.60394099972669],[-81.40181299991666,28.603932000145047],[-81.40174799961935,28.604912999689198],[-81.40171400018245,28.605436000059434],[-81.40169999993876,28.605775999969865],[-81.40192699971948,28.605781000087948],[-81.40279499955771,28.605738999877545],[-81.40280499960345,28.605489999919232],[-81.40283100044104,28.605129000037024]]]},"properties":{"block_id":"120950153003003","school_id":"sch_pinecrest_creek_charter","kids_est":3,"class":"green","shortest":{"len_m":536.1,"mean_c":37.5,"peak_c":37.5,"dose":33.3},"coolest":{"len_m":536.1,"mean_c":37.5,"peak_c":37.5,"dose":33.3},"delta_mean_c":0.0,"delta_dose_pct":0,"distance_mi":0.235,"status_now":"walk","status_rec":"walk","reason":"Shortest route already under threshold (dose 33).","safe_until_hour":null}},{"type":"Feature","geometry":{"type":"Polygon","coordinates":[[[-81.40391900038728,28.604973000005618],[-81.40398499961121,28.60395100013721],[-81.40376700005133,28.60394900005517],[-81.40311599994807,28.603943999849903],[-81.40289900021308,28.60394299980882],[-81.40283100044104,28.605129000037024],[-81.40280499960345,28.605489999919232],[-81.40279499955771,28.605738999877545],[-81.40292199977931,28.60573599980559],[-81.4036809998376,28.60562300018578],[-81.40389500009783,28.60556400026623],[-81.40389599992275,28.60554999990615],[-81.40391900038728,28.604973000005618]]]},"properties":{"block_id":"120950153003005","school_id":"sch_pinecrest_creek_charter","kids_est":0,"class":"green","shortest":{"len_m":767.9,"mean_c":37.5,"peak_c":37.5,"dose":47.9},"coolest":{"len_m":767.9,"mean_c":37.5,"peak_c":37.5,"dose":47.9},"delta_mean_c":0.0,"delta_dose_pct":0,"distance_mi":0.301,"status_now":"walk","status_rec":"walk","reason":"Shortest route already under threshold (dose 48).","safe_until_hour":null}},{"type":"Feature","geometry":{"type":"Polygon","coordinates":[[[-81.40501800020418,28.60495300016681],[-81.40508199977829,28.6039629998399],[-81.40403599966483,28.60395400026013],[-81.40398499961121,28.60395100013721],[-81.40391900038728,28.604973000005618],[-81.40389599992275,28.60554999990615],[-81.40389500009783,28.60556400026623],[-81.40460099955435,28.605354000190072],[-81.40501400000622,28.60514899984234],[-81.40501400000622,28.605129000037024],[-81.40501800020418,28.60495300016681]]]},"properties":{"block_id":"120950153003006","school_id":"sch_pinecrest_creek_charter","kids_est":1,"class":"green","shortest":{"len_m":713.5,"mean_c":37.5,"peak_c":37.5,"dose":44.5},"coolest":{"len_m":713.5,"mean_c":37.5,"peak_c":37.5,"dose":44.5},"delta_mean_c":0.0,"delta_dose_pct":0,"distance_mi":0.367,"status_now":"walk","status_rec":"walk","reason":"Shortest route already under threshold (dose 44).","safe_until_hour":null}},{"type":"Feature","geometry":{"type":"Polygon","coordinates":[[[-81.40169499991589,28.60591299996379],[-81.40169999993876,28.605775999969865],[-81.40047300007534,28.605752000188566],[-81.39903699997454,28.605759000355356],[-81.39837099980268,28.60576199963804],[-81.39748799989582,28.605756000283975],[-81.39578099963337,28.605742999973437],[-81.39520800024624,28.605827999608657],[-81.39449500021873,28.60608099963761],[-81.39408900033784,28.60633399984598],[-81.39370000017544,28.606646000367437],[-81.39338299998302,28.60698300026894],[-81.39338999965572,28.607006999769027],[-81.39344200043257,28.60711600022279],[-81.39365199959654,28.606867000373363],[-81.39411899957678,28.60645200036443],[-81.39449900041669,28.606218000022423],[-81.39515800001755,28.60595700014841],[-81.3956209997998,28.605874999897026],[-81.39596800012944,28.605866999715207],[-81.3962810001239,28.605852000161267],[-81.39746299978148,28.60588000001039],[-81.39764600007958,28.60588200005561],[-81.39834400003849,28.60587099980615],[-81.39904399964723,28.60588000001039],[-81.40169499991589,28.60591299996379]]]},"properties":{"block_id":"120950153003000","school_id":"sch_pinecrest_creek_charter","kids_est":0,"class":"green","shortest":{"len_m":331.1,"mean_c":37.5,"peak_c":37.5,"dose":20.6},"coolest":{"len_m":331.1,"mean_c":37.5,"peak_c":37.5,"dose":20.6},"delta_mean_c":0.0,"delta_dose_pct":0,"distance_mi":0.181,"status_now":"walk","status_rec":"walk","reason":"Shortest route already under threshold (dose 21).","safe_until_hour":null}},{"type":"Feature","geometry":{"type":"Polygon","coordinates":[[[-81.40665099994848,28.604021999869804],[-81.40663699970479,28.60401100021429],[-81.40657700032862,28.60398599998916],[-81.40649100011491,28.60396900008503],[-81.40575600034607,28.60396599996253],[-81.40508199977829,28.6039629998399],[-81.40501800020418,28.60495300016681],[-81.40501400000622,28.605129000037024],[-81.40501400000622,28.60514899984234],[-81.40516200014423,28.605095999837385],[-81.40607000016543,28.604526000058495],[-81.40665099994848,28.604021999869804]]]},"properties":{"block_id":"120950153003007","school_id":"sch_pinecrest_creek_charter","kids_est":0,"class":"green","shortest":{"len_m":872.0,"mean_c":37.5,"peak_c":37.6,"dose":54.5},"coolest":{"len_m":872.0,"mean_c":37.5,"peak_c":37.6,"dose":54.5},"delta_mean_c":0.0,"delta_dose_pct":0,"distance_mi":0.438,"status_now":"walk","status_rec":"walk","reason":"Shortest route already under threshold (dose 54).","safe_until_hour":null}},{"type":"Feature","geometry":{"type":"Polygon","coordinates":[[[-81.40775999981112,28.602944999813918],[-81.40761900024414,28.60284800038372],[-81.40740900018186,28.6026800002725],[-81.40733300001386,28.602619000170364],[-81.40704299958564,28.602383999911265],[-81.40678099964482,28.60217699996254],[-81.40671200004785,28.602122999977443],[-81.40657200030577,28.60200999962674],[-81.40645199975685,28.602127000210988],[-81.40641499994695,28.602160999823834],[-81.40626699980892,28.60230300008278],[-81.40608299968592,28.602484999989713],[-81.40595299998957,28.602621000277736],[-81.40580300020174,28.602778999962112],[-81.40597300008106,28.602894000376686],[-81.40624500006763,28.603079000196583],[-81.40630500034209,28.603088999900503],[-81.40654700019141,28.603240000124362],[-81.40667600006283,28.603334999887647],[-81.40671600024581,28.603286999993102],[-81.40673999963695,28.603260000289243],[-81.40678400001788,28.60328900008775],[-81.40692499958486,28.603401999851677],[-81.40710600023316,28.6035450000558],[-81.4071389998451,28.60357000038586],[-81.40719999994448,28.603507999966496],[-81.40775999981112,28.602944999813918]]]},"properties":{"block_id":"120950125001002","school_id":"sch_pinecrest_creek_charter","kids_est":0,"class":"green","shortest":{"len_m":1063.9,"mean_c":37.52,"peak_c":37.6,"dose":66.7},"coolest":{"len_m":1063.9,"mean_c":37.52,"peak_c":37.6,"dose":66.7},"delta_mean_c":0.0,"delta_dose_pct":0,"distance_mi":0.527,"status_now":"walk","status_rec":"walk","reason":"Shortest route already under threshold (dose 67).","safe_until_hour":null}},{"type":"Feature","geometry":{"type":"Polygon","coordinates":[[[-81.41055400019494,28.600261000136626],[-81.41053599975326,28.598663999724412],[-81.4105309997304,28.59826300019805],[-81.41052400005769,28.597668000272478],[-81.41046700015627,28.597700999650034],[-81.41042299977535,28.597778000260696],[-81.41021799973595,28.59783300021158],[-81.41004700003171,28.597888000133747],[-81.409968000389,28.59791499964041],[-81.4098060000073,28.597909999936817],[-81.40965700004438,28.59791499964041],[-81.40943799976127,28.598052999727454],[-81.40916400012487,28.598062999909597],[-81.4091440000334,28.598059000310066],[-81.4091509997061,28.598923000184605],[-81.40950800008146,28.59892400027346],[-81.40951599957909,28.600286999746476],[-81.409968000389,28.60029200012577],[-81.41017400025333,28.600294000277415],[-81.41035599982821,28.600295999640306],[-81.41043399964602,28.600280000003846],[-81.41051900003484,28.60026599972843],[-81.41055400019494,28.600261000136626]]]},"properties":{"block_id":"120950125001017","school_id":"sch_pinecrest_creek_charter","kids_est":0,"class":"green","shortest":{"len_m":1735.9,"mean_c":37.55,"peak_c":37.6,"dose":109.4},"coolest":{"len_m":1735.9,"mean_c":37.55,"peak_c":37.6,"dose":109.4},"delta_mean_c":0.0,"delta_dose_pct":0,"distance_mi":0.807,"status_now":"walk","status_rec":"walk","reason":"Shortest route already under threshold (dose 109).","safe_until_hour":null}},{"type":"Feature","geometry":{"type":"Polygon","coordinates":[[[-81.40265499981562,28.608085999988297],[-81.40266599968626,28.607663000017745],[-81.40247099969261,28.607657999989225],[-81.40157400044038,28.607654999972077],[-81.40146800013517,28.609486000061413],[-81.40261399980773,28.609476000177747],[-81.40262300002857,28.60897300006936],[-81.40263600044737,28.608529999780774],[-81.40265499981562,28.608085999988297]]]},"properties":{"block_id":"120950152021013","school_id":"sch_pinecrest_creek_charter","kids_est":2,"class":"green","shortest":{"len_m":592.4,"mean_c":37.5,"peak_c":37.5,"dose":36.9},"coolest":{"len_m":592.6,"mean_c":37.5,"peak_c":37.5,"dose":36.8},"delta_mean_c":0.0,"delta_dose_pct":0,"distance_mi":0.34,"status_now":"walk","status_rec":"walk","reason":"Shortest route already under threshold (dose 37).","safe_until_hour":null}},{"type":"Feature","geometry":{"type":"Polygon","coordinates":[[[-81.4050399999455,28.605298000203998],[-81.40501700037927,28.605206999965883],[-81.40501400000622,28.60516600034417],[-81.40501400000622,28.60514899984234],[-81.40460099955435,28.605354000190072],[-81.40389500009783,28.60556400026623],[-81.4036809998376,28.60562300018578],[-81.40292199977931,28.60573599980559],[-81.40279499955771,28.605738999877545],[-81.40192699971948,28.605781000087948],[-81.40169999993876,28.605775999969865],[-81.40169499991589,28.60591299996379],[-81.40213099993397,28.60591800007528],[-81.40278200003723,28.605910999919104],[-81.40309599985659,28.60586799973797],[-81.40343399996539,28.605813000049157],[-81.40369599990622,28.605764999709322],[-81.40388199967904,28.60572500032947],[-81.40406900017511,28.605666999703196],[-81.40457299996527,28.605495000050862],[-81.40495600027991,28.605326000200776],[-81.4050399999455,28.605298000203998]]]},"properties":{"block_id":"120950153003004","school_id":"sch_pinecrest_creek_charter","kids_est":0,"class":"green","shortest":{"len_m":527.1,"mean_c":37.5,"peak_c":37.5,"dose":32.8},"coolest":{"len_m":527.1,"mean_c":37.5,"peak_c":37.5,"dose":32.8},"delta_mean_c":0.0,"delta_dose_pct":0,"distance_mi":0.305,"status_now":"walk","status_rec":"walk","reason":"Shortest route already under threshold (dose 33).","safe_until_hour":null}},{"type":"Feature","geometry":{"type":"Polygon","coordinates":[[[-81.41258100012452,28.598799000135273],[-81.41256400040608,28.59754599973508],[-81.41256100003302,28.597307999649587],[-81.41246800014662,28.597293999766983],[-81.4119950003186,28.597513999622386],[-81.4118820003407,28.59759600008884],[-81.41176400033991,28.597645999630082],[-81.41166200023267,28.597607999728492],[-81.41161399965378,28.597591000370006],[-81.41146499969086,28.59761300023524],[-81.41137699982733,28.597668000272478],[-81.41132699959859,28.597672999987644],[-81.41112800030527,28.59763999981256],[-81.41099699988573,28.597606999627104],[-81.41086600036445,28.59755800016917],[-81.4106229997919,28.59761300023524],[-81.41052400005769,28.597668000272478],[-81.4105309997304,28.59826300019805],[-81.41053599975326,28.598663999724412],[-81.41055400019494,28.600261000136626],[-81.4106019998755,28.60025499967975],[-81.41064999955609,28.60024900001118],[-81.41068999973905,28.60024499970613],[-81.4107359997698,28.60024200026596],[-81.41079100002139,28.600239000037053],[-81.41079000019647,28.600223000391864],[-81.41080299971695,28.600190000228835],[-81.41080400044018,28.599721000232694],[-81.41079299967122,28.59843299967069],[-81.41080299971695,28.598397000241416],[-81.41082399963335,28.598364000293675],[-81.41085200012077,28.5983360000192],[-81.41088700028085,28.59831499961128],[-81.41094500000717,28.598296000177506],[-81.41103700006869,28.59828399982769],[-81.41111099968852,28.59828900030222],[-81.41112999995511,28.59828999960838],[-81.41118900040465,28.59830500024179],[-81.41123700008522,28.59833499992473],[-81.41126200019957,28.598361000011153],[-81.4112849997658,28.598408999789683],[-81.41128999978866,28.598442999816726],[-81.41129099961358,28.598587999854946],[-81.41130700040543,28.599806000007263],[-81.41131099970507,28.60010900028653],[-81.41130999988016,28.600222000315423],[-81.4113340001696,28.60022100023892],[-81.41154500005679,28.600213999703122],[-81.41158699988958,28.600216999932808],[-81.41160699998109,28.600216999932808],[-81.41166700025552,28.600216999932808],[-81.41168700034703,28.60021800000935],[-81.41175199974604,28.60011099965292],[-81.41177000018769,28.600050999715],[-81.41177299966245,28.600025000046752],[-81.4117779996853,28.599989999664096],[-81.41176799963957,28.59970399963855],[-81.41176799963957,28.59945699974303],[-81.41176099996687,28.59932300026243],[-81.41175500011907,28.5992889997314],[-81.41176699981465,28.59925600006375],[-81.41179500030205,28.5992310002847],[-81.4118189996932,28.599221000213696],[-81.4120370001514,28.59921200022782],[-81.41202200008277,28.599113999630863],[-81.41199799979334,28.598967000141485],[-81.41199299977046,28.59889099970246],[-81.41197500022712,28.598618000245825],[-81.41196600000629,28.59835400014018],[-81.41197699987694,28.598301999957513],[-81.41200100016638,28.598253000034887],[-81.4120370001514,28.598209999874722],[-81.41208400000707,28.598175999772288],[-81.41214099990846,28.598155000121075],[-81.41220200000782,28.598149000332672],[-81.4122630001072,28.59815700031339],[-81.4123200000086,28.598179000060153],[-81.41236699986428,28.598214000257233],[-81.41237699991001,28.598229000112767],[-81.41239399962846,28.59825199993963],[-81.4124120000701,28.598308999831946],[-81.41240899969708,28.59833999960817],[-81.4123910001537,28.598573000050642],[-81.41239500035167,28.59862600019091],[-81.41241600026807,28.598694000093612],[-81.41244700023023,28.598748000263324],[-81.41248599968996,28.598791000203356],[-81.41250199958348,28.59880900024643],[-81.41252000002515,28.598838999785556],[-81.41252900024598,28.59885400034056],[-81.41254500013952,28.598904000072025],[-81.41258100012452,28.598799000135273]]]},"properties":{"block_id":"120950125001014","school_id":"sch_pinecrest_creek_charter","kids_est":6,"class":"green","shortest":{"len_m":1737.5,"mean_c":37.55,"peak_c":37.6,"dose":109.5},"coolest":{"len_m":1737.5,"mean_c":37.55,"peak_c":37.6,"dose":109.5},"delta_mean_c":0.0,"delta_dose_pct":0,"distance_mi":0.902,"status_now":"walk","status_rec":"walk","reason":"Shortest route already under threshold (dose 110).","safe_until_hour":null}},{"type":"Feature","geometry":{"type":"Polygon","coordinates":[[[-81.40842799963282,28.60037800030216],[-81.40842900035605,28.600358000377447],[-81.40839400019594,28.600357000302242],[-81.40833100044674,28.600357000302242],[-81.4082920000887,28.600356000227077],[-81.4082579997535,28.600356000227077],[-81.4081029999428,28.600506000360998],[-81.40764199981037,28.60095600026693],[-81.40748799982457,28.601106999612533],[-81.4074479996416,28.60114499982629],[-81.40733100036405,28.60125900038517],[-81.407292000006,28.6012979998215],[-81.40825899957842,28.602075000317942],[-81.4084119997393,28.602198000387446],[-81.40841500011234,28.601840999692023],[-81.4084190003103,28.60145399978833],[-81.4084190003103,28.601335999966253],[-81.40842199978503,28.60098199970489],[-81.40842400033317,28.600865000211837],[-81.40842400033317,28.600782999929933],[-81.40842699980792,28.600539999709614],[-81.40842799963282,28.600459000037134],[-81.40842799963282,28.600438000053398],[-81.40842799963282,28.60037800030216]]]},"properties":{"block_id":"120950125001010","school_id":"sch_pinecrest_creek_charter","kids_est":0,"class":"green","shortest":{"len_m":1265.8,"mean_c":37.53,"peak_c":37.6,"dose":79.5},"coolest":{"len_m":1265.8,"mean_c":37.53,"peak_c":37.6,"dose":79.5},"delta_mean_c":0.0,"delta_dose_pct":0,"distance_mi":0.634,"status_now":"walk","status_rec":"walk","reason":"Shortest route already under threshold (dose 80).","safe_until_hour":null}},{"type":"Feature","geometry":{"type":"Polygon","coordinates":[[[-81.40714600041612,28.603751999675573],[-81.40718599970077,28.60370500001488],[-81.40708399959354,28.603624999671446],[-81.40667600006283,28.603334999887647],[-81.40654700019141,28.603240000124362],[-81.40630500034209,28.603088999900503],[-81.40624500006763,28.603079000196583],[-81.40624599989252,28.603125000088475],[-81.40629799977107,28.60319600037929],[-81.40661199959044,28.603406000036546],[-81.40688899959986,28.603641999631247],[-81.4069909997071,28.603717999788895],[-81.40709600018741,28.603795999976576],[-81.40714600041612,28.603751999675573]]]},"properties":{"block_id":"120950153003013","school_id":"sch_pinecrest_creek_charter","kids_est":0,"class":"green","shortest":{"len_m":1020.7,"mean_c":37.52,"peak_c":37.6,"dose":64.0},"coolest":{"len_m":1020.7,"mean_c":37.52,"peak_c":37.6,"dose":64.0},"delta_mean_c":0.0,"delta_dose_pct":0,"distance_mi":0.514,"status_now":"walk","status_rec":"walk","reason":"Shortest route already under threshold (dose 64).","safe_until_hour":null}},{"type":"Feature","geometry":{"type":"Polygon","coordinates":[[[-81.39619999993303,28.59652799985376],[-81.3961899998873,28.596279000153082],[-81.39618800023747,28.596260999676705],[-81.39617399999378,28.596101000214563],[-81.39615200025246,28.59601100001568],[-81.39611799991727,28.595924000091987],[-81.39607100006161,28.595840999780282],[-81.39601300033527,28.59576500023573],[-81.39594399984,28.595694999776306],[-81.39581499996858,28.59559500039121],[-81.39575300004428,28.59554700011626],[-81.3955999998834,28.595438000281266],[-81.3954169995853,28.595599000084505],[-81.39537899995048,28.59562299981844],[-81.39529899958454,28.59566299988875],[-81.39521300026912,28.595693999656728],[-81.39512299985745,28.59571300034955],[-81.39503099979592,28.595721999846337],[-81.39417800002632,28.595731000131032],[-81.39380200028268,28.595734999819147],[-81.39278499958323,28.595739000295865],[-81.39269400024493,28.595732000250255],[-81.39259799998548,28.596087000171163],[-81.39250699974887,28.596398000245166],[-81.39249599987824,28.59649899976688],[-81.39249699970313,28.59653999961534],[-81.39396399976607,28.596519999748985],[-81.3944440001651,28.596516000090737],[-81.39493899973442,28.596532000300222],[-81.39535100036139,28.59653900029254],[-81.39593600034239,28.596532000300222],[-81.39598800022092,28.596531000188605],[-81.3961470002296,28.59652799985376],[-81.39619999993303,28.59652799985376]]]},"properties":{"block_id":"120950153003019","school_id":"sch_pinecrest_creek_charter","kids_est":6,"class":"green","shortest":{"len_m":1708.4,"mean_c":37.49,"peak_c":37.5,"dose":106.2},"coolest":{"len_m":1708.4,"mean_c":37.49,"peak_c":37.5,"dose":106.2},"delta_mean_c":0.0,"delta_dose_pct":0,"distance_mi":0.646,"status_now":"walk","status_rec":"walk","reason":"Shortest route already under threshold (dose 106).","safe_until_hour":null}},{"type":"Feature","geometry":{"type":"Polygon","coordinates":[[[-81.40271799956481,28.6068819997824],[-81.40278200003723,28.605910999919104],[-81.40213099993397,28.60591800007528],[-81.40169499991589,28.60591299996379],[-81.4016890000681,28.606041000378063],[-81.40166399995374,28.606307000136436],[-81.40157400044038,28.607654999972077],[-81.40247099969261,28.607657999989225],[-81.40266599968626,28.607663000017745],[-81.40271799956481,28.6068819997824]]]},"properties":{"block_id":"120950152021021","school_id":"sch_pinecrest_creek_charter","kids_est":4,"class":"green","shortest":{"len_m":601.0,"mean_c":37.5,"peak_c":37.5,"dose":37.3},"coolest":{"len_m":601.0,"mean_c":37.5,"peak_c":37.5,"dose":37.3},"delta_mean_c":0.0,"delta_dose_pct":0,"distance_mi":0.265,"status_now":"walk","status_rec":"walk","reason":"Shortest route already under threshold (dose 37).","safe_until_hour":null}},{"type":"Feature","geometry":{"type":"Polygon","coordinates":[[[-81.41560800013681,28.59576500023573],[-81.41557600034976,28.595704000063318],[-81.41551000022753,28.595576999797697],[-81.41532299973146,28.595200000154794],[-81.41523999989077,28.59505699963735],[-81.4150790002323,28.59475000005349],[-81.41464099966608,28.593913000325234],[-81.41448900022841,28.59361699972224],[-81.41430699975523,28.593265999917513],[-81.41420800002102,28.59307399995319],[-81.41414400044692,28.592950000102032],[-81.41401600040041,28.592717999962225],[-81.41386900008732,28.59272099961707],[-81.41379399974424,28.59272099961707],[-81.41351500008498,28.592724000060656],[-81.41278100014105,28.592729000010998],[-81.41299399967808,28.59292300010868],[-81.41304899992967,28.592973999652052],[-81.41339999955893,28.59340800036395],[-81.41345399998562,28.593475000346913],[-81.41389099982861,28.593810999758617],[-81.41395899960068,28.593882000032043],[-81.41403999979153,28.59404799973995],[-81.4140590000581,28.594135999773325],[-81.41407099975369,28.594334000170722],[-81.4140590000581,28.59439400021751],[-81.41403999979153,28.594421999964663],[-81.41403399994375,28.59449899982261],[-81.41409599986804,28.594547999917886],[-81.41412099998239,28.594602999981564],[-81.41409000002024,28.594691000339047],[-81.41410900028683,28.59481200011881],[-81.41410199971583,28.594862000195683],[-81.41407699960146,28.594921999941082],[-81.41407300030181,28.594969999712756],[-81.41407099975369,28.594999000221442],[-81.41414600009675,28.595197999906258],[-81.41415799979231,28.595274999984372],[-81.41415199994454,28.595418000205274],[-81.41415799979231,28.595472999813712],[-81.41407800032468,28.595556999748077],[-81.41398999956283,28.595648999787016],[-81.41386300023954,28.595751000147533],[-81.41409099984516,28.5957530003856],[-81.41511799969204,28.595760999760003],[-81.41540100044759,28.595764000116823],[-81.41546400019678,28.595764000116823],[-81.41552699994597,28.59576500023573],[-81.41560800013681,28.59576500023573]]]},"properties":{"block_id":"120950125001061","school_id":"sch_pinecrest_creek_charter","kids_est":0,"class":"red","shortest":{"len_m":2657.8,"mean_c":37.52,"peak_c":37.6,"dose":166.1},"coolest":{"len_m":2657.8,"mean_c":37.52,"peak_c":37.6,"dose":166.1},"delta_mean_c":0.0,"delta_dose_pct":0,"distance_mi":1.206,"status_now":"walk","status_rec":"bus_eligible","reason":"Coolest route mean 37.5C exceeds threshold (110 C-min dose, actual 166).","safe_until_hour":"13:00"}},{"type":"Feature","geometry":{"type":"Polygon","coordinates":[[[-81.40709600018741,28.603795999976576],[-81.4069909997071,28.603717999788895],[-81.40692200011014,28.60378899967894],[-81.40665099994848,28.604021999869804],[-81.40607000016543,28.604526000058495],[-81.40516200014423,28.605095999837385],[-81.40501400000622,28.60514899984234],[-81.40501400000622,28.60516600034417],[-81.40501700037927,28.605206999965883],[-81.4050399999455,28.605298000203998],[-81.40517999968758,28.605246000302962],[-81.4059129998066,28.604805000137393],[-81.40612500041703,28.60464899962491],[-81.40625500011336,28.604550000119897],[-81.4066030002679,28.604228000088852],[-81.40675300005573,28.604103999990098],[-81.40709600018741,28.603795999976576]]]},"properties":{"block_id":"120950153003008","school_id":"sch_pinecrest_creek_charter","kids_est":0,"class":"green","shortest":{"len_m":858.2,"mean_c":37.5,"peak_c":37.6,"dose":53.6},"coolest":{"len_m":858.2,"mean_c":37.5,"peak_c":37.6,"dose":53.6},"delta_mean_c":0.0,"delta_dose_pct":0,"distance_mi":0.463,"status_now":"walk","status_rec":"walk","reason":"Shortest route already under threshold (dose 54).","safe_until_hour":null}},{"type":"Feature","geometry":{"type":"Polygon","coordinates":[[[-81.39351500022751,28.603537999741505],[-81.39355399968724,28.60295200016771],[-81.39333299975432,28.602949000016114],[-81.39154699984915,28.60296800018603],[-81.39144300009208,28.603897000275097],[-81.39214600007386,28.603886999859448],[-81.39249800042636,28.60388899994261],[-81.39302399995782,28.60388000035658],[-81.3935219999002,28.60386599977209],[-81.39352000025039,28.603846999764624],[-81.39351199985445,28.603684999934703],[-81.39351500022751,28.603537999741505]]]},"properties":{"block_id":"120950153001010","school_id":"sch_pinecrest_creek_charter","kids_est":0,"class":"green","shortest":{"len_m":920.7,"mean_c":37.5,"peak_c":37.5,"dose":57.4},"coolest":{"len_m":920.7,"mean_c":37.5,"peak_c":37.5,"dose":57.4},"delta_mean_c":0.0,"delta_dose_pct":0,"distance_mi":0.372,"status_now":"walk","status_rec":"walk","reason":"Shortest route already under threshold (dose 57).","safe_until_hour":null}},{"type":"Feature","geometry":{"type":"Polygon","coordinates":[[[-81.40857099974795,28.60233799969503],[-81.4084679998158,28.60224800010521],[-81.4083630002338,28.602364000368407],[-81.4081099996155,28.602593999614037],[-81.40775999981112,28.602944999813918],[-81.40719999994448,28.603507999966496],[-81.4071389998451,28.60357000038586],[-81.40718499987587,28.60360699966463],[-81.4072359999295,28.603645999806904],[-81.40729000035618,28.603583000176567],[-81.4078900004058,28.603034000334354],[-81.40857099974795,28.60233799969503]]]},"properties":{"block_id":"120950125001001","school_id":"sch_pinecrest_creek_charter","kids_est":0,"class":"green","shortest":{"len_m":1087.6,"mean_c":37.52,"peak_c":37.6,"dose":68.2},"coolest":{"len_m":1087.6,"mean_c":37.52,"peak_c":37.6,"dose":68.2},"delta_mean_c":0.0,"delta_dose_pct":0,"distance_mi":0.589,"status_now":"walk","status_rec":"walk","reason":"Shortest route already under threshold (dose 68).","safe_until_hour":null}},{"type":"Feature","geometry":{"type":"Polygon","coordinates":[[[-81.40491299972389,28.60903799960747],[-81.40496700015058,28.607657999989225],[-81.40485499999757,28.607658999994957],[-81.40391799966406,28.607670000057187],[-81.40376899970114,28.60766600003474],[-81.4037799995718,28.608792000355212],[-81.4037729998991,28.609166000157447],[-81.4037589996554,28.609469000258642],[-81.40490199985324,28.60945800038478],[-81.40491299972389,28.60903799960747]]]},"properties":{"block_id":"120950152021011","school_id":"sch_pinecrest_creek_charter","kids_est":3,"class":"green","shortest":{"len_m":849.0,"mean_c":37.5,"peak_c":37.5,"dose":53.0},"coolest":{"len_m":849.2,"mean_c":37.5,"peak_c":37.5,"dose":52.9},"delta_mean_c":0.0,"delta_dose_pct":0,"distance_mi":0.442,"status_now":"walk","status_rec":"walk","reason":"Shortest route already under threshold (dose 53).","safe_until_hour":null}},{"type":"Feature","geometry":{"type":"Polygon","coordinates":[[[-81.40221999962245,28.599985000059217],[-81.4022869995696,28.599949000372867],[-81.4021950004064,28.599842999822656],[-81.40202700017691,28.59964899987811],[-81.40192000004679,28.599530000312228],[-81.40182799998529,28.59942700038029],[-81.40172900025108,28.59931799983708],[-81.40143399979999,28.59899400015972],[-81.40133599989068,28.59888600004524],[-81.40115500014073,28.598686000153705],[-81.40098100006345,28.598493999836634],[-81.40061000034268,28.59809200035359],[-81.4005979997488,28.59807899988358],[-81.40041699999884,28.597906999641253],[-81.4003020003711,28.59781199970317],[-81.40028599957927,28.59779899998719],[-81.40015599988294,28.597691000222188],[-81.39999400039953,28.597572000016623],[-81.39995099984351,28.597539999911856],[-81.39983299984274,28.597452000362203],[-81.39969499975047,28.597350000074993],[-81.39928399984674,28.597046999728285],[-81.39914800030262,28.596945999944417],[-81.39898400027108,28.596827999792872],[-81.39863100009367,28.596573000135823],[-81.39849499965122,28.596474000120814],[-81.3984009999399,28.596406000359163],[-81.39833200034292,28.596356000228017],[-81.39827100024357,28.596406999683285],[-81.39820199974827,28.596448000356325],[-81.39812599958029,28.596480000004835],[-81.39804600011266,28.596502000102618],[-81.39796300027199,28.596512999755383],[-81.3978159999589,28.596513999867188],[-81.39774800018682,28.59651499997897],[-81.39759300037613,28.59651800031425],[-81.3973809997657,28.59651899963724],[-81.39674700027922,28.596525999630437],[-81.39653600039202,28.59652799985376],[-81.39646799972165,28.59652799985376],[-81.39626699988018,28.59652799985376],[-81.39619999993303,28.59652799985376],[-81.3961470002296,28.59652799985376],[-81.39598800022092,28.596531000188605],[-81.39593600034239,28.596532000300222],[-81.3959220000987,28.596713999948435],[-81.39591700007583,28.59679299992296],[-81.39589299978638,28.597260000156947],[-81.3958879997635,28.597377999823482],[-81.39587900044098,28.597412000184075],[-81.39586000017441,28.59743500018975],[-81.3958180003416,28.597454999882004],[-81.3957260002801,28.5974599996073],[-81.39546900036217,28.597460999710073],[-81.39428500015644,28.597470999948552],[-81.39389099997115,28.597475000359193],[-81.39387900027559,28.597655999850943],[-81.3938449999404,28.59820099980231],[-81.39383499989466,28.598382999715145],[-81.39394600022273,28.598380000221834],[-81.39424800034652,28.598380000221834],[-81.3954869999055,28.598381000315854],[-81.39579300022726,28.598381999621136],[-81.39584199973275,28.598388000185032],[-81.39587100004508,28.598403000015722],[-81.39588899958841,28.598421000125242],[-81.3959089996799,28.598466000385514],[-81.39590000035737,28.598592000223054],[-81.39586500019728,28.599116999891958],[-81.39585400032662,28.599293000072787],[-81.39584299955764,28.59947499967196],[-81.39581099977062,28.600023999968368],[-81.39580099972486,28.60020699995563],[-81.39538499979825,28.60020699995563],[-81.39536600043,28.60020699995563],[-81.39413799984335,28.600194999824023],[-81.39372299974166,28.600192000382428],[-81.39371199987099,28.600372999926975],[-81.39367900025904,28.600917999984826],[-81.39366900021331,28.601099999924468],[-81.39365699961941,28.60128399968172],[-81.39362300018254,28.60183900035852],[-81.39361200031189,28.60202399966981],[-81.39355399968724,28.60295200016771],[-81.39388400029844,28.60295899973241],[-81.39521699956877,28.602972000387364],[-81.39610200002375,28.60297599979989],[-81.39761799959217,28.602994999964924],[-81.39768000041477,28.60299700006512],[-81.39770100033117,28.602994999964924],[-81.39771499967655,28.602984000201907],[-81.39772999974517,28.602981000051226],[-81.39774900001174,28.602697999649422],[-81.4004200003719,28.602752000127722],[-81.40035300042474,28.603805999612188],[-81.40041799982374,28.603822000289163],[-81.40040799977801,28.603983999907793],[-81.40036599994521,28.60466000000231],[-81.4003519997015,28.604880000210333],[-81.40056900033481,28.604870999920486],[-81.40069200035845,28.604535000377947],[-81.40091199956815,28.60453699966014],[-81.40088999982686,28.604886999646588],[-81.40174799961935,28.604912999689198],[-81.40181299991666,28.603932000145047],[-81.4018940001075,28.602570999948693],[-81.401906999628,28.602389000190765],[-81.4019130003741,28.602295999685733],[-81.40193199974235,28.602020000221035],[-81.40193900031335,28.601928000238342],[-81.4019569998567,28.601582000113936],[-81.40201299993322,28.600570999616444],[-81.40201399975811,28.600547000223695],[-81.40204200024552,28.600202999648985],[-81.40204300007044,28.600169000191336],[-81.40205300011618,28.600122999794145],[-81.40207599968241,28.600079999610394],[-81.40211099984249,28.600045000034836],[-81.40221999962245,28.599985000059217]]]},"properties":{"block_id":"120950153003015","school_id":"sch_pinecrest_creek_charter","kids_est":46,"class":"red","shortest":{"len_m":2021.5,"mean_c":37.49,"peak_c":37.5,"dose":125.9},"coolest":{"len_m":2021.5,"mean_c":37.49,"peak_c":37.5,"dose":125.9},"delta_mean_c":0.0,"delta_dose_pct":0,"distance_mi":0.307,"status_now":"walk","status_rec":"bus_eligible","reason":"Coolest route mean 37.5C exceeds threshold (110 C-min dose, actual 126).","safe_until_hour":"14:00"}},{"type":"Feature","geometry":{"type":"Polygon","coordinates":[[[-81.4037729998991,28.609166000157447],[-81.4037799995718,28.608792000355212],[-81.40376899970114,28.60766600003474],[-81.4028919996421,28.607669000051583],[-81.40266599968626,28.607663000017745],[-81.40265499981562,28.608085999988297],[-81.40263600044737,28.608529999780774],[-81.40262300002857,28.60897300006936],[-81.40261399980773,28.609476000177747],[-81.40347900017123,28.609472000224],[-81.4037589996554,28.609469000258642],[-81.4037729998991,28.609166000157447]]]},"properties":{"block_id":"120950152021012","school_id":"sch_pinecrest_creek_charter","kids_est":7,"class":"green","shortest":{"len_m":972.0,"mean_c":37.5,"peak_c":37.5,"dose":60.8},"coolest":{"len_m":972.0,"mean_c":37.5,"peak_c":37.5,"dose":60.8},"delta_mean_c":0.0,"delta_dose_pct":0,"distance_mi":0.388,"status_now":"walk","status_rec":"walk","reason":"Shortest route already under threshold (dose 61).","safe_until_hour":null}},{"type":"Feature","geometry":{"type":"Polygon","coordinates":[[[-81.40406400015223,28.602740000286744],[-81.40410500016013,28.602307000309484],[-81.40392400041016,28.602286999963205],[-81.4035620000119,28.602286999963205],[-81.40300100032036,28.60230300008278],[-81.40298000040396,28.602631000025173],[-81.40291900030458,28.60361399997438],[-81.40289900021308,28.60394299980882],[-81.40311599994807,28.603943999849903],[-81.40376700005133,28.60394900005517],[-81.40398499961121,28.60395100013721],[-81.40406400015223,28.602740000286744]]]},"properties":{"block_id":"120950153003010","school_id":"sch_pinecrest_creek_charter","kids_est":6,"class":"green","shortest":{"len_m":727.6,"mean_c":37.5,"peak_c":37.5,"dose":45.4},"coolest":{"len_m":727.6,"mean_c":37.5,"peak_c":37.5,"dose":45.4},"delta_mean_c":0.0,"delta_dose_pct":0,"distance_mi":0.33,"status_now":"walk","status_rec":"walk","reason":"Shortest route already under threshold (dose 45).","safe_until_hour":null}},{"type":"Feature","geometry":{"type":"Polygon","coordinates":[[[-81.4091440000334,28.598059000310066],[-81.40912899996479,28.5963920003564],[-81.40811899983633,28.59640300002074],[-81.40421700031311,28.596447000243895],[-81.40416899973422,28.600312000063038],[-81.4045820001861,28.600303000170584],[-81.40457799998813,28.600396000073395],[-81.40401599957335,28.60098499991259],[-81.40405699958121,28.601023000170517],[-81.40416899973422,28.601049999660464],[-81.40422499981072,28.601105000265076],[-81.404286999735,28.601188000362956],[-81.40435000038251,28.60124300010663],[-81.40454299982804,28.60126600006264],[-81.40466800039982,28.601281000271268],[-81.40481700036274,28.601247999651704],[-81.40497299999835,28.60123699970582],[-81.40509199982404,28.601171000006147],[-81.40550000025304,28.600875000126397],[-81.405609000033,28.60079700013648],[-81.40574700012525,28.600720000160504],[-81.40590899960864,28.60052799961602],[-81.40598999979949,28.60044499978556],[-81.40602699960941,28.600396000073395],[-81.40597700027901,28.600362999964645],[-81.40589000024038,28.600351999926104],[-81.40589000024038,28.600324000181303],[-81.40602099976162,28.60013199970201],[-81.40600900006606,28.59996099974385],[-81.40602099976162,28.59990099972027],[-81.40613299991462,28.59984000037101],[-81.40612000039415,28.59982600003697],[-81.40605199972377,28.599459999994266],[-81.40611500037129,28.599213000313913],[-81.40620800025769,28.599080999908267],[-81.40638300015989,28.59891600035106],[-81.406594999872,28.59882800037617],[-81.4066109997655,28.59882800037617],[-81.40676999977417,28.59882800037617],[-81.40699999992795,28.598937999938933],[-81.40702699969212,28.598935999761476],[-81.40744299961872,28.598921000006854],[-81.40769200003908,28.598838999785556],[-81.40792300001775,28.598784000361086],[-81.40805899956187,28.598699999850897],[-81.40823500018729,28.598592000223054],[-81.4087210004341,28.59802500015879],[-81.40878400018327,28.597998999989304],[-81.40884600010757,28.597975000009182],[-81.40897099978102,28.59801900036297],[-81.40909200015486,28.59804699993317],[-81.4091440000334,28.598059000310066]]]},"properties":{"block_id":"120950125001021","school_id":"sch_pinecrest_creek_charter","kids_est":0,"class":"green","shortest":{"len_m":1602.9,"mean_c":37.55,"peak_c":37.6,"dose":100.9},"coolest":{"len_m":1602.9,"mean_c":37.55,"peak_c":37.6,"dose":100.9},"delta_mean_c":0.0,"delta_dose_pct":0,"distance_mi":0.656,"status_now":"walk","status_rec":"walk","reason":"Shortest route already under threshold (dose 101).","safe_until_hour":null}},{"type":"Feature","geometry":{"type":"Polygon","coordinates":[[[-81.40433199994084,28.60195200010446],[-81.40439999971291,28.60185200036338],[-81.40365200042359,28.601361000033194],[-81.40355899963886,28.601296999755302],[-81.40337899971381,28.601162000187326],[-81.40325499986525,28.60129599968903],[-81.4032089998345,28.601347999967572],[-81.40310799955216,28.601465999776238],[-81.40306400006955,28.60154800031381],[-81.40304499980296,28.601612999713385],[-81.40303800013027,28.601681000049343],[-81.40301499966574,28.602050999691265],[-81.40300100032036,28.60230300008278],[-81.4035620000119,28.602286999963205],[-81.40392400041016,28.602286999963205],[-81.40410500016013,28.602307000309484],[-81.40411400038094,28.60227500006911],[-81.40414299979496,28.602211999616777],[-81.40433199994084,28.60195200010446]]]},"properties":{"block_id":"120950153003014","school_id":"sch_pinecrest_creek_charter","kids_est":7,"class":"green","shortest":{"len_m":958.2,"mean_c":37.5,"peak_c":37.5,"dose":59.9},"coolest":{"len_m":958.2,"mean_c":37.5,"peak_c":37.5,"dose":59.9},"delta_mean_c":0.0,"delta_dose_pct":0,"distance_mi":0.375,"status_now":"walk","status_rec":"walk","reason":"Shortest route already under threshold (dose 60).","safe_until_hour":null}},{"type":"Feature","geometry":{"type":"Polygon","coordinates":[[[-81.39355399968724,28.60295200016771],[-81.39361200031189,28.60202399966981],[-81.39320899990575,28.60202399966981],[-81.39317299992074,28.6020249997291],[-81.39230199970947,28.602038999770173],[-81.39200299995873,28.602040999888573],[-81.39160100027581,28.602046000184384],[-81.39158899968194,28.60222999986255],[-81.3915650002908,28.602600999991214],[-81.39155600006998,28.602783000170696],[-81.39154699984915,28.60296800018603],[-81.39333299975432,28.602949000016114],[-81.39355399968724,28.60295200016771]]]},"properties":{"block_id":"120950153001019","school_id":"sch_pinecrest_creek_charter","kids_est":1,"class":"green","shortest":{"len_m":950.6,"mean_c":37.5,"peak_c":37.5,"dose":59.2},"coolest":{"len_m":950.8,"mean_c":37.5,"peak_c":37.5,"dose":59.1},"delta_mean_c":0.0,"delta_dose_pct":0,"distance_mi":0.389,"status_now":"walk","status_rec":"walk","reason":"Shortest route already under threshold (dose 59).","safe_until_hour":null}},{"type":"Feature","geometry":{"type":"Polygon","coordinates":[[[-81.4084679998158,28.60224800010521],[-81.4084119997393,28.602198000387446],[-81.40825899957842,28.602075000317942],[-81.407292000006,28.6012979998215],[-81.4072440003254,28.601342999638543],[-81.40713499964714,28.601451000382674],[-81.40710500040825,28.601479999891787],[-81.40705900037749,28.601525999694914],[-81.40703099989008,28.60155299984433],[-81.40695899992005,28.601621000219115],[-81.4069260003081,28.601653999932815],[-81.40687400042955,28.60170499997181],[-81.4068219996527,28.60175700004803],[-81.40671700007073,28.601859000001298],[-81.40670000035229,28.6018760002468],[-81.40666400036727,28.601909999940865],[-81.40657499978049,28.601996000370452],[-81.40657200030577,28.60200999962674],[-81.40671200004785,28.602122999977443],[-81.40678099964482,28.60217699996254],[-81.40704299958564,28.602383999911265],[-81.40733300001386,28.602619000170364],[-81.40740900018186,28.6026800002725],[-81.40761900024414,28.60284800038372],[-81.40775999981112,28.602944999813918],[-81.4081099996155,28.602593999614037],[-81.4083630002338,28.602364000368407],[-81.4084679998158,28.60224800010521]]]},"properties":{"block_id":"120950125001006","school_id":"sch_pinecrest_creek_charter","kids_est":1,"class":"green","shortest":{"len_m":1258.1,"mean_c":37.53,"peak_c":37.6,"dose":79.0},"coolest":{"len_m":1258.1,"mean_c":37.53,"peak_c":37.6,"dose":79.0},"delta_mean_c":0.0,"delta_dose_pct":0,"distance_mi":0.583,"status_now":"walk","status_rec":"walk","reason":"Shortest route already under threshold (dose 79).","safe_until_hour":null}},{"type":"Feature","geometry":{"type":"Polygon","coordinates":[[[-81.41130999988016,28.600222000315423],[-81.41131099970507,28.60010900028653],[-81.41130700040543,28.599806000007263],[-81.41129099961358,28.598587999854946],[-81.41128999978866,28.598442999816726],[-81.4112849997658,28.598408999789683],[-81.41126200019957,28.598361000011153],[-81.41123700008522,28.59833499992473],[-81.41118900040465,28.59830500024179],[-81.41112999995511,28.59828999960838],[-81.41111099968852,28.59828900030222],[-81.41103700006869,28.59828399982769],[-81.41094500000717,28.598296000177506],[-81.41088700028085,28.59831499961128],[-81.41085200012077,28.5983360000192],[-81.41082399963335,28.598364000293675],[-81.41080299971695,28.598397000241416],[-81.41079299967122,28.59843299967069],[-81.41080400044018,28.599721000232694],[-81.41080299971695,28.600190000228835],[-81.41079000019647,28.600223000391864],[-81.41079100002139,28.600239000037053],[-81.41080699991491,28.6002379999607],[-81.41116400029028,28.60022599983258],[-81.41130999988016,28.600222000315423]]]},"properties":{"block_id":"120950125001015","school_id":"sch_pinecrest_creek_charter","kids_est":0,"class":"green","shortest":{"len_m":1735.9,"mean_c":37.55,"peak_c":37.6,"dose":109.4},"coolest":{"len_m":1735.9,"mean_c":37.55,"peak_c":37.6,"dose":109.4},"delta_mean_c":0.0,"delta_dose_pct":0,"distance_mi":0.857,"status_now":"walk","status_rec":"walk","reason":"Shortest route already under threshold (dose 109).","safe_until_hour":null}},{"type":"Feature","geometry":{"type":"Polygon","coordinates":[[[-81.40498300004408,28.605451999699483],[-81.40497899984612,28.60541600030881],[-81.40496299995262,28.605344999940833],[-81.40495600027991,28.605326000200776],[-81.40457299996527,28.605495000050862],[-81.40406900017511,28.605666999703196],[-81.40388199967904,28.60572500032947],[-81.40387900020431,28.605804999862617],[-81.40387500000635,28.60586599969242],[-81.40410900035809,28.605874999897026],[-81.40495899975465,28.60588900021379],[-81.40498300004408,28.605451999699483]]]},"properties":{"block_id":"120950152021024","school_id":"sch_pinecrest_creek_charter","kids_est":0,"class":"green","shortest":{"len_m":681.0,"mean_c":37.5,"peak_c":37.5,"dose":42.3},"coolest":{"len_m":681.0,"mean_c":37.5,"peak_c":37.5,"dose":42.3},"delta_mean_c":0.0,"delta_dose_pct":0,"distance_mi":0.376,"status_now":"walk","status_rec":"walk","reason":"Shortest route already under threshold (dose 42).","safe_until_hour":null}},{"type":"Feature","geometry":{"type":"Polygon","coordinates":[[[-81.40519999977909,28.60285299985238],[-81.40548099998647,28.60256499962372],[-81.40444400009385,28.601880999761786],[-81.40439999971291,28.60185200036338],[-81.40433199994084,28.60195200010446],[-81.40414299979496,28.602211999616777],[-81.40411400038094,28.60227500006911],[-81.40410500016013,28.602307000309484],[-81.40406400015223,28.602740000286744],[-81.40398499961121,28.60395100013721],[-81.40403599966483,28.60395400026013],[-81.40508199977829,28.6039629998399],[-81.40514299987767,28.602977999900457],[-81.40516299996914,28.602912999767852],[-81.40519999977909,28.60285299985238]]]},"properties":{"block_id":"120950153003011","school_id":"sch_pinecrest_creek_charter","kids_est":2,"class":"green","shortest":{"len_m":1092.2,"mean_c":37.5,"peak_c":37.5,"dose":68.4},"coolest":{"len_m":1092.2,"mean_c":37.5,"peak_c":37.5,"dose":68.4},"delta_mean_c":0.0,"delta_dose_pct":0,"distance_mi":0.396,"status_now":"walk","status_rec":"walk","reason":"Shortest route already under threshold (dose 68).","safe_until_hour":null}},{"type":"Feature","geometry":{"type":"Polygon","coordinates":[[[-81.3959220000987,28.596713999948435],[-81.39593600034239,28.596532000300222],[-81.39535100036139,28.59653900029254],[-81.39493899973442,28.596532000300222],[-81.3944440001651,28.596516000090737],[-81.39396399976607,28.596519999748985],[-81.39394600022273,28.596784999838427],[-81.39390900041279,28.59720299969572],[-81.39389099997115,28.597475000359193],[-81.39428500015644,28.597470999948552],[-81.39546900036217,28.597460999710073],[-81.3957260002801,28.5974599996073],[-81.3958180003416,28.597454999882004],[-81.39586000017441,28.59743500018975],[-81.39587900044098,28.597412000184075],[-81.3958879997635,28.597377999823482],[-81.39589299978638,28.597260000156947],[-81.39591700007583,28.59679299992296],[-81.3959220000987,28.596713999948435]]]},"properties":{"block_id":"120950153003016","school_id":"sch_pinecrest_creek_charter","kids_est":0,"class":"green","shortest":{"len_m":1662.9,"mean_c":37.5,"peak_c":37.5,"dose":103.4},"coolest":{"len_m":1662.9,"mean_c":37.5,"peak_c":37.5,"dose":103.4},"delta_mean_c":0.0,"delta_dose_pct":0,"distance_mi":0.579,"status_now":"walk","status_rec":"walk","reason":"Shortest route already under threshold (dose 103).","safe_until_hour":null}},{"type":"Feature","geometry":{"type":"Polygon","coordinates":[[[-81.3982600003729,28.606036000272358],[-81.39834400003849,28.60587099980615],[-81.39764600007958,28.60588200005561],[-81.39746299978148,28.60588000001039],[-81.3974579997586,28.606004000379073],[-81.3974360000173,28.60655699975198],[-81.3974290003446,28.60674200022015],[-81.39742199977358,28.60685100016019],[-81.39741199972785,28.607027000005445],[-81.3974019996821,28.607179000100597],[-81.39739599983433,28.607289000385148],[-81.3975480001703,28.607288000375906],[-81.39800699975461,28.607288000375906],[-81.39815999991548,28.607288000375906],[-81.39817900018205,28.606992000377865],[-81.39823899955819,28.606118999629857],[-81.39824199993124,28.60610500013242],[-81.3982600003729,28.606036000272358]]]},"properties":{"block_id":"120950152023017","school_id":"sch_pinecrest_creek_charter","kids_est":1,"class":"green","shortest":{"len_m":350.8,"mean_c":37.5,"peak_c":37.5,"dose":21.8},"coolest":{"len_m":350.8,"mean_c":37.5,"peak_c":37.5,"dose":21.8},"delta_mean_c":0.0,"delta_dose_pct":0,"distance_mi":0.125,"status_now":"walk","status_rec":"walk","reason":"Shortest route already under threshold (dose 22).","safe_until_hour":null}},{"type":"Feature","geometry":{"type":"Polygon","coordinates":[[[-81.39365699961941,28.60128399968172],[-81.39366900021331,28.601099999924468],[-81.39326499998225,28.601105000265076],[-81.39205300018743,28.60112199984386],[-81.39164999978131,28.601128000251222],[-81.39163999973556,28.60131099989337],[-81.39160999959834,28.601862000184013],[-81.39160100027581,28.602046000184384],[-81.39200299995873,28.602040999888573],[-81.39230199970947,28.602038999770173],[-81.39317299992074,28.6020249997291],[-81.39320899990575,28.60202399966981],[-81.39361200031189,28.60202399966981],[-81.39362300018254,28.60183900035852],[-81.39365699961941,28.60128399968172]]]},"properties":{"block_id":"120950153001018","school_id":"sch_pinecrest_creek_charter","kids_est":4,"class":"green","shortest":{"len_m":1060.9,"mean_c":37.5,"peak_c":37.5,"dose":66.1},"coolest":{"len_m":1061.1,"mean_c":37.5,"peak_c":37.5,"dose":66.0},"delta_mean_c":0.0,"delta_dose_pct":0,"distance_mi":0.417,"status_now":"walk","status_rec":"walk","reason":"Shortest route already under threshold (dose 66).","safe_until_hour":null}},{"type":"Feature","geometry":{"type":"Polygon","coordinates":[[[-81.39590000035737,28.598592000223054],[-81.3959089996799,28.598466000385514],[-81.39588899958841,28.598421000125242],[-81.39587100004508,28.598403000015722],[-81.39584199973275,28.598388000185032],[-81.39579300022726,28.598381999621136],[-81.3954869999055,28.598381000315854],[-81.39424800034652,28.598380000221834],[-81.39394600022273,28.598380000221834],[-81.39383499989466,28.598382999715145],[-81.39382300019908,28.598564000009322],[-81.39378800003898,28.599110000071352],[-81.39377700016833,28.599293000072787],[-81.39376499957444,28.599472000209865],[-81.39374100018331,28.59984000037101],[-81.3937319999625,28.600011999815855],[-81.39372299974166,28.600192000382428],[-81.39413799984335,28.600194999824023],[-81.39536600043,28.60020699995563],[-81.39538499979825,28.60020699995563],[-81.39580099972486,28.60020699995563],[-81.39581099977062,28.600023999968368],[-81.39584299955764,28.59947499967196],[-81.39585400032662,28.599293000072787],[-81.39586500019728,28.599116999891958],[-81.39590000035737,28.598592000223054]]]},"properties":{"block_id":"120950153003017","school_id":"sch_pinecrest_creek_charter","kids_est":11,"class":"green","shortest":{"len_m":1686.0,"mean_c":37.5,"peak_c":37.5,"dose":105.0},"coolest":{"len_m":1686.0,"mean_c":37.5,"peak_c":37.5,"dose":105.0},"delta_mean_c":0.0,"delta_dose_pct":0,"distance_mi":0.439,"status_now":"walk","status_rec":"walk","reason":"Shortest route already under threshold (dose 105).","safe_until_hour":null}},{"type":"Feature","geometry":{"type":"Polygon","coordinates":[[[-81.41092900011365,28.60063500033651],[-81.41085999961837,28.600498999844245],[-81.41082600018149,28.600381999813425],[-81.41029599955375,28.600382999888403],[-81.40990899993946,28.60037500007708],[-81.40986700010666,28.600374000002027],[-81.40886500037413,28.60036199988948],[-81.40851899986943,28.600358999663925],[-81.40850100032605,28.600358000377447],[-81.4084469998994,28.600358000377447],[-81.40842900035605,28.600358000377447],[-81.40842799963282,28.60037800030216],[-81.40842799963282,28.600438000053398],[-81.40842799963282,28.600459000037134],[-81.40842699980792,28.600539999709614],[-81.40842400033317,28.600782999929933],[-81.40842400033317,28.600865000211837],[-81.40842199978503,28.60098199970489],[-81.4084190003103,28.601335999966253],[-81.4084190003103,28.60145399978833],[-81.40841500011234,28.601840999692023],[-81.4084119997393,28.602198000387446],[-81.4084679998158,28.60224800010521],[-81.40854499980868,28.602165000055876],[-81.40915200042932,28.601609000248978],[-81.40954599971629,28.601301000020246],[-81.40979099993868,28.601115000156796],[-81.41010800013109,28.600935999663573],[-81.41072300024932,28.600700000300876],[-81.41092900011365,28.60063500033651]]]},"properties":{"block_id":"120950125001005","school_id":"sch_pinecrest_creek_charter","kids_est":2,"class":"green","shortest":{"len_m":1411.9,"mean_c":37.54,"peak_c":37.6,"dose":88.8},"coolest":{"len_m":1411.9,"mean_c":37.54,"peak_c":37.6,"dose":88.8},"delta_mean_c":0.0,"delta_dose_pct":0,"distance_mi":0.711,"status_now":"walk","status_rec":"walk","reason":"Shortest route already under threshold (dose 89).","safe_until_hour":null}},{"type":"Feature","geometry":{"type":"Polygon","coordinates":[[[-81.40692200011014,28.60378899967894],[-81.4069909997071,28.603717999788895],[-81.40688899959986,28.603641999631247],[-81.40661199959044,28.603406000036546],[-81.40629799977107,28.60319600037929],[-81.40624599989252,28.603125000088475],[-81.40624500006763,28.603079000196583],[-81.40597300008106,28.602894000376686],[-81.40580300020174,28.602778999962112],[-81.40548099998647,28.60256499962372],[-81.40519999977909,28.60285299985238],[-81.40516299996914,28.602912999767852],[-81.40514299987767,28.602977999900457],[-81.40508199977829,28.6039629998399],[-81.40575600034607,28.60396599996253],[-81.40649100011491,28.60396900008503],[-81.40657700032862,28.60398599998916],[-81.40663699970479,28.60401100021429],[-81.40665099994848,28.604021999869804],[-81.40692200011014,28.60378899967894]]]},"properties":{"block_id":"120950153003012","school_id":"sch_pinecrest_creek_charter","kids_est":0,"class":"green","shortest":{"len_m":1075.3,"mean_c":37.52,"peak_c":37.6,"dose":67.4},"coolest":{"len_m":1075.3,"mean_c":37.52,"peak_c":37.6,"dose":67.4},"delta_mean_c":0.0,"delta_dose_pct":0,"distance_mi":0.461,"status_now":"walk","status_rec":"walk","reason":"Shortest route already under threshold (dose 67).","safe_until_hour":null}},{"type":"Feature","geometry":{"type":"Polygon","coordinates":[[[-81.40337899971381,28.601162000187326],[-81.40327400013182,28.601075999863827],[-81.40313100001669,28.60094699964097],[-81.40309599985659,28.600915999845054],[-81.40296799981006,28.600789000356723],[-81.40280999962633,28.60061200024244],[-81.40254199983772,28.60026699980451],[-81.40249099978409,28.60020399972568],[-81.4022869995696,28.599949000372867],[-81.40221999962245,28.599985000059217],[-81.40211099984249,28.600045000034836],[-81.40207599968241,28.600079999610394],[-81.40205300011618,28.600122999794145],[-81.40204300007044,28.600169000191336],[-81.40204200024552,28.600202999648985],[-81.40201399975811,28.600547000223695],[-81.40201299993322,28.600570999616444],[-81.4019569998567,28.601582000113936],[-81.40193900031335,28.601928000238342],[-81.40193199974235,28.602020000221035],[-81.4019130003741,28.602295999685733],[-81.401906999628,28.602389000190765],[-81.4018940001075,28.602570999948693],[-81.40181299991666,28.603932000145047],[-81.40246400001992,28.60394099972669],[-81.40289900021308,28.60394299980882],[-81.40291900030458,28.60361399997438],[-81.40298000040396,28.602631000025173],[-81.40300100032036,28.60230300008278],[-81.40301499966574,28.602050999691265],[-81.40303800013027,28.601681000049343],[-81.40304499980296,28.601612999713385],[-81.40306400006955,28.60154800031381],[-81.40310799955216,28.601465999776238],[-81.4032089998345,28.601347999967572],[-81.40325499986525,28.60129599968903],[-81.40337899971381,28.601162000187326]]]},"properties":{"block_id":"120950153003009","school_id":"sch_pinecrest_creek_charter","kids_est":3,"class":"green","shortest":{"len_m":804.8,"mean_c":37.5,"peak_c":37.5,"dose":50.2},"coolest":{"len_m":804.8,"mean_c":37.5,"peak_c":37.5,"dose":50.2},"delta_mean_c":0.0,"delta_dose_pct":0,"distance_mi":0.309,"status_now":"walk","status_rec":"walk","reason":"Shortest route already under threshold (dose 50).","safe_until_hour":null}},{"type":"Feature","geometry":{"type":"Polygon","coordinates":[[[-81.39833200034292,28.596356000228017],[-81.39829999965755,28.596331999872717],[-81.39820500012132,28.596260999676705],[-81.39817400015917,28.596238000202817],[-81.39765799977513,28.595847999818627],[-81.39688600019637,28.595274999984372],[-81.39620900015387,28.594777000366335],[-81.39608600013023,28.594908999867712],[-81.39572100025724,28.595304999743508],[-81.3955999998834,28.595438000281266],[-81.39575300004428,28.59554700011626],[-81.39581499996858,28.59559500039121],[-81.39594399984,28.595694999776306],[-81.39601300033527,28.59576500023573],[-81.39607100006161,28.595840999780282],[-81.39611799991727,28.595924000091987],[-81.39615200025246,28.59601100001568],[-81.39617399999378,28.596101000214563],[-81.39618800023747,28.596260999676705],[-81.3961899998873,28.596279000153082],[-81.39619999993303,28.59652799985376],[-81.39626699988018,28.59652799985376],[-81.39646799972165,28.59652799985376],[-81.39653600039202,28.59652799985376],[-81.39674700027922,28.596525999630437],[-81.3973809997657,28.59651899963724],[-81.39759300037613,28.59651800031425],[-81.39774800018682,28.59651499997897],[-81.3978159999589,28.596513999867188],[-81.39796300027199,28.596512999755383],[-81.39804600011266,28.596502000102618],[-81.39812599958029,28.596480000004835],[-81.39820199974827,28.596448000356325],[-81.39827100024357,28.596406999683285],[-81.39833200034292,28.596356000228017]]]},"properties":{"block_id":"120950153003018","school_id":"sch_pinecrest_creek_charter","kids_est":3,"class":"green","shortest":{"len_m":1727.4,"mean_c":37.49,"peak_c":37.5,"dose":107.8},"coolest":{"len_m":1727.4,"mean_c":37.49,"peak_c":37.5,"dose":107.8},"delta_mean_c":0.0,"delta_dose_pct":0,"distance_mi":0.625,"status_now":"walk","status_rec":"walk","reason":"Shortest route already under threshold (dose 108).","safe_until_hour":null}},{"type":"Feature","geometry":{"type":"Polygon","coordinates":[[[-81.40486900024126,28.607307999770164],[-81.40495899975465,28.60588900021379],[-81.40410900035809,28.605874999897026],[-81.40387500000635,28.60586599969242],[-81.40379100034076,28.60714999979851],[-81.40376899970114,28.60766600003474],[-81.40391799966406,28.607670000057187],[-81.40485499999757,28.607658999994957],[-81.40486900024126,28.607307999770164]]]},"properties":{"block_id":"120950152021023","school_id":"sch_pinecrest_creek_charter","kids_est":0,"class":"green","shortest":{"len_m":773.5,"mean_c":37.5,"peak_c":37.5,"dose":48.2},"coolest":{"len_m":773.5,"mean_c":37.5,"peak_c":37.5,"dose":48.2},"delta_mean_c":0.0,"delta_dose_pct":0,"distance_mi":0.385,"status_now":"walk","status_rec":"walk","reason":"Shortest route already under threshold (dose 48).","safe_until_hour":null}},{"type":"Feature","geometry":{"type":"Polygon","coordinates":[[[-81.41082600018149,28.600381999813425],[-81.41079400039443,28.600277999851947],[-81.4107919998463,28.60025699983204],[-81.41079100002139,28.600239000037053],[-81.4107359997698,28.60024200026596],[-81.41068999973905,28.60024499970613],[-81.41064999955609,28.60024900001118],[-81.4106019998755,28.60025499967975],[-81.41055400019494,28.600261000136626],[-81.41051900003484,28.60026599972843],[-81.41043399964602,28.600280000003846],[-81.41035599982821,28.600295999640306],[-81.41017400025333,28.600294000277415],[-81.409968000389,28.60029200012577],[-81.40951599957909,28.600286999746476],[-81.40950800008146,28.59892400027346],[-81.4091509997061,28.598923000184605],[-81.4091440000334,28.598059000310066],[-81.40909200015486,28.59804699993317],[-81.40897099978102,28.59801900036297],[-81.40884600010757,28.597975000009182],[-81.40878400018327,28.597998999989304],[-81.4087210004341,28.59802500015879],[-81.40823500018729,28.598592000223054],[-81.40805899956187,28.598699999850897],[-81.40792300001775,28.598784000361086],[-81.40769200003908,28.598838999785556],[-81.40744299961872,28.598921000006854],[-81.40702699969212,28.598935999761476],[-81.40699999992795,28.598937999938933],[-81.40676999977417,28.59882800037617],[-81.4066109997655,28.59882800037617],[-81.406594999872,28.59882800037617],[-81.40638300015989,28.59891600035106],[-81.40620800025769,28.599080999908267],[-81.40611500037129,28.599213000313913],[-81.40605199972377,28.599459999994266],[-81.40612000039415,28.59982600003697],[-81.40613299991462,28.59984000037101],[-81.40602099976162,28.59990099972027],[-81.40600900006606,28.59996099974385],[-81.40602099976162,28.60013199970201],[-81.40589000024038,28.600324000181303],[-81.40589000024038,28.600351999926104],[-81.40597700027901,28.600362999964645],[-81.40602699960941,28.600396000073395],[-81.40598999979949,28.60044499978556],[-81.40590899960864,28.60052799961602],[-81.40574700012525,28.600720000160504],[-81.405609000033,28.60079700013648],[-81.40550000025304,28.600875000126397],[-81.40509199982404,28.601171000006147],[-81.40497299999835,28.60123699970582],[-81.40481700036274,28.601247999651704],[-81.40466800039982,28.601281000271268],[-81.40454299982804,28.60126600006264],[-81.40435000038251,28.60124300010663],[-81.404286999735,28.601188000362956],[-81.40422499981072,28.601105000265076],[-81.40416899973422,28.601049999660464],[-81.40405699958121,28.601023000170517],[-81.40401599957335,28.60098499991259],[-81.40373899956391,28.60127399980609],[-81.40365200042359,28.601361000033194],[-81.40439999971291,28.60185200036338],[-81.40444400009385,28.601880999761786],[-81.40471299970736,28.60185399969663],[-81.40499700028779,28.60181999998445],[-81.40519599958112,28.601787000322897],[-81.40530500025937,28.60175399986231],[-81.40540700036662,28.60170700009657],[-81.40546900029089,28.601666999960564],[-81.4054979997049,28.60164400009239],[-81.40577800008738,28.601362000098845],[-81.40600499986812,28.601141000344057],[-81.4061310002648,28.601019999963846],[-81.40648400044222,28.600677000221044],[-81.40669000030655,28.600481000090653],[-81.4068140001551,28.60036500011494],[-81.40685599998788,28.60034799962498],[-81.40688299975207,28.600345000187758],[-81.40695800009516,28.600346000263077],[-81.40721800038615,28.60034799962498],[-81.40799800036082,28.600354000076614],[-81.4082579997535,28.600356000227077],[-81.4082920000887,28.600356000227077],[-81.40833100044674,28.600357000302242],[-81.40839400019594,28.600357000302242],[-81.40842900035605,28.600358000377447],[-81.4084469998994,28.600358000377447],[-81.40850100032605,28.600358000377447],[-81.40851899986943,28.600358999663925],[-81.40886500037413,28.60036199988948],[-81.40986700010666,28.600374000002027],[-81.40990899993946,28.60037500007708],[-81.41029599955375,28.600382999888403],[-81.41082600018149,28.600381999813425]]]},"properties":{"block_id":"120950125001007","school_id":"sch_pinecrest_creek_charter","kids_est":7,"class":"green","shortest":{"len_m":1573.2,"mean_c":37.55,"peak_c":37.6,"dose":98.9},"coolest":{"len_m":1573.2,"mean_c":37.55,"peak_c":37.6,"dose":98.9},"delta_mean_c":0.0,"delta_dose_pct":0,"distance_mi":0.639,"status_now":"walk","status_rec":"walk","reason":"Shortest route already under threshold (dose 99).","safe_until_hour":null}},{"type":"Feature","geometry":{"type":"Polygon","coordinates":[[[-81.4016890000681,28.606041000378063],[-81.40169499991589,28.60591299996379],[-81.39904399964723,28.60588000001039],[-81.39903000030182,28.60615699960838],[-81.39900299963934,28.60709900003643],[-81.3989929995936,28.607422999959507],[-81.39896500000451,28.60839600004111],[-81.39895699960859,28.608720999902847],[-81.39941799974103,28.60872199989844],[-81.40007999971495,28.608723999889616],[-81.40036099992234,28.60872999986291],[-81.40041699999884,28.608734999840337],[-81.40046899987738,28.608753999752487],[-81.40051099971018,28.608786000385454],[-81.4005419996723,28.608828000166355],[-81.40055599991601,28.608875999895332],[-81.40054699969518,28.609051000298848],[-81.40052599977878,28.609511999754506],[-81.40071400009977,28.609505999825878],[-81.40127899998929,28.609490000014638],[-81.40146800013517,28.609486000061413],[-81.40157400044038,28.607654999972077],[-81.40166399995374,28.606307000136436],[-81.4016890000681,28.606041000378063]]]},"properties":{"block_id":"120950152021020","school_id":"sch_pinecrest_creek_charter","kids_est":0,"class":"green","shortest":{"len_m":317.7,"mean_c":37.5,"peak_c":37.5,"dose":19.8},"coolest":{"len_m":317.7,"mean_c":37.5,"peak_c":37.5,"dose":19.8},"delta_mean_c":0.0,"delta_dose_pct":0,"distance_mi":0.216,"status_now":"walk","status_rec":"walk","reason":"Shortest route already under threshold (dose 20).","safe_until_hour":null}}]}