{"type":"FeatureCollection","features":[{"type":"Feature","geometry":{"type":"Polygon","coordinates":[[[-81.4136359995605,28.545780000346106],[-81.4136289998878,28.5455539999751],[-81.4136070001465,28.54499499974665],[-81.41360399977344,28.5444940001717],[-81.41359999957548,28.54416399999105],[-81.413587000055,28.543804999945127],[-81.41358100020722,28.54339399975757],[-81.41358100020722,28.543211000356187],[-81.41358200003214,28.543026000185414],[-81.41359000042806,28.542580000357344],[-81.41310699965598,28.542213999986572],[-81.41263399982796,28.541866000240034],[-81.41143899975158,28.540953999749345],[-81.41070900000562,28.540402000144045],[-81.41034099975958,28.540128999621903],[-81.41033999993469,28.5401509996671],[-81.41030800014764,28.5401509996671],[-81.41015800035981,28.540153000173174],[-81.41016300038268,28.54047099966099],[-81.41000699984876,28.54047300016097],[-81.41000299965079,28.54017099999109],[-81.41000299965079,28.540082999799626],[-81.40959299957197,28.540092000109578],[-81.40960000014297,28.540998000279643],[-81.40964899964845,28.540996999640118],[-81.40970600044818,28.540994999939183],[-81.40988800002306,28.540990999748157],[-81.41001299969653,28.540989999897665],[-81.41032599969097,28.540988000196652],[-81.41081500031083,28.540985999706393],[-81.41087300003717,28.540990999748157],[-81.41093800033448,28.541006999722242],[-81.4109950002359,28.541030000223383],[-81.41104700011442,28.541059999668484],[-81.41108099955132,28.541087000345577],[-81.41113199960492,28.54114100010062],[-81.41116299956708,28.54118899994737],[-81.41117599998586,28.54122099983302],[-81.41118500020669,28.541240000105745],[-81.41119799972718,28.541294999630036],[-81.4112010001002,28.541349999914697],[-81.41119199987938,28.541624000273682],[-81.41119000022957,28.54171699997435],[-81.41118900040465,28.541883999765275],[-81.41119600007734,28.542262000133565],[-81.41120399957495,28.542686000218584],[-81.411206999948,28.543398999685035],[-81.41120899959783,28.5437789997888],[-81.41121000032105,28.544027999869208],[-81.41121100014597,28.54409300009443],[-81.41121799981865,28.54440200037353],[-81.41121799981865,28.54477499973532],[-81.41121799981865,28.54482499992171],[-81.41120299975003,28.54491200028419],[-81.41116299956708,28.545015999752355],[-81.41127300007024,28.545049999677644],[-81.41160600015617,28.545154999609704],[-81.41171699958592,28.54519099990051],[-81.41181399967031,28.545220999738852],[-81.41210499992346,28.54531099999186],[-81.41220299983274,28.545342000394335],[-81.41280999955507,28.545525999846504],[-81.41284200024043,28.5455360002878],[-81.4136359995605,28.545780000346106]]]},"properties":{"block_id":"120950183003015","school_id":"sch_prosperitas_leadership_academy_charter","kids_est":3,"class":"green","shortest":{"len_m":525.2,"mean_c":38.03,"peak_c":38.2,"dose":36.9},"coolest":{"len_m":525.2,"mean_c":38.03,"peak_c":38.2,"dose":36.9},"delta_mean_c":0.0,"delta_dose_pct":0,"distance_mi":0.176,"status_now":"walk","status_rec":"walk","reason":"Shortest route already under threshold (dose 37).","safe_until_hour":null}},{"type":"Feature","geometry":{"type":"Polygon","coordinates":[[[-81.4112010001002,28.541349999914697],[-81.41119799972718,28.541294999630036],[-81.41118500020669,28.541240000105745],[-81.41117599998586,28.54122099983302],[-81.41116299956708,28.54118899994737],[-81.41113199960492,28.54114100010062],[-81.41108099955132,28.541087000345577],[-81.41104700011442,28.541059999668484],[-81.4109950002359,28.541030000223383],[-81.41093800033448,28.541006999722242],[-81.41087300003717,28.540990999748157],[-81.41081500031083,28.540985999706393],[-81.41032599969097,28.540988000196652],[-81.41001299969653,28.540989999897665],[-81.41001600006958,28.54107800012065],[-81.41002299974227,28.54151800013291],[-81.41033300026199,28.541513000116215],[-81.41072400007424,28.54150800009922],[-81.4107280002722,28.54180700006468],[-81.41073099974693,28.54184899976487],[-81.41073400011999,28.541891000237474],[-81.41102500037312,28.54188600023841],[-81.41118900040465,28.541883999765275],[-81.41119000022957,28.54171699997435],[-81.41119199987938,28.541624000273682],[-81.4112010001002,28.541349999914697]]]},"properties":{"block_id":"120950183003016","school_id":"sch_prosperitas_leadership_academy_charter","kids_est":0,"class":"green","shortest":{"len_m":488.2,"mean_c":38.01,"peak_c":38.1,"dose":34.1},"coolest":{"len_m":488.2,"mean_c":38.01,"peak_c":38.1,"dose":34.1},"delta_mean_c":0.0,"delta_dose_pct":0,"distance_mi":0.2,"status_now":"walk","status_rec":"walk","reason":"Shortest route already under threshold (dose 34).","safe_until_hour":null}},{"type":"Feature","geometry":{"type":"Polygon","coordinates":[[[-81.41359000042806,28.542580000357344],[-81.4135949995526,28.542383000242513],[-81.4132919996039,28.542145000032964],[-81.41292300043129,28.541853999765664],[-81.41254299959138,28.541549000073445],[-81.41238100010797,28.541437999836955],[-81.41121500034393,28.5405459998396],[-81.41098500019015,28.540386000078005],[-81.41094400018225,28.54034000036795],[-81.41086700018937,28.540287999916657],[-81.4106360002107,28.540126999904544],[-81.41056000004271,28.540075000137282],[-81.41039299963815,28.540075999996464],[-81.4103419995845,28.54007699985562],[-81.41034099975958,28.540128999621903],[-81.41070900000562,28.540402000144045],[-81.41143899975158,28.540953999749345],[-81.41263399982796,28.541866000240034],[-81.41310699965598,28.542213999986572],[-81.41359000042806,28.542580000357344]]]},"properties":{"block_id":"120950183003028","school_id":"sch_prosperitas_leadership_academy_charter","kids_est":0,"class":"green","shortest":{"len_m":1022.9,"mean_c":38.07,"peak_c":38.2,"dose":72.2},"coolest":{"len_m":1022.9,"mean_c":38.07,"peak_c":38.2,"dose":72.2},"delta_mean_c":0.0,"delta_dose_pct":0,"distance_mi":0.248,"status_now":"walk","status_rec":"walk","reason":"Shortest route already under threshold (dose 72).","safe_until_hour":null}},{"type":"Feature","geometry":{"type":"Polygon","coordinates":[[[-81.41803400027459,28.543582000338088],[-81.41803000007663,28.542692000013997],[-81.41594500042069,28.54272699973431],[-81.41593600019988,28.543176000007552],[-81.41594000039784,28.543541000366005],[-81.41598200023063,28.54356900023314],[-81.41605300037574,28.54359700009289],[-81.41613000036863,28.54360900036869],[-81.41756700029434,28.543593000000676],[-81.41803400027459,28.543582000338088]]]},"properties":{"block_id":"120950117011001","school_id":"sch_prosperitas_leadership_academy_charter","kids_est":0,"class":"red","shortest":{"len_m":1758.6,"mean_c":38.03,"peak_c":38.2,"dose":122.6},"coolest":{"len_m":1758.6,"mean_c":38.03,"peak_c":38.2,"dose":122.6},"delta_mean_c":0.0,"delta_dose_pct":0,"distance_mi":0.467,"status_now":"walk","status_rec":"bus_eligible","reason":"Coolest route mean 38.0C exceeds threshold (110 C-min dose, actual 123).","safe_until_hour":"14:00"}},{"type":"Feature","geometry":{"type":"Polygon","coordinates":[[[-81.41034099975958,28.540128999621903],[-81.4103419995845,28.54007699985562],[-81.41027200016262,28.540077999714775],[-81.41024399967522,28.540079000363093],[-81.4102140004363,28.540079000363093],[-81.41000299965079,28.540082999799626],[-81.41000299965079,28.54017099999109],[-81.41000699984876,28.54047300016097],[-81.41016300038268,28.54047099966099],[-81.41015800035981,28.540153000173174],[-81.41030800014764,28.5401509996671],[-81.41033999993469,28.5401509996671],[-81.41034099975958,28.540128999621903]]]},"properties":{"block_id":"120950183003029","school_id":"sch_prosperitas_leadership_academy_charter","kids_est":0,"class":"green","shortest":{"len_m":574.6,"mean_c":38.02,"peak_c":38.1,"dose":40.2},"coolest":{"len_m":574.6,"mean_c":38.02,"peak_c":38.1,"dose":40.2},"delta_mean_c":0.0,"delta_dose_pct":0,"distance_mi":0.264,"status_now":"walk","status_rec":"walk","reason":"Shortest route already under threshold (dose 40).","safe_until_hour":null}},{"type":"Feature","geometry":{"type":"Polygon","coordinates":[[[-81.42004000028778,28.545722999606937],[-81.42003699991471,28.545518999615876],[-81.42003699991471,28.54545199986532],[-81.42003400043998,28.545245999729207],[-81.42003299971677,28.545102000145555],[-81.4200350002649,28.54463100029693],[-81.4200360000898,28.54442599995126],[-81.4200360000898,28.544009999921194],[-81.4200350002649,28.543593000000676],[-81.4200350002649,28.543547999938948],[-81.41967399969155,28.543556000126646],[-81.4190569999235,28.54356000022032],[-81.41807199990942,28.54358099972304],[-81.41803400027459,28.543582000338088],[-81.41756700029434,28.543593000000676],[-81.41613000036863,28.54360900036869],[-81.41605300037574,28.54359700009289],[-81.41598200023063,28.54356900023314],[-81.41594000039784,28.543541000366005],[-81.41593600019988,28.543176000007552],[-81.41594500042069,28.54272699973431],[-81.41593700002478,28.5425430001275],[-81.41593399965174,28.542439999632617],[-81.41593299982682,28.5419920000089],[-81.41593299982682,28.541808999750145],[-81.41591500028348,28.541808999750145],[-81.41586300040494,28.541808999750145],[-81.41583099971957,28.54181000038201],[-81.41548900031113,28.5418310002336],[-81.41442099955806,28.541897999920046],[-81.41406499990589,28.541921000226587],[-81.41399299993587,28.54192700006551],[-81.41396500034678,28.541916000228973],[-81.41389000000372,28.541895000394316],[-81.4137979999422,28.541887999922434],[-81.41380100031525,28.541942000056043],[-81.41380899981286,28.54211400026782],[-81.41381100036098,28.542583999698884],[-81.41510500017158,28.543534000003458],[-81.4158390001155,28.544101000240794],[-81.4166490002274,28.54459399999845],[-81.41714100032199,28.544832000198443],[-81.41735700023204,28.544933000306447],[-81.41778800022728,28.545095999698347],[-81.41806299968859,28.54518900027924],[-81.41842599991175,28.54533800036839],[-81.41853600041489,28.545380000238904],[-81.41887500034863,28.545484999841978],[-81.41889600026502,28.545491000267102],[-81.41924600006938,28.545594000145897],[-81.41940300042822,28.545623999869512],[-81.41946899965215,28.545638000316284],[-81.4198169998067,28.545693999717365],[-81.41988100027909,28.54570199974213],[-81.42004000028778,28.545722999606937]]]},"properties":{"block_id":"120950117011000","school_id":"sch_prosperitas_leadership_academy_charter","kids_est":0,"class":"red","shortest":{"len_m":1758.6,"mean_c":38.03,"peak_c":38.2,"dose":122.6},"coolest":{"len_m":1758.6,"mean_c":38.03,"peak_c":38.2,"dose":122.6},"delta_mean_c":0.0,"delta_dose_pct":0,"distance_mi":0.478,"status_now":"walk","status_rec":"bus_eligible","reason":"Coolest route mean 38.0C exceeds threshold (110 C-min dose, actual 123).","safe_until_hour":"14:00"}},{"type":"Feature","geometry":{"type":"Polygon","coordinates":[[[-81.42615500041173,28.54309299990089],[-81.42615700006155,28.54307800007426],[-81.4260340000379,28.5423500000831],[-81.4258220003258,28.542364000175898],[-81.42562300013418,28.542480000196893],[-81.42555399963886,28.54254599963478],[-81.42553600009552,28.54255499973429],[-81.42558499960103,28.543018999788643],[-81.42547900019413,28.543096000181606],[-81.42536100019333,28.543101000123155],[-81.42515500032903,28.54315100031509],[-81.42512099999384,28.54315100031509],[-81.4249500002896,28.54315600025403],[-81.42481300002225,28.54298599982847],[-81.42458799989136,28.542957999806365],[-81.42454500023365,28.54293600034743],[-81.42454500023365,28.542881000101673],[-81.42485599967996,28.54287000036474],[-81.4249000000609,28.54285399988441],[-81.42486900009875,28.542733000316474],[-81.42486900009875,28.54265599965823],[-81.42481899987006,28.542590000289206],[-81.42452599996707,28.542551000391594],[-81.42442600040796,28.542506999720807],[-81.42437000033148,28.542446000231195],[-81.42422100036856,28.542434999659683],[-81.42406900003259,28.54246299982082],[-81.42401499960592,28.542474000389404],[-81.42376600008389,28.542567000128738],[-81.42357899958783,28.542654999823487],[-81.42332000002004,28.542867999910282],[-81.42310499993489,28.543045999963553],[-81.42285600041286,28.54314499975666],[-81.42260699999252,28.543172999729112],[-81.42243799993813,28.54325000000951],[-81.42228899997521,28.543260999706764],[-81.42227700027964,28.543232999757684],[-81.42217699982221,28.54316699996109],[-81.42213300033958,28.543040000188356],[-81.42212300029385,28.54291599975919],[-81.42211499989794,28.54281500008453],[-81.42214599986008,28.54272699973431],[-81.42236400031828,28.542551000391594],[-81.42248800016684,28.542434999659683],[-81.42264399980245,28.542237000224173],[-81.42281299985684,28.541946000210963],[-81.42287499978111,28.541702999795575],[-81.42290300026853,28.541681000074473],[-81.42275199975748,28.541677999753468],[-81.42262999955875,28.541676000065525],[-81.42229999984585,28.54166199988129],[-81.42215000005804,28.541656999871382],[-81.42201899963847,28.54165900034883],[-81.4219070003838,28.54166100003717],[-81.42163200002419,28.541717999817937],[-81.42150399997766,28.541745000326323],[-81.42152499989406,28.541751000175346],[-81.4215569996811,28.541766000190876],[-81.42158699981833,28.54178500036536],[-81.4216129997576,28.54180700006468],[-81.421633999674,28.541832999918654],[-81.42165100029075,28.541861000239813],[-81.42166299998632,28.541891000237474],[-81.42166999965902,28.54192299990989],[-81.42166999965902,28.541940000373046],[-81.42167100038223,28.54195500036173],[-81.42166600035937,28.541987000014707],[-81.42165600031362,28.542017999817226],[-81.42163000037435,28.54206199990311],[-81.42159699986406,28.54209699983273],[-81.42131499983176,28.542316999913357],[-81.42108300002818,28.542491999810807],[-81.42091899999666,28.542617999620038],[-81.42087100031608,28.5426670002066],[-81.42084299982866,28.54270500022712],[-81.42081900043753,28.5427559996516],[-81.42080400036892,28.542810000129343],[-81.42080099999588,28.54284999976398],[-81.42080000017096,28.542864999623013],[-81.42080199982078,28.54297699976579],[-81.42081299969144,28.54303199996141],[-81.42083000030819,28.54308600029772],[-81.42085500042253,28.5431389999871],[-81.4209149997987,28.543240999969374],[-81.42098400029398,28.54333899975095],[-81.42102699995168,28.543388999829926],[-81.42106399976159,28.543430999688493],[-81.42117000006681,28.543529999908838],[-81.4212119998996,28.543564000313793],[-81.42125100025766,28.54359399982645],[-81.42131999985463,28.543638999868534],[-81.42143299983255,28.543697999806874],[-81.42155300038145,28.54374399962888],[-81.42184899975915,28.54382500036457],[-81.4219569997142,28.54385499980289],[-81.42199199987428,28.54386799987248],[-81.42202399966135,28.543889000102887],[-81.42204899977568,28.54391500023212],[-81.42206600039245,28.543946000256337],[-81.42207200024023,28.543972000371514],[-81.42206800004227,28.544229000132333],[-81.42206399984431,28.5442559999971],[-81.42205999964635,28.54426599976991],[-81.42205499962348,28.544281000216444],[-81.42202399966135,28.544325999965025],[-81.42200299974493,28.544344999677758],[-81.42195300041455,28.54437399993869],[-81.42189599961482,28.544387999762478],[-81.42161699995556,28.544392999642756],[-81.42043100010002,28.544417000011617],[-81.4200360000898,28.54442599995126],[-81.4200350002649,28.54463100029693],[-81.42003299971677,28.545102000145555],[-81.42003400043998,28.545245999729207],[-81.42003699991471,28.54545199986532],[-81.42044199997068,28.545444999629794],[-81.42086000044542,28.5454380001829],[-81.42165899978836,28.545431999754825],[-81.42206499966922,28.54543000013814],[-81.42231900011244,28.54542799973229],[-81.4230840000185,28.545422000092714],[-81.42333900028663,28.545421000284282],[-81.42349400009732,28.54541899987827],[-81.42395900042774,28.54541300023817],[-81.42411500006334,28.545411999640528],[-81.4241119996903,28.54523500023917],[-81.4241050000176,28.544753999681497],[-81.42410300036778,28.544704000250558],[-81.42410300036778,28.54467199984468],[-81.42410199964455,28.5445890001277],[-81.42410599984252,28.544560999742565],[-81.42412299956095,28.544533000139133],[-81.4241329996067,28.544521999785566],[-81.42417000031493,28.54449999986414],[-81.42420100027707,28.54449300035445],[-81.4245190002944,28.54449300035445],[-81.42464899999074,28.5444940001717],[-81.42534000027695,28.54448900029627],[-81.42571199982262,28.544491999748082],[-81.42574399960968,28.544495999806212],[-81.42586199961046,28.544513999671175],[-81.42596200006788,28.544521999785566],[-81.42615100021376,28.544519000334557],[-81.4261470000158,28.544343999859095],[-81.42613500032024,28.54382200010463],[-81.4261319999472,28.54364799987465],[-81.42612899957413,28.543583000163977],[-81.42612100007653,28.5433910002745],[-81.42611900042671,28.543327000233536],[-81.42615500041173,28.54309299990089]]]},"properties":{"block_id":"120950117011002","school_id":"sch_prosperitas_leadership_academy_charter","kids_est":5,"class":"red","shortest":{"len_m":1875.8,"mean_c":38.0,"peak_c":38.1,"dose":129.8},"coolest":{"len_m":1875.8,"mean_c":38.0,"peak_c":38.1,"dose":129.8},"delta_mean_c":0.0,"delta_dose_pct":0,"distance_mi":0.834,"status_now":"walk","status_rec":"bus_eligible","reason":"Coolest route mean 38.0C exceeds threshold (110 C-min dose, actual 130).","safe_until_hour":"14:00"}},{"type":"Feature","geometry":{"type":"Polygon","coordinates":[[[-81.41121799981865,28.54477499973532],[-81.41121799981865,28.54440200037353],[-81.41121100014597,28.54409300009443],[-81.41121000032105,28.544027999869208],[-81.41120899959783,28.5437789997888],[-81.4110169999772,28.543787999782957],[-81.41044100021703,28.54381899984454],[-81.41025000042131,28.543830000271516],[-81.41025100024622,28.544009999921194],[-81.41025600026909,28.54454699994178],[-81.41023799982742,28.54462499982288],[-81.4102140004363,28.544680999762544],[-81.41019199979667,28.544717000215353],[-81.41038599996544,28.544773999920743],[-81.41066299997487,28.54485700028107],[-81.41096900029662,28.54495400032457],[-81.41116299956708,28.545015999752355],[-81.41120299975003,28.54491200028419],[-81.41121799981865,28.54482499992171],[-81.41121799981865,28.54477499973532]]]},"properties":{"block_id":"120950183003014","school_id":"sch_prosperitas_leadership_academy_charter","kids_est":0,"class":"green","shortest":{"len_m":150.9,"mean_c":37.94,"peak_c":38.0,"dose":10.4},"coolest":{"len_m":150.9,"mean_c":37.94,"peak_c":38.0,"dose":10.4},"delta_mean_c":0.0,"delta_dose_pct":0,"distance_mi":0.087,"status_now":"walk","status_rec":"walk","reason":"Shortest route already under threshold (dose 10).","safe_until_hour":null}},{"type":"Feature","geometry":{"type":"Polygon","coordinates":[[[-81.42078099990438,28.540751999697505],[-81.4207819997293,28.54072399987076],[-81.4207740002317,28.54067699966562],[-81.42068100034527,28.540322999646524],[-81.42064399963705,28.540181000151684],[-81.42010999970965,28.54030099963729],[-81.41995700044708,28.54031699971623],[-81.41992300011191,28.54031699971623],[-81.41804199977219,28.540352000225628],[-81.4178040001208,28.540360999723415],[-81.41774999969412,28.540376999793196],[-81.417726000303,28.540390000292007],[-81.41768699994493,28.540425999843897],[-81.41766299965549,28.54047099966099],[-81.41765500015788,28.540519999667964],[-81.41765900035584,28.54110099981706],[-81.41828500034474,28.541089000044703],[-81.41940400025314,28.54106899989495],[-81.42016400013631,28.5410510002304],[-81.42046000041232,28.54104500034158],[-81.42051300011578,28.541038999663247],[-81.42056499999431,28.541026000033614],[-81.42061400039812,28.54100500002156],[-81.42065799988073,28.540978000112673],[-81.42069700023879,28.54094500030222],[-81.42073900007158,28.54089200029813],[-81.42075499996513,28.540863999719438],[-81.42077199968355,28.540819000070215],[-81.42078099990438,28.54077199990745],[-81.42078099990438,28.540751999697505]]]},"properties":{"block_id":"120950117011011","school_id":"sch_prosperitas_leadership_academy_charter","kids_est":1,"class":"red","shortest":{"len_m":1763.7,"mean_c":38.01,"peak_c":38.1,"dose":122.8},"coolest":{"len_m":1763.7,"mean_c":38.01,"peak_c":38.1,"dose":122.8},"delta_mean_c":0.0,"delta_dose_pct":0,"distance_mi":0.64,"status_now":"walk","status_rec":"bus_eligible","reason":"Coolest route mean 38.0C exceeds threshold (110 C-min dose, actual 123).","safe_until_hour":"14:00"}},{"type":"Feature","geometry":{"type":"Polygon","coordinates":[[[-81.42206800004227,28.544229000132333],[-81.42207200024023,28.543972000371514],[-81.42206600039245,28.543946000256337],[-81.42204899977568,28.54391500023212],[-81.42202399966135,28.543889000102887],[-81.42199199987428,28.54386799987248],[-81.4219569997142,28.54385499980289],[-81.42184899975915,28.54382500036457],[-81.42155300038145,28.54374399962888],[-81.42143299983255,28.543697999806874],[-81.42131999985463,28.543638999868534],[-81.42125100025766,28.54359399982645],[-81.4212119998996,28.543564000313793],[-81.42117000006681,28.543529999908838],[-81.4200350002649,28.543547999938948],[-81.4200350002649,28.543593000000676],[-81.4200360000898,28.544009999921194],[-81.4200360000898,28.54442599995126],[-81.42043100010002,28.544417000011617],[-81.42161699995556,28.544392999642756],[-81.42189599961482,28.544387999762478],[-81.42195300041455,28.54437399993869],[-81.42200299974493,28.544344999677758],[-81.42202399966135,28.544325999965025],[-81.42205499962348,28.544281000216444],[-81.42205999964635,28.54426599976991],[-81.42206399984431,28.5442559999971],[-81.42206800004227,28.544229000132333]]]},"properties":{"block_id":"120950117011005","school_id":"sch_prosperitas_leadership_academy_charter","kids_est":1,"class":"red","shortest":{"len_m":1676.2,"mean_c":38.02,"peak_c":38.1,"dose":116.6},"coolest":{"len_m":1676.2,"mean_c":38.02,"peak_c":38.1,"dose":116.6},"delta_mean_c":0.0,"delta_dose_pct":0,"distance_mi":0.704,"status_now":"walk","status_rec":"bus_eligible","reason":"Coolest route mean 38.0C exceeds threshold (110 C-min dose, actual 117).","safe_until_hour":"14:00"}},{"type":"Feature","geometry":{"type":"Polygon","coordinates":[[[-81.4159379998497,28.545156000209786],[-81.41594100022274,28.54482499992171],[-81.41593100017701,28.544786999876916],[-81.41590600006265,28.54475299986673],[-81.41573899965806,28.54463100029693],[-81.41553199996883,28.54448100017937],[-81.4149240004216,28.544485000237923],[-81.41463700036643,28.54448799968985],[-81.41463700036643,28.544556999686968],[-81.41463999984116,28.54494700005599],[-81.4146430002142,28.545496999902685],[-81.41477799993342,28.545496000094964],[-81.41478600032934,28.546014000233242],[-81.41478700015425,28.54607900002198],[-81.41478700015425,28.546130000180167],[-81.41521599960133,28.546260000363397],[-81.41537200013525,28.546308000244814],[-81.41548299956504,28.54634199975303],[-81.41581599965096,28.546445000377854],[-81.41592799980394,28.546479999640233],[-81.41594100022274,28.546149000356547],[-81.4159379998497,28.54518200002622],[-81.4159379998497,28.545156000209786]]]},"properties":{"block_id":"120950183002058","school_id":"sch_prosperitas_leadership_academy_charter","kids_est":1,"class":"green","shortest":{"len_m":910.1,"mean_c":38.06,"peak_c":38.2,"dose":64.1},"coolest":{"len_m":910.1,"mean_c":38.06,"peak_c":38.2,"dose":64.1},"delta_mean_c":0.0,"delta_dose_pct":0,"distance_mi":0.374,"status_now":"walk","status_rec":"walk","reason":"Shortest route already under threshold (dose 64).","safe_until_hour":null}},{"type":"Feature","geometry":{"type":"Polygon","coordinates":[[[-81.4159169999333,28.544481999996723],[-81.41563800027406,28.5443280003918],[-81.41549699980874,28.544238000087994],[-81.41515600022518,28.544010999743023],[-81.41435500033411,28.543489999743358],[-81.41430099990744,28.54344899973546],[-81.41424200035621,28.5434129996384],[-81.41421899989169,28.543402999784615],[-81.41403399994375,28.543420999836414],[-81.41384800017092,28.543559000394218],[-81.41379600029238,28.543636000392386],[-81.41379100026951,28.543832999742143],[-81.4137900004446,28.544499000046955],[-81.4137839996985,28.54541400004668],[-81.41379499956915,28.545829000250833],[-81.41395799977576,28.5458780001328],[-81.41402200024818,28.545898000158587],[-81.414136000051,28.54593199979917],[-81.41447800035778,28.546035999838434],[-81.41459200016058,28.546071000025854],[-81.41474799979619,28.546118000191594],[-81.41478700015425,28.546130000180167],[-81.41478700015425,28.54607900002198],[-81.41478600032934,28.546014000233242],[-81.41477799993342,28.545496000094964],[-81.4146430002142,28.545496999902685],[-81.41463999984116,28.54494700005599],[-81.41463700036643,28.544556999686968],[-81.41463700036643,28.54448799968985],[-81.4149240004216,28.544485000237923],[-81.41553199996883,28.54448100017937],[-81.4159169999333,28.544481999996723]]]},"properties":{"block_id":"120950183002059","school_id":"sch_prosperitas_leadership_academy_charter","kids_est":1,"class":"green","shortest":{"len_m":610.7,"mean_c":38.04,"peak_c":38.2,"dose":42.8},"coolest":{"len_m":610.9,"mean_c":38.04,"peak_c":38.2,"dose":42.7},"delta_mean_c":0.0,"delta_dose_pct":0,"distance_mi":0.308,"status_now":"walk","status_rec":"walk","reason":"Shortest route already under threshold (dose 43).","safe_until_hour":null}},{"type":"Feature","geometry":{"type":"Polygon","coordinates":[[[-81.40722599988375,28.54605500003182],[-81.40722400023392,28.545958000213176],[-81.40721900021106,28.54566700022121],[-81.40721800038615,28.545570000045235],[-81.40715599956356,28.545567999642035],[-81.40697099961562,28.545562000010495],[-81.40695700027024,28.545562000010495],[-81.40691399971422,28.545542999728166],[-81.40689299979782,28.545521000020003],[-81.40688100010225,28.54549399969038],[-81.40685900036095,28.544270999655925],[-81.4055470001087,28.544282999854936],[-81.4055680000251,28.545575999676377],[-81.40556899985002,28.545676999860067],[-81.40557399987289,28.545983999831638],[-81.40557600042102,28.546086000215336],[-81.4057379999044,28.546076999628475],[-81.405905000309,28.546075000023976],[-81.40689600017086,28.54606300002912],[-81.40705699982936,28.546062000226765],[-81.40722599988375,28.54605500003182]]]},"properties":{"block_id":"120950183003010","school_id":"sch_prosperitas_leadership_academy_charter","kids_est":0,"class":"green","shortest":{"len_m":352.7,"mean_c":37.81,"peak_c":38.0,"dose":23.6},"coolest":{"len_m":352.7,"mean_c":37.81,"peak_c":38.0,"dose":23.6},"delta_mean_c":0.0,"delta_dose_pct":0,"distance_mi":0.205,"status_now":"walk","status_rec":"walk","reason":"Shortest route already under threshold (dose 24).","safe_until_hour":null}},{"type":"Feature","geometry":{"type":"Polygon","coordinates":[[[-81.41073400011999,28.541891000237474],[-81.41073099974693,28.54184899976487],[-81.4107280002722,28.54180700006468],[-81.41072400007424,28.54150800009922],[-81.41033300026199,28.541513000116215],[-81.41002299974227,28.54151800013291],[-81.41001600006958,28.54107800012065],[-81.41001299969653,28.540989999897665],[-81.40988800002306,28.540990999748157],[-81.40970600044818,28.540994999939183],[-81.40964899964845,28.540996999640118],[-81.40960000014297,28.540998000279643],[-81.40960400034093,28.541131000031157],[-81.40961600003651,28.541533000181673],[-81.40962000023445,28.541666999890914],[-81.4096229997092,28.541822000072234],[-81.40962199988428,28.541908999758476],[-81.40968999965635,28.541908999758476],[-81.41021899956085,28.541898999761923],[-81.41027999966022,28.541897999920046],[-81.41037199972175,28.541897000078116],[-81.41053499992834,28.541893999763253],[-81.41067499967043,28.541891000237474],[-81.41073400011999,28.541891000237474]]]},"properties":{"block_id":"120950183003018","school_id":"sch_prosperitas_leadership_academy_charter","kids_est":0,"class":"green","shortest":{"len_m":458.0,"mean_c":38.0,"peak_c":38.1,"dose":32.0},"coolest":{"len_m":458.0,"mean_c":38.0,"peak_c":38.1,"dose":32.0},"delta_mean_c":0.0,"delta_dose_pct":0,"distance_mi":0.175,"status_now":"walk","status_rec":"walk","reason":"Shortest route already under threshold (dose 32).","safe_until_hour":null}},{"type":"Feature","geometry":{"type":"Polygon","coordinates":[[[-81.41459800000835,28.540080000222286],[-81.41459999965818,28.540019999976117],[-81.41420800002102,28.540025000063665],[-81.41351799955972,28.540032999729828],[-81.41351199971193,28.540193999885584],[-81.4135450002222,28.540331000079213],[-81.41357899965908,28.540472000305563],[-81.41360399977344,28.540572999859197],[-81.41381999968351,28.540566999943152],[-81.41413199985304,28.540561999881266],[-81.41459800000835,28.540552999611492],[-81.41459600035854,28.540441999903845],[-81.41459200016058,28.540325000149313],[-81.4145929999855,28.540264000185317],[-81.41459800000835,28.540080000222286]]]},"properties":{"block_id":"120950117011023","school_id":"sch_prosperitas_leadership_academy_charter","kids_est":0,"class":"green","shortest":{"len_m":1071.7,"mean_c":38.06,"peak_c":38.2,"dose":75.7},"coolest":{"len_m":1071.7,"mean_c":38.06,"peak_c":38.2,"dose":75.7},"delta_mean_c":0.0,"delta_dose_pct":0,"distance_mi":0.384,"status_now":"walk","status_rec":"walk","reason":"Shortest route already under threshold (dose 76).","safe_until_hour":null}},{"type":"Feature","geometry":{"type":"Polygon","coordinates":[[[-81.41361100034446,28.547160999815247],[-81.41361800001714,28.546886999655495],[-81.41312300044781,28.546892000206206],[-81.41307499986893,28.546892000206206],[-81.41293299957871,28.546893999795135],[-81.41288599972303,28.546895000378708],[-81.41281600030116,28.546895000378708],[-81.41273900030826,28.54689600017321],[-81.4126630001403,28.546896999967636],[-81.4126630001403,28.546924999731747],[-81.41266599961502,28.547126999782353],[-81.41266800016315,28.54733700013517],[-81.413142999641,28.547333000184988],[-81.41330300037288,28.54733099981522],[-81.41348999997062,28.5473290002346],[-81.41361100034446,28.54732799965515],[-81.41361100034446,28.547160999815247]]]},"properties":{"block_id":"120950183003021","school_id":"sch_prosperitas_leadership_academy_charter","kids_est":0,"class":"green","shortest":{"len_m":887.4,"mean_c":37.95,"peak_c":38.1,"dose":61.0},"coolest":{"len_m":887.4,"mean_c":37.95,"peak_c":38.1,"dose":61.0},"delta_mean_c":0.0,"delta_dose_pct":0,"distance_mi":0.312,"status_now":"walk","status_rec":"walk","reason":"Shortest route already under threshold (dose 61).","safe_until_hour":null}},{"type":"Feature","geometry":{"type":"Polygon","coordinates":[[[-81.40550899957555,28.54194899973519],[-81.40550100007795,28.541561999638535],[-81.40549900042812,28.54104399970244],[-81.40549199985712,28.540551999756826],[-81.40547599996358,28.540137000069322],[-81.40355100014126,28.540156999606847],[-81.40143999964776,28.540177999787968],[-81.40143200015017,28.540398999786554],[-81.40141399970848,28.540603000223655],[-81.40139500034023,28.540755000044896],[-81.40130300027873,28.541246999831582],[-81.40129499988281,28.541343000195717],[-81.40129999990569,28.54148700018326],[-81.40132599984494,28.54163000012959],[-81.4014849998536,28.542215999664364],[-81.40160600022743,28.542293999693285],[-81.40183499965796,28.542442999931918],[-81.40197299975024,28.542520999792742],[-81.40211900023841,28.542588999664808],[-81.40237100013348,28.54268299992619],[-81.40254900040873,28.542739999943105],[-81.40281999967206,28.542815999917707],[-81.40297299983294,28.542844999810512],[-81.40317000037474,28.542864999623013],[-81.40334799975166,28.542867000077546],[-81.40347099977532,28.542858999837513],[-81.4035979999969,28.542839999856735],[-81.40378299994484,28.542791999973197],[-81.40390199977053,28.54274800019224],[-81.40410299961198,28.54265200031936],[-81.40419999969636,28.54258699999409],[-81.40430799965141,28.542492999647024],[-81.4043930000402,28.54241300009153],[-81.40446699966006,28.542325000194612],[-81.4045899996837,28.542145999872503],[-81.4046730004227,28.542064000372875],[-81.40471000023261,28.542036000105636],[-81.4047939998982,28.54198899969675],[-81.40488500013481,28.54195799988569],[-81.40498200021919,28.541943999738947],[-81.40550899957555,28.54194899973519]]]},"properties":{"block_id":"120950183003032","school_id":"sch_prosperitas_leadership_academy_charter","kids_est":0,"class":"green","shortest":{"len_m":823.1,"mean_c":37.94,"peak_c":38.1,"dose":56.4},"coolest":{"len_m":823.1,"mean_c":37.94,"peak_c":38.1,"dose":56.4},"delta_mean_c":0.0,"delta_dose_pct":0,"distance_mi":0.371,"status_now":"walk","status_rec":"walk","reason":"Shortest route already under threshold (dose 56).","safe_until_hour":null}},{"type":"Feature","geometry":{"type":"Polygon","coordinates":[[[-81.40806100011001,28.546877999926135],[-81.4080529997141,28.54661300036109],[-81.4080460000414,28.546361999690667],[-81.4080390003687,28.54581899983736],[-81.40803599999566,28.545554999782272],[-81.40776700038214,28.545559999607104],[-81.40721800038615,28.545570000045235],[-81.40721900021106,28.54566700022121],[-81.40722400023392,28.545958000213176],[-81.40722599988375,28.54605500003182],[-81.4072290002568,28.54622100024635],[-81.40724000012746,28.546719000109317],[-81.4072440003254,28.54688599986098],[-81.40740699963372,28.5468840002719],[-81.40789700007849,28.54687899972074],[-81.40806100011001,28.546877999926135]]]},"properties":{"block_id":"120950183003006","school_id":"sch_prosperitas_leadership_academy_charter","kids_est":1,"class":"green","shortest":{"len_m":407.9,"mean_c":37.78,"peak_c":38.0,"dose":27.2},"coolest":{"len_m":407.9,"mean_c":37.78,"peak_c":38.0,"dose":27.2},"delta_mean_c":0.0,"delta_dose_pct":0,"distance_mi":0.184,"status_now":"walk","status_rec":"walk","reason":"Shortest route already under threshold (dose 27).","safe_until_hour":null}},{"type":"Feature","geometry":{"type":"Polygon","coordinates":[[[-81.40962199988428,28.541908999758476],[-81.4096229997092,28.541822000072234],[-81.40962000023445,28.541666999890914],[-81.40961600003651,28.541533000181673],[-81.40960400034093,28.541131000031157],[-81.40960000014297,28.540998000279643],[-81.40919099988905,28.540999999980524],[-81.40823199981425,28.54100800036174],[-81.40796700039868,28.541014000252723],[-81.40771600032852,28.541020999993584],[-81.40755899996967,28.541017999653775],[-81.40755800014477,28.54115100016913],[-81.40757300021339,28.541249000316842],[-81.40758499990895,28.54142000023546],[-81.40757499986321,28.541573000301153],[-81.40758099971099,28.541927999907124],[-81.40860300043333,28.54191799991235],[-81.40962199988428,28.541908999758476]]]},"properties":{"block_id":"120950183003024","school_id":"sch_prosperitas_leadership_academy_charter","kids_est":0,"class":"green","shortest":{"len_m":311.8,"mean_c":37.96,"peak_c":38.0,"dose":21.6},"coolest":{"len_m":311.8,"mean_c":37.96,"peak_c":38.0,"dose":21.6},"delta_mean_c":0.0,"delta_dose_pct":0,"distance_mi":0.183,"status_now":"walk","status_rec":"walk","reason":"Shortest route already under threshold (dose 22).","safe_until_hour":null}},{"type":"Feature","geometry":{"type":"Polygon","coordinates":[[[-81.4055470001087,28.544282999854936],[-81.40550899957555,28.54194899973519],[-81.40498200021919,28.541943999738947],[-81.40488500013481,28.54195799988569],[-81.4047939998982,28.54198899969675],[-81.40471000023261,28.542036000105636],[-81.4046730004227,28.542064000372875],[-81.4045899996837,28.542145999872503],[-81.40446699966006,28.542325000194612],[-81.4043930000402,28.54241300009153],[-81.40430799965141,28.542492999647024],[-81.40419999969636,28.54258699999409],[-81.40423599968138,28.542664999748286],[-81.40425099974999,28.54273099985941],[-81.40425800032101,28.543511000049115],[-81.40426800036674,28.544010999743023],[-81.40425699959778,28.54424700004293],[-81.4045820001861,28.54426599976991],[-81.40502800024994,28.544282999854936],[-81.4055470001087,28.544282999854936]]]},"properties":{"block_id":"120950183001021","school_id":"sch_prosperitas_leadership_academy_charter","kids_est":0,"class":"green","shortest":{"len_m":556.6,"mean_c":37.8,"peak_c":38.0,"dose":37.0},"coolest":{"len_m":556.6,"mean_c":37.8,"peak_c":38.0,"dose":37.0},"delta_mean_c":0.0,"delta_dose_pct":0,"distance_mi":0.277,"status_now":"walk","status_rec":"walk","reason":"Shortest route already under threshold (dose 37).","safe_until_hour":null}},{"type":"Feature","geometry":{"type":"Polygon","coordinates":[[[-81.40760400017552,28.544261999703103],[-81.40759800032774,28.543749000328827],[-81.40730399970157,28.543669999973982],[-81.4071940000967,28.54363099968707],[-81.4070879997915,28.543583000163977],[-81.4069890000573,28.54352499998766],[-81.40689699999578,28.543459000374014],[-81.40685400033807,28.543421999663828],[-81.40665099994848,28.5431930002685],[-81.40640900009915,28.542933000062096],[-81.4061100003484,28.542601999890643],[-81.40550899957555,28.54194899973519],[-81.4055470001087,28.544282999854936],[-81.40685900036095,28.544270999655925],[-81.40730000040192,28.544268000197818],[-81.40738599971733,28.544264000131086],[-81.40760400017552,28.544261999703103]]]},"properties":{"block_id":"120950183003027","school_id":"sch_prosperitas_leadership_academy_charter","kids_est":0,"class":"green","shortest":{"len_m":493.4,"mean_c":37.79,"peak_c":38.0,"dose":32.8},"coolest":{"len_m":493.4,"mean_c":37.79,"peak_c":38.0,"dose":32.8},"delta_mean_c":0.0,"delta_dose_pct":0,"distance_mi":0.19,"status_now":"walk","status_rec":"walk","reason":"Shortest route already under threshold (dose 33).","safe_until_hour":null}},{"type":"Feature","geometry":{"type":"Polygon","coordinates":[[[-81.4086300001975,28.544357999686866],[-81.40860300043333,28.54191799991235],[-81.40758099971099,28.541927999907124],[-81.40758499990895,28.542677999964795],[-81.40759800032774,28.543749000328827],[-81.40760400017552,28.544261999703103],[-81.40738599971733,28.544264000131086],[-81.40730000040192,28.544268000197818],[-81.40685900036095,28.544270999655925],[-81.40688100010225,28.54549399969038],[-81.40689299979782,28.545521000020003],[-81.40691399971422,28.545542999728166],[-81.40695700027024,28.545562000010495],[-81.40697099961562,28.545562000010495],[-81.40715599956356,28.545567999642035],[-81.40721800038615,28.545570000045235],[-81.40776700038214,28.545559999607104],[-81.4077489999405,28.544474999696767],[-81.40775399996335,28.54426599976991],[-81.40790299992626,28.544273000083745],[-81.40815999984422,28.544295000052585],[-81.4086300001975,28.544357999686866]]]},"properties":{"block_id":"120950183003011","school_id":"sch_prosperitas_leadership_academy_charter","kids_est":3,"class":"green","shortest":{"len_m":163.2,"mean_c":37.9,"peak_c":38.0,"dose":11.2},"coolest":{"len_m":163.2,"mean_c":37.9,"peak_c":38.0,"dose":11.2},"delta_mean_c":0.0,"delta_dose_pct":0,"distance_mi":0.095,"status_now":"walk","status_rec":"walk","reason":"Shortest route already under threshold (dose 11).","safe_until_hour":null}},{"type":"Feature","geometry":{"type":"Polygon","coordinates":[[[-81.42167100038223,28.54195500036173],[-81.42166999965902,28.541940000373046],[-81.42166999965902,28.54192299990989],[-81.42166299998632,28.541891000237474],[-81.42165100029075,28.541861000239813],[-81.421633999674,28.541832999918654],[-81.4216129997576,28.54180700006468],[-81.42158699981833,28.54178500036536],[-81.4215569996811,28.541766000190876],[-81.42152499989406,28.541751000175346],[-81.42150399997766,28.541745000326323],[-81.42149099955887,28.54174100016378],[-81.42145499957385,28.541735000314198],[-81.42141899958884,28.541735000314198],[-81.42121100007469,28.541737000001085],[-81.42033200036582,28.541748999699628],[-81.42003899956454,28.541753999705104],[-81.4200419999376,28.54193600021791],[-81.42004500031064,28.542041000097562],[-81.4200419999376,28.542481999869583],[-81.4200419999376,28.542664999748286],[-81.42020699979403,28.54266300007907],[-81.42064500036025,28.542659999786025],[-81.4207049997364,28.54266099962068],[-81.42087100031608,28.5426670002066],[-81.42091899999666,28.542617999620038],[-81.42108300002818,28.542491999810807],[-81.42131499983176,28.542316999913357],[-81.42159699986406,28.54209699983273],[-81.42163000037435,28.54206199990311],[-81.42165600031362,28.542017999817226],[-81.42166600035937,28.541987000014707],[-81.42167100038223,28.54195500036173]]]},"properties":{"block_id":"120950117011003","school_id":"sch_prosperitas_leadership_academy_charter","kids_est":0,"class":"red","shortest":{"len_m":1740.2,"mean_c":38.01,"peak_c":38.1,"dose":121.1},"coolest":{"len_m":1740.2,"mean_c":38.01,"peak_c":38.1,"dose":121.1},"delta_mean_c":0.0,"delta_dose_pct":0,"distance_mi":0.703,"status_now":"walk","status_rec":"bus_eligible","reason":"Coolest route mean 38.0C exceeds threshold (110 C-min dose, actual 121).","safe_until_hour":"14:00"}},{"type":"Feature","geometry":{"type":"Polygon","coordinates":[[[-81.42004500031064,28.542041000097562],[-81.4200419999376,28.54193600021791],[-81.42003899956454,28.541753999705104],[-81.41964000025469,28.541761000185957],[-81.41919599984068,28.54177000035253],[-81.41844600000321,28.541778999729186],[-81.41804799961996,28.54178399973325],[-81.41803199972645,28.542119000256047],[-81.41803000007663,28.542692000013997],[-81.41872399983757,28.542683999760612],[-81.4197609997302,28.542664999748286],[-81.4200419999376,28.542664999748286],[-81.4200419999376,28.542481999869583],[-81.42004500031064,28.542041000097562]]]},"properties":{"block_id":"120950117011013","school_id":"sch_prosperitas_leadership_academy_charter","kids_est":1,"class":"red","shortest":{"len_m":1660.9,"mean_c":38.02,"peak_c":38.1,"dose":115.6},"coolest":{"len_m":1660.9,"mean_c":38.02,"peak_c":38.1,"dose":115.6},"delta_mean_c":0.0,"delta_dose_pct":0,"distance_mi":0.6,"status_now":"walk","status_rec":"bus_eligible","reason":"Coolest route mean 38.0C exceeds threshold (110 C-min dose, actual 116).","safe_until_hour":"14:00"}},{"type":"Feature","geometry":{"type":"Polygon","coordinates":[[[-81.42064399963705,28.540181000151684],[-81.42060699982711,28.540036999957227],[-81.42049600039734,28.5396049997712],[-81.42046000041232,28.539462000232767],[-81.41992399993681,28.539557999856047],[-81.41990399984532,28.53955899972013],[-81.41980599993605,28.53956700021078],[-81.41912899989353,28.53957599977564],[-81.41837099966014,28.53959500034511],[-81.41821400019964,28.539597000072543],[-81.41765099995992,28.539605999634833],[-81.41747900043079,28.539609000014924],[-81.41696700024471,28.53962099995585],[-81.41679599964219,28.53962600006234],[-81.41679599964219,28.53992499984531],[-81.41679700036539,28.540821999626527],[-81.41679800019033,28.54112199980998],[-81.41696999971946,28.541116999774495],[-81.4174860001035,28.541104000154544],[-81.41765900035584,28.54110099981706],[-81.41765500015788,28.540519999667964],[-81.41766299965549,28.54047099966099],[-81.41768699994493,28.540425999843897],[-81.417726000303,28.540390000292007],[-81.41774999969412,28.540376999793196],[-81.4178040001208,28.540360999723415],[-81.41804199977219,28.540352000225628],[-81.41992300011191,28.54031699971623],[-81.41995700044708,28.54031699971623],[-81.42010999970965,28.54030099963729],[-81.42064399963705,28.540181000151684]]]},"properties":{"block_id":"120950117011010","school_id":"sch_prosperitas_leadership_academy_charter","kids_est":11,"class":"red","shortest":{"len_m":1653.7,"mean_c":38.07,"peak_c":38.2,"dose":117.1},"coolest":{"len_m":1653.7,"mean_c":38.07,"peak_c":38.2,"dose":117.1},"delta_mean_c":0.0,"delta_dose_pct":0,"distance_mi":0.612,"status_now":"walk","status_rec":"bus_eligible","reason":"Coolest route mean 38.1C exceeds threshold (110 C-min dose, actual 117).","safe_until_hour":"14:00"}},{"type":"Feature","geometry":{"type":"Polygon","coordinates":[[[-81.41679800019033,28.54112199980998],[-81.41679700036539,28.540821999626527],[-81.41679599964219,28.53992499984531],[-81.41679599964219,28.53962600006234],[-81.41679499981727,28.539322999965588],[-81.41679200034254,28.538418000259732],[-81.41679200034254,28.538115999723278],[-81.41671500034963,28.53812000002346],[-81.4166919998851,28.53812199977891],[-81.41645099986067,28.538146999875696],[-81.41639499978419,28.53815700022841],[-81.4162969998749,28.538176000264603],[-81.41622499990487,28.53819000012292],[-81.41606800044435,28.53822100025357],[-81.41604300033,28.538229000056702],[-81.41601300019276,28.538242999908036],[-81.41599599957601,28.538252000375156],[-81.41595700011626,28.538287999868366],[-81.41593299982682,28.53832699976588],[-81.41592100013126,28.53837300035492],[-81.41592100013126,28.538625000205847],[-81.415923999606,28.539664000390648],[-81.41592600015413,28.540010999660034],[-81.41592699997905,28.540237000086513],[-81.41593299982682,28.540915000035213],[-81.41593500037496,28.54114100010062],[-81.4161069999041,28.54113699991514],[-81.41662499993795,28.541125000146828],[-81.41679800019033,28.54112199980998]]]},"properties":{"block_id":"120950117011024","school_id":"sch_prosperitas_leadership_academy_charter","kids_est":2,"class":"red","shortest":{"len_m":1571.0,"mean_c":38.07,"peak_c":38.2,"dose":111.3},"coolest":{"len_m":1571.0,"mean_c":38.07,"peak_c":38.2,"dose":111.3},"delta_mean_c":0.0,"delta_dose_pct":0,"distance_mi":0.52,"status_now":"walk","status_rec":"bus_eligible","reason":"Coolest route mean 38.1C exceeds threshold (110 C-min dose, actual 111).","safe_until_hour":"14:00"}},{"type":"Feature","geometry":{"type":"Polygon","coordinates":[[[-81.42046000041232,28.539462000232767],[-81.4204229997041,28.53931400037911],[-81.42031200027432,28.538871000230557],[-81.4202749995661,28.538724000207853],[-81.4199089998682,28.53878799988865],[-81.41971499969942,28.538806999811058],[-81.41961699979015,28.53880900034265],[-81.4193160003896,28.538816000229996],[-81.41883699981547,28.538821000374707],[-81.41780099974775,28.538846000305636],[-81.41775100041737,28.53886099994562],[-81.41770799986134,28.53888799960795],[-81.41767600007428,28.53892399967309],[-81.41766600002855,28.53894400023006],[-81.41765699980772,28.538967000392372],[-81.41765299960976,28.538989999760485],[-81.41765099995992,28.539605999634833],[-81.41821400019964,28.539597000072543],[-81.41837099966014,28.53959500034511],[-81.41912899989353,28.53957599977564],[-81.41980599993605,28.53956700021078],[-81.41990399984532,28.53955899972013],[-81.41992399993681,28.539557999856047],[-81.42046000041232,28.539462000232767]]]},"properties":{"block_id":"120950117011009","school_id":"sch_prosperitas_leadership_academy_charter","kids_est":0,"class":"red","shortest":{"len_m":1878.3,"mean_c":38.06,"peak_c":38.2,"dose":132.3},"coolest":{"len_m":1878.3,"mean_c":38.06,"peak_c":38.2,"dose":132.3},"delta_mean_c":0.0,"delta_dose_pct":0,"distance_mi":0.673,"status_now":"walk","status_rec":"bus_eligible","reason":"Coolest route mean 38.1C exceeds threshold (110 C-min dose, actual 132).","safe_until_hour":"14:00"}},{"type":"Feature","geometry":{"type":"Polygon","coordinates":[[[-81.41536799993729,28.54636300027928],[-81.41537200013525,28.546308000244814],[-81.41521599960133,28.546260000363397],[-81.41478700015425,28.546130000180167],[-81.41474799979619,28.546118000191594],[-81.41459200016058,28.546071000025854],[-81.41447800035778,28.546035999838434],[-81.414136000051,28.54593199979917],[-81.41402200024818,28.545898000158587],[-81.41395799977576,28.5458780001328],[-81.41379499956915,28.545829000250833],[-81.4137900004446,28.546903000312252],[-81.41380299996506,28.54716399998014],[-81.41380700016302,28.547303000159044],[-81.41380700016302,28.547326000074467],[-81.4138049996149,28.547486000341962],[-81.41380999963778,28.54763600012541],[-81.41397899969216,28.547637999700218],[-81.41408300034756,28.54763600012541],[-81.41417399968583,28.54763600012541],[-81.41434199991532,28.54763399976146],[-81.41441100041062,28.547632000186578],[-81.41488300041374,28.5476210001567],[-81.41512400043814,28.54761000012565],[-81.41536200008952,28.547600999668965],[-81.41536100026461,28.547566999778127],[-81.41535799989155,28.54746800019579],[-81.41535700006665,28.547435000051273],[-81.41535100021886,28.54726399963912],[-81.41535000039396,28.547214999612937],[-81.41535600024173,28.546754000069726],[-81.41535899971647,28.546583999927506],[-81.41535899971647,28.546528000210454],[-81.41536000043969,28.546486999806934],[-81.41536799993729,28.54636300027928]]]},"properties":{"block_id":"120950183002061","school_id":"sch_prosperitas_leadership_academy_charter","kids_est":0,"class":"green","shortest":{"len_m":734.0,"mean_c":38.02,"peak_c":38.1,"dose":51.1},"coolest":{"len_m":734.0,"mean_c":38.02,"peak_c":38.1,"dose":51.1},"delta_mean_c":0.0,"delta_dose_pct":0,"distance_mi":0.368,"status_now":"walk","status_rec":"walk","reason":"Shortest route already under threshold (dose 51).","safe_until_hour":null}},{"type":"Feature","geometry":{"type":"Polygon","coordinates":[[[-81.40158500031104,28.54234500010584],[-81.40160600022743,28.542293999693285],[-81.4014849998536,28.542215999664364],[-81.40129700043094,28.542092999683558],[-81.40121799988992,28.542051999921075],[-81.40113400022433,28.542021000128553],[-81.4010460003608,28.542001000155736],[-81.40095500012418,28.541992999849874],[-81.40038299966366,28.541993999690852],[-81.40040000028041,28.54373700006898],[-81.40039799973225,28.543835000178294],[-81.40089700039788,28.543835000178294],[-81.40104299998772,28.543837999648716],[-81.40133500006579,28.543853000156215],[-81.4015760000902,28.54387400038966],[-81.40157799974003,28.54371499998359],[-81.40157000024242,28.54241200025447],[-81.40158500031104,28.54234500010584]]]},"properties":{"block_id":"120950183001023","school_id":"sch_prosperitas_leadership_academy_charter","kids_est":0,"class":"green","shortest":{"len_m":1052.5,"mean_c":37.68,"peak_c":38.0,"dose":68.3},"coolest":{"len_m":1052.5,"mean_c":37.68,"peak_c":38.0,"dose":68.3},"delta_mean_c":0.0,"delta_dose_pct":0,"distance_mi":0.516,"status_now":"walk","status_rec":"walk","reason":"Shortest route already under threshold (dose 68).","safe_until_hour":null}},{"type":"Feature","geometry":{"type":"Polygon","coordinates":[[[-81.40426800036674,28.544010999743023],[-81.40425800032101,28.543511000049115],[-81.40425099974999,28.54273099985941],[-81.40423599968138,28.542664999748286],[-81.40419999969636,28.54258699999409],[-81.40410299961198,28.54265200031936],[-81.40390199977053,28.54274800019224],[-81.40378299994484,28.542791999973197],[-81.4035979999969,28.542839999856735],[-81.40347099977532,28.542858999837513],[-81.40334799975166,28.542867000077546],[-81.40317000037474,28.542864999623013],[-81.40297299983294,28.542844999810512],[-81.40296699998515,28.543217999951054],[-81.4029779998558,28.543706999807966],[-81.40298000040396,28.54410500031372],[-81.40323399994885,28.544140000353668],[-81.40342100044492,28.544167000241245],[-81.40383999984626,28.54421299985845],[-81.40399999967984,28.544225999883906],[-81.40425699959778,28.54424700004293],[-81.40426800036674,28.544010999743023]]]},"properties":{"block_id":"120950183001020","school_id":"sch_prosperitas_leadership_academy_charter","kids_est":2,"class":"green","shortest":{"len_m":619.4,"mean_c":37.73,"peak_c":38.0,"dose":40.6},"coolest":{"len_m":619.4,"mean_c":37.73,"peak_c":38.0,"dose":40.6},"delta_mean_c":0.0,"delta_dose_pct":0,"distance_mi":0.35,"status_now":"walk","status_rec":"walk","reason":"Shortest route already under threshold (dose 41).","safe_until_hour":null}},{"type":"Feature","geometry":{"type":"Polygon","coordinates":[[[-81.41616700017856,28.547610999913296],[-81.41615399975977,28.54757900039066],[-81.41611500030001,28.547484999764],[-81.41610299970614,28.54745399999228],[-81.41610100005632,28.547311000061583],[-81.41609500020853,28.54688599986098],[-81.41609400038361,28.54674399974406],[-81.41609500020853,28.5467019996283],[-81.41609799968326,28.546575000172258],[-81.4161000002314,28.546533999787034],[-81.4160650000713,28.546522999642452],[-81.41596200013915,28.54648999999101],[-81.41592799980394,28.546479999640233],[-81.41581599965096,28.546445000377854],[-81.41548299956504,28.54634199975303],[-81.41537200013525,28.546308000244814],[-81.41536799993729,28.54636300027928],[-81.41536000043969,28.546486999806934],[-81.41535899971647,28.546528000210454],[-81.41535899971647,28.546583999927506],[-81.41535600024173,28.546754000069726],[-81.41535000039396,28.547214999612937],[-81.41535100021886,28.54726399963912],[-81.41535700006665,28.547435000051273],[-81.41535799989155,28.54746800019579],[-81.41536100026461,28.547566999778127],[-81.41536200008952,28.547600999668965],[-81.41552399957291,28.547596999728807],[-81.4160099998197,28.547585999695254],[-81.41609699985835,28.547584999907368],[-81.41613399966828,28.547592999788495],[-81.41616700017856,28.547610999913296]]]},"properties":{"block_id":"120950183002060","school_id":"sch_prosperitas_leadership_academy_charter","kids_est":0,"class":"green","shortest":{"len_m":725.5,"mean_c":38.04,"peak_c":38.1,"dose":50.8},"coolest":{"len_m":725.5,"mean_c":38.04,"peak_c":38.1,"dose":50.8},"delta_mean_c":0.0,"delta_dose_pct":0,"distance_mi":0.436,"status_now":"walk","status_rec":"walk","reason":"Shortest route already under threshold (dose 51).","safe_until_hour":null}},{"type":"Feature","geometry":{"type":"Polygon","coordinates":[[[-81.41273099991234,28.54043400026876],[-81.41273000008745,28.54032699986297],[-81.41272900026253,28.540270000118678],[-81.41272599988949,28.540102000277663],[-81.41272599988949,28.540046000271094],[-81.412713000369,28.540046000271094],[-81.41267499983584,28.540046000271094],[-81.4126630001403,28.54004700013053],[-81.412601000216,28.540047999990044],[-81.41241600026807,28.54005200021687],[-81.41238399958272,28.540053000076256],[-81.4123550001687,28.540053000076256],[-81.41222999959692,28.540053000076256],[-81.41203600032648,28.54005399993564],[-81.41204299999917,28.540321999789683],[-81.41204499964898,28.540441999903845],[-81.41229599971918,28.540439000336665],[-81.41253000007089,28.540435000124532],[-81.41273099991234,28.54043400026876]]]},"properties":{"block_id":"120950117021001","school_id":"sch_prosperitas_leadership_academy_charter","kids_est":0,"class":"green","shortest":{"len_m":862.1,"mean_c":38.05,"peak_c":38.1,"dose":60.7},"coolest":{"len_m":862.1,"mean_c":38.05,"peak_c":38.1,"dose":60.7},"delta_mean_c":0.0,"delta_dose_pct":0,"distance_mi":0.318,"status_now":"walk","status_rec":"walk","reason":"Shortest route already under threshold (dose 61).","safe_until_hour":null}},{"type":"Feature","geometry":{"type":"Polygon","coordinates":[[[-81.41120899959783,28.5437789997888],[-81.411206999948,28.543398999685035],[-81.41120399957495,28.542686000218584],[-81.41119600007734,28.542262000133565],[-81.41118900040465,28.541883999765275],[-81.41102500037312,28.54188600023841],[-81.41073400011999,28.541891000237474],[-81.41067499967043,28.541891000237474],[-81.41053499992834,28.541893999763253],[-81.41037199972175,28.541897000078116],[-81.41027999966022,28.541897999920046],[-81.41021899956085,28.541898999761923],[-81.41022500030697,28.542315000237537],[-81.41025000042131,28.543830000271516],[-81.41044100021703,28.54381899984454],[-81.4110169999772,28.543787999782957],[-81.41120899959783,28.5437789997888]]]},"properties":{"block_id":"120950183003017","school_id":"sch_prosperitas_leadership_academy_charter","kids_est":10,"class":"green","shortest":{"len_m":485.8,"mean_c":38.0,"peak_c":38.1,"dose":33.9},"coolest":{"len_m":485.8,"mean_c":38.0,"peak_c":38.1,"dose":33.9},"delta_mean_c":0.0,"delta_dose_pct":0,"distance_mi":0.115,"status_now":"walk","status_rec":"walk","reason":"Shortest route already under threshold (dose 34).","safe_until_hour":null}},{"type":"Feature","geometry":{"type":"Polygon","coordinates":[[[-81.42003799973962,28.54286100029215],[-81.4200419999376,28.542664999748286],[-81.4197609997302,28.542664999748286],[-81.41872399983757,28.542683999760612],[-81.41803000007663,28.542692000013997],[-81.41803400027459,28.543582000338088],[-81.41807199990942,28.54358099972304],[-81.4190569999235,28.54356000022032],[-81.41967399969155,28.543556000126646],[-81.4200350002649,28.543547999938948],[-81.4200419999376,28.54327899978276],[-81.42003799973962,28.54286100029215]]]},"properties":{"block_id":"120950117011014","school_id":"sch_prosperitas_leadership_academy_charter","kids_est":1,"class":"green","shortest":{"len_m":1562.6,"mean_c":38.02,"peak_c":38.1,"dose":108.7},"coolest":{"len_m":1562.6,"mean_c":38.02,"peak_c":38.1,"dose":108.7},"delta_mean_c":0.0,"delta_dose_pct":0,"distance_mi":0.59,"status_now":"walk","status_rec":"walk","reason":"Shortest route already under threshold (dose 109).","safe_until_hour":null}},{"type":"Feature","geometry":{"type":"Polygon","coordinates":[[[-81.42117000006681,28.543529999908838],[-81.42106399976159,28.543430999688493],[-81.42102699995168,28.543388999829926],[-81.42098400029398,28.54333899975095],[-81.4209149997987,28.543240999969374],[-81.42085500042253,28.5431389999871],[-81.42083000030819,28.54308600029772],[-81.42081299969144,28.54303199996141],[-81.42080199982078,28.54297699976579],[-81.42080000017096,28.542864999623013],[-81.42080099999588,28.54284999976398],[-81.42080400036892,28.542810000129343],[-81.42081900043753,28.5427559996516],[-81.42084299982866,28.54270500022712],[-81.42087100031608,28.5426670002066],[-81.4207049997364,28.54266099962068],[-81.42064500036025,28.542659999786025],[-81.42020699979403,28.54266300007907],[-81.4200419999376,28.542664999748286],[-81.42003799973962,28.54286100029215],[-81.4200419999376,28.54327899978276],[-81.4200350002649,28.543547999938948],[-81.42117000006681,28.543529999908838]]]},"properties":{"block_id":"120950117011004","school_id":"sch_prosperitas_leadership_academy_charter","kids_est":4,"class":"green","shortest":{"len_m":1562.6,"mean_c":38.02,"peak_c":38.1,"dose":108.7},"coolest":{"len_m":1562.6,"mean_c":38.02,"peak_c":38.1,"dose":108.7},"delta_mean_c":0.0,"delta_dose_pct":0,"distance_mi":0.677,"status_now":"walk","status_rec":"walk","reason":"Shortest route already under threshold (dose 109).","safe_until_hour":null}},{"type":"Feature","geometry":{"type":"Polygon","coordinates":[[[-81.41367400009365,28.546047999836368],[-81.41366900007077,28.54587499993133],[-81.41366599969773,28.54578900016929],[-81.4136289998878,28.5455539999751],[-81.4136359995605,28.545780000346106],[-81.4136289998878,28.546006000232218],[-81.41361999966696,28.546117000389764],[-81.41361200016935,28.546840999627882],[-81.41361800001714,28.546886999655495],[-81.41365999984993,28.5468099996666],[-81.41366700042094,28.54656499982961],[-81.41367400009365,28.546047999836368]]]},"properties":{"block_id":"120950183003019","school_id":"sch_prosperitas_leadership_academy_charter","kids_est":0,"class":"green","shortest":{"len_m":587.4,"mean_c":38.02,"peak_c":38.1,"dose":40.9},"coolest":{"len_m":587.4,"mean_c":38.02,"peak_c":38.1,"dose":40.9},"delta_mean_c":0.0,"delta_dose_pct":0,"distance_mi":0.303,"status_now":"walk","status_rec":"walk","reason":"Shortest route already under threshold (dose 41).","safe_until_hour":null}},{"type":"Feature","geometry":{"type":"Polygon","coordinates":[[[-81.4200419999376,28.545898000158587],[-81.42004100011268,28.545790999779157],[-81.42004000028778,28.545722999606937],[-81.41988100027909,28.54570199974213],[-81.4198169998067,28.545693999717365],[-81.41946899965215,28.545638000316284],[-81.41940300042822,28.545623999869512],[-81.41924600006938,28.545594000145897],[-81.41889600026502,28.545491000267102],[-81.41887500034863,28.545484999841978],[-81.41853600041489,28.545380000238904],[-81.41842599991175,28.54533800036839],[-81.41806299968859,28.54518900027924],[-81.41778800022728,28.545095999698347],[-81.41735700023204,28.544933000306447],[-81.41714100032199,28.544832000198443],[-81.4166490002274,28.54459399999845],[-81.4158390001155,28.544101000240794],[-81.41510500017158,28.543534000003458],[-81.41381100036098,28.542583999698884],[-81.41379999959202,28.54273900010923],[-81.4142680002955,28.543093999731422],[-81.41499899986636,28.54366500005943],[-81.41569400035054,28.54418500016249],[-81.41633600023296,28.5445890001277],[-81.41697399991742,28.54495500013743],[-81.41780900014368,28.545327999908228],[-81.41850600027769,28.545550999764405],[-81.41906100012146,28.54572199980135],[-81.41990499967024,28.545886999947598],[-81.4200419999376,28.545898000158587]]]},"properties":{"block_id":"120950183002064","school_id":"sch_prosperitas_leadership_academy_charter","kids_est":0,"class":"green","shortest":{"len_m":1351.7,"mean_c":38.02,"peak_c":38.1,"dose":94.0},"coolest":{"len_m":1351.7,"mean_c":38.02,"peak_c":38.1,"dose":94.0},"delta_mean_c":0.0,"delta_dose_pct":0,"distance_mi":0.635,"status_now":"walk","status_rec":"walk","reason":"Shortest route already under threshold (dose 94).","safe_until_hour":null}},{"type":"Feature","geometry":{"type":"Polygon","coordinates":[[[-81.41803199972645,28.542119000256047],[-81.41804799961996,28.54178399973325],[-81.41762500002066,28.54178899973714],[-81.41635600032443,28.541806000221936],[-81.4162190000571,28.541807999907412],[-81.41593299982682,28.541808999750145],[-81.41593299982682,28.5419920000089],[-81.41593399965174,28.542439999632617],[-81.41593700002478,28.5425430001275],[-81.41594500042069,28.54272699973431],[-81.41803000007663,28.542692000013997],[-81.41803199972645,28.542119000256047]]]},"properties":{"block_id":"120950117011015","school_id":"sch_prosperitas_leadership_academy_charter","kids_est":11,"class":"red","shortest":{"len_m":1701.3,"mean_c":38.08,"peak_c":38.2,"dose":120.7},"coolest":{"len_m":1701.3,"mean_c":38.08,"peak_c":38.2,"dose":120.7},"delta_mean_c":0.0,"delta_dose_pct":0,"distance_mi":0.478,"status_now":"walk","status_rec":"bus_eligible","reason":"Coolest route mean 38.1C exceeds threshold (110 C-min dose, actual 121).","safe_until_hour":"14:00"}},{"type":"Feature","geometry":{"type":"Polygon","coordinates":[[[-81.41420800002102,28.540025000063665],[-81.41420299999815,28.539660000149087],[-81.41419499960222,28.53902300018326],[-81.41419399977732,28.538952999848135],[-81.41412400035543,28.538956000246735],[-81.41405499986014,28.538958999856096],[-81.4139319998365,28.538963999994063],[-81.41371799957626,28.538972999610422],[-81.41356399959047,28.538965999733495],[-81.41356100011573,28.538976999878077],[-81.41352699978056,28.539765999791886],[-81.41352099993277,28.53995000030337],[-81.41351799955972,28.540032999729828],[-81.41420800002102,28.540025000063665]]]},"properties":{"block_id":"120950117011021","school_id":"sch_prosperitas_leadership_academy_charter","kids_est":1,"class":"green","shortest":{"len_m":985.6,"mean_c":38.05,"peak_c":38.1,"dose":69.5},"coolest":{"len_m":985.6,"mean_c":38.05,"peak_c":38.1,"dose":69.5},"delta_mean_c":0.0,"delta_dose_pct":0,"distance_mi":0.414,"status_now":"walk","status_rec":"walk","reason":"Shortest route already under threshold (dose 70).","safe_until_hour":null}},{"type":"Feature","geometry":{"type":"Polygon","coordinates":[[[-81.41380799998794,28.54837099992148],[-81.41380999963778,28.54763600012541],[-81.4138049996149,28.547486000341962],[-81.41380700016302,28.547326000074467],[-81.41371599992644,28.547326999864808],[-81.41361100034446,28.54732799965515],[-81.41360999962122,28.547506000062405],[-81.41361200016935,28.547629999822508],[-81.4136210003902,28.54823799984251],[-81.4136210003902,28.548302999836825],[-81.4136210003902,28.54837199970191],[-81.41367200044382,28.54837199970191],[-81.41368599978921,28.54837199970191],[-81.41380799998794,28.54837099992148]]]},"properties":{"block_id":"120950183002041","school_id":"sch_prosperitas_leadership_academy_charter","kids_est":0,"class":"green","shortest":{"len_m":730.8,"mean_c":38.01,"peak_c":38.1,"dose":50.7},"coolest":{"len_m":730.8,"mean_c":38.01,"peak_c":38.1,"dose":50.7},"delta_mean_c":0.0,"delta_dose_pct":0,"distance_mi":0.372,"status_now":"walk","status_rec":"walk","reason":"Shortest route already under threshold (dose 51).","safe_until_hour":null}},{"type":"Feature","geometry":{"type":"Polygon","coordinates":[[[-81.40755899996967,28.541017999653775],[-81.40755499977172,28.540835999922397],[-81.40754599955088,28.540292999991497],[-81.40754300007616,28.54011199965565],[-81.40712899979937,28.540115999880047],[-81.40588900041546,28.540131999987093],[-81.40547599996358,28.540137000069322],[-81.40549199985712,28.540551999756826],[-81.40549900042812,28.54104399970244],[-81.4074259999003,28.541016999803485],[-81.40755899996967,28.541017999653775]]]},"properties":{"block_id":"120950183003031","school_id":"sch_prosperitas_leadership_academy_charter","kids_est":0,"class":"green","shortest":{"len_m":682.2,"mean_c":38.01,"peak_c":38.1,"dose":47.6},"coolest":{"len_m":682.2,"mean_c":38.01,"peak_c":38.1,"dose":47.6},"delta_mean_c":0.0,"delta_dose_pct":0,"distance_mi":0.294,"status_now":"walk","status_rec":"walk","reason":"Shortest route already under threshold (dose 48).","safe_until_hour":null}},{"type":"Feature","geometry":{"type":"Polygon","coordinates":[[[-81.40960000014297,28.540998000279643],[-81.40959299957197,28.540092000109578],[-81.40918199966823,28.540094999686573],[-81.40795200033007,28.540103999995495],[-81.40754300007616,28.54011199965565],[-81.40754599955088,28.540292999991497],[-81.40755499977172,28.540835999922397],[-81.40755899996967,28.541017999653775],[-81.40771600032852,28.541020999993584],[-81.40796700039868,28.541014000252723],[-81.40823199981425,28.54100800036174],[-81.40919099988905,28.540999999980524],[-81.40960000014297,28.540998000279643]]]},"properties":{"block_id":"120950183003030","school_id":"sch_prosperitas_leadership_academy_charter","kids_est":0,"class":"green","shortest":{"len_m":575.3,"mean_c":37.99,"peak_c":38.1,"dose":40.1},"coolest":{"len_m":575.3,"mean_c":37.99,"peak_c":38.1,"dose":40.1},"delta_mean_c":0.0,"delta_dose_pct":0,"distance_mi":0.244,"status_now":"walk","status_rec":"walk","reason":"Shortest route already under threshold (dose 40).","safe_until_hour":null}},{"type":"Feature","geometry":{"type":"Polygon","coordinates":[[[-81.40754300007616,28.54011199965565],[-81.4075389998782,28.539929999937378],[-81.40752800000755,28.539383999685278],[-81.40752499963449,28.53920300015517],[-81.40711100025602,28.539206999624973],[-81.40587099997381,28.539222999870002],[-81.40545800042025,28.53922799999544],[-81.40546500009293,28.53941000013726],[-81.40546900029089,28.53950099969569],[-81.4054750001387,28.539796000386144],[-81.40548099998647,28.539957000114935],[-81.40548799965916,28.54011800038677],[-81.40547599996358,28.540137000069322],[-81.40588900041546,28.540131999987093],[-81.40712899979937,28.540115999880047],[-81.40754300007616,28.54011199965565]]]},"properties":{"block_id":"120950183003042","school_id":"sch_prosperitas_leadership_academy_charter","kids_est":4,"class":"green","shortest":{"len_m":690.8,"mean_c":38.01,"peak_c":38.1,"dose":48.2},"coolest":{"len_m":690.8,"mean_c":38.01,"peak_c":38.1,"dose":48.2},"delta_mean_c":0.0,"delta_dose_pct":0,"distance_mi":0.347,"status_now":"walk","status_rec":"walk","reason":"Shortest route already under threshold (dose 48).","safe_until_hour":null}},{"type":"Feature","geometry":{"type":"Polygon","coordinates":[[[-81.4136210003902,28.548302999836825],[-81.4136210003902,28.54823799984251],[-81.41361200016935,28.547629999822508],[-81.41360999962122,28.547506000062405],[-81.41361100034446,28.54732799965515],[-81.41348999997062,28.5473290002346],[-81.41330300037288,28.54733099981522],[-81.413142999641,28.547333000184988],[-81.41266800016315,28.54733700013517],[-81.41266599961502,28.547126999782353],[-81.4126630001403,28.546924999731747],[-81.4126630001403,28.546896999967636],[-81.41229800026731,28.54690000013998],[-81.41215199977911,28.546901999728757],[-81.41208300018215,28.546901999728757],[-81.41190599973181,28.546904999900963],[-81.41170400006546,28.546934000246157],[-81.41165300001184,28.546935000040275],[-81.41165100036201,28.54722800005688],[-81.41191300030283,28.547461999883357],[-81.41197500022712,28.54761199970094],[-81.41197500022712,28.547728000255134],[-81.41197600005202,28.54807899971163],[-81.41197699987694,28.54819600032258],[-81.41197699987694,28.548232000363054],[-81.41197699987694,28.548341000191275],[-81.41197799970183,28.548377999962536],[-81.41217400041874,28.548381000092697],[-81.41231599981064,28.548378999742905],[-81.41248400004014,28.548377000182168],[-81.41250300030671,28.548377000182168],[-81.41281799995099,28.54837199970191],[-81.41331400024353,28.5483749998323],[-81.4133329996118,28.548374000051844],[-81.4136210003902,28.54837199970191],[-81.4136210003902,28.548302999836825]]]},"properties":{"block_id":"120950183003022","school_id":"sch_prosperitas_leadership_academy_charter","kids_est":1,"class":"green","shortest":{"len_m":968.2,"mean_c":37.94,"peak_c":38.1,"dose":66.2},"coolest":{"len_m":968.2,"mean_c":37.94,"peak_c":38.1,"dose":66.2},"delta_mean_c":0.0,"delta_dose_pct":0,"distance_mi":0.322,"status_now":"walk","status_rec":"walk","reason":"Shortest route already under threshold (dose 66).","safe_until_hour":null}},{"type":"Feature","geometry":{"type":"Polygon","coordinates":[[[-81.41380700016302,28.547326000074467],[-81.41380700016302,28.547303000159044],[-81.41380299996506,28.54716399998014],[-81.4137900004446,28.546903000312252],[-81.41379499956915,28.545829000250833],[-81.41376600015515,28.545819999642013],[-81.41370300040596,28.545801000195354],[-81.41366599969773,28.54578900016929],[-81.41366900007077,28.54587499993133],[-81.41367400009365,28.546047999836368],[-81.41366700042094,28.54656499982961],[-81.41365999984993,28.5468099996666],[-81.41361800001714,28.546886999655495],[-81.41361100034446,28.547160999815247],[-81.41361100034446,28.54732799965515],[-81.41371599992644,28.547326999864808],[-81.41380700016302,28.547326000074467]]]},"properties":{"block_id":"120950183002062","school_id":"sch_prosperitas_leadership_academy_charter","kids_est":0,"class":"green","shortest":{"len_m":587.4,"mean_c":38.02,"peak_c":38.1,"dose":40.9},"coolest":{"len_m":587.4,"mean_c":38.02,"peak_c":38.1,"dose":40.9},"delta_mean_c":0.0,"delta_dose_pct":0,"distance_mi":0.319,"status_now":"walk","status_rec":"walk","reason":"Shortest route already under threshold (dose 41).","safe_until_hour":null}},{"type":"Feature","geometry":{"type":"Polygon","coordinates":[[[-81.41379999959202,28.54273900010923],[-81.41381100036098,28.542583999698884],[-81.4135949995526,28.542383000242513],[-81.41359000042806,28.542580000357344],[-81.41358200003214,28.543026000185414],[-81.41358100020722,28.543211000356187],[-81.41358100020722,28.54339399975757],[-81.413587000055,28.543804999945127],[-81.41359999957548,28.54416399999105],[-81.41360399977344,28.5444940001717],[-81.4136070001465,28.54499499974665],[-81.4136289998878,28.5455539999751],[-81.41366599969773,28.54578900016929],[-81.41370300040596,28.545801000195354],[-81.41376600015515,28.545819999642013],[-81.41379499956915,28.545829000250833],[-81.4137839996985,28.54541400004668],[-81.4137900004446,28.544499000046955],[-81.41379100026951,28.543832999742143],[-81.41379600029238,28.543636000392386],[-81.41378700007155,28.543357999641717],[-81.41378200004867,28.543003000120144],[-81.41379999959202,28.54273900010923]]]},"properties":{"block_id":"120950183002063","school_id":"sch_prosperitas_leadership_academy_charter","kids_est":0,"class":"green","shortest":{"len_m":616.4,"mean_c":38.04,"peak_c":38.2,"dose":43.3},"coolest":{"len_m":616.4,"mean_c":38.04,"peak_c":38.2,"dose":43.3},"delta_mean_c":0.0,"delta_dose_pct":0,"distance_mi":0.263,"status_now":"walk","status_rec":"walk","reason":"Shortest route already under threshold (dose 43).","safe_until_hour":null}},{"type":"Feature","geometry":{"type":"Polygon","coordinates":[[[-81.40962000023445,28.544549000364356],[-81.40962199988428,28.541908999758476],[-81.40860300043333,28.54191799991235],[-81.4086300001975,28.544357999686866],[-81.40908899978182,28.54443300025447],[-81.4094829999671,28.54450999961378],[-81.40962000023445,28.544549000364356]]]},"properties":{"block_id":"120950183003012","school_id":"sch_prosperitas_leadership_academy_charter","kids_est":3,"class":"green","shortest":{"len_m":135.4,"mean_c":37.9,"peak_c":38.0,"dose":9.3},"coolest":{"len_m":135.4,"mean_c":37.9,"peak_c":38.0,"dose":9.3},"delta_mean_c":0.0,"delta_dose_pct":0,"distance_mi":0.061,"status_now":"walk","status_rec":"walk","reason":"Shortest route already under threshold (dose 9).","safe_until_hour":null}},{"type":"Feature","geometry":{"type":"Polygon","coordinates":[[[-81.41025600026909,28.54454699994178],[-81.41025100024622,28.544009999921194],[-81.41025000042131,28.543830000271516],[-81.41022500030697,28.542315000237537],[-81.41021899956085,28.541898999761923],[-81.40968999965635,28.541908999758476],[-81.40962199988428,28.541908999758476],[-81.40962000023445,28.544549000364356],[-81.40966000041743,28.544559999925966],[-81.40978000006803,28.544595999631003],[-81.409820000251,28.54460799979299],[-81.40989399987085,28.544628999875908],[-81.41011700035193,28.54469500033464],[-81.41019199979667,28.544717000215353],[-81.4102140004363,28.544680999762544],[-81.41023799982742,28.54462499982288],[-81.41025600026909,28.54454699994178]]]},"properties":{"block_id":"120950183003013","school_id":"sch_prosperitas_leadership_academy_charter","kids_est":0,"class":"green","shortest":{"len_m":0.0,"mean_c":0.0,"peak_c":null,"dose":0.0},"coolest":{"len_m":0.0,"mean_c":0.0,"peak_c":null,"dose":0.0},"delta_mean_c":0.0,"delta_dose_pct":0,"distance_mi":0.061,"status_now":"walk","status_rec":"walk","reason":"Shortest route already under threshold (dose 0).","safe_until_hour":null}},{"type":"Feature","geometry":{"type":"Polygon","coordinates":[[[-81.41381100036098,28.542583999698884],[-81.41380899981286,28.54211400026782],[-81.41380100031525,28.541942000056043],[-81.4137979999422,28.541887999922434],[-81.41379299991932,28.541766000190876],[-81.41378600024663,28.541620999951046],[-81.41371500010152,28.541073999932777],[-81.41360399977344,28.540572999859197],[-81.41357899965908,28.540472000305563],[-81.4135450002222,28.540331000079213],[-81.41351199971193,28.540193999885584],[-81.41351799955972,28.540032999729828],[-81.41336000027428,28.540035000238127],[-81.41338799986337,28.540165000052156],[-81.41338799986337,28.54033199993595],[-81.4134170001757,28.54047400001642],[-81.41348499994776,28.541022999693972],[-81.41352500013073,28.541414000367645],[-81.4135519998949,28.54155300024334],[-81.41357199998639,28.541806000221936],[-81.41357100016148,28.541827000074328],[-81.41357000033656,28.54187100023998],[-81.41356799978843,28.54195200004847],[-81.4135949995526,28.542383000242513],[-81.41381100036098,28.542583999698884]]]},"properties":{"block_id":"120950117011006","school_id":"sch_prosperitas_leadership_academy_charter","kids_est":0,"class":"green","shortest":{"len_m":1512.4,"mean_c":38.08,"peak_c":38.2,"dose":107.3},"coolest":{"len_m":1512.4,"mean_c":38.08,"peak_c":38.2,"dose":107.3},"delta_mean_c":0.0,"delta_dose_pct":0,"distance_mi":0.317,"status_now":"walk","status_rec":"walk","reason":"Shortest route already under threshold (dose 107).","safe_until_hour":null}},{"type":"Feature","geometry":{"type":"Polygon","coordinates":[[[-81.40757499986321,28.541573000301153],[-81.40758499990895,28.54142000023546],[-81.40757300021339,28.541249000316842],[-81.40755800014477,28.54115100016913],[-81.40755899996967,28.541017999653775],[-81.4074259999003,28.541016999803485],[-81.40549900042812,28.54104399970244],[-81.40550100007795,28.541561999638535],[-81.40550899957555,28.54194899973519],[-81.40557100039815,28.54194899973519],[-81.40574499957711,28.54195000036572],[-81.40758099971099,28.541927999907124],[-81.40757499986321,28.541573000301153]]]},"properties":{"block_id":"120950183003025","school_id":"sch_prosperitas_leadership_academy_charter","kids_est":4,"class":"green","shortest":{"len_m":483.4,"mean_c":37.97,"peak_c":38.0,"dose":33.5},"coolest":{"len_m":483.4,"mean_c":37.97,"peak_c":38.0,"dose":33.5},"delta_mean_c":0.0,"delta_dose_pct":0,"distance_mi":0.245,"status_now":"walk","status_rec":"walk","reason":"Shortest route already under threshold (dose 34).","safe_until_hour":null}},{"type":"Feature","geometry":{"type":"Polygon","coordinates":[[[-81.40759800032774,28.543749000328827],[-81.40758499990895,28.542677999964795],[-81.40758099971099,28.541927999907124],[-81.40574499957711,28.54195000036572],[-81.40557100039815,28.54194899973519],[-81.40550899957555,28.54194899973519],[-81.4061100003484,28.542601999890643],[-81.40640900009915,28.542933000062096],[-81.40665099994848,28.5431930002685],[-81.40685400033807,28.543421999663828],[-81.40689699999578,28.543459000374014],[-81.4069890000573,28.54352499998766],[-81.4070879997915,28.543583000163977],[-81.4071940000967,28.54363099968707],[-81.40730399970157,28.543669999973982],[-81.40759800032774,28.543749000328827]]]},"properties":{"block_id":"120950183003026","school_id":"sch_prosperitas_leadership_academy_charter","kids_est":0,"class":"green","shortest":{"len_m":352.0,"mean_c":37.87,"peak_c":38.0,"dose":23.8},"coolest":{"len_m":352.0,"mean_c":37.87,"peak_c":38.0,"dose":23.8},"delta_mean_c":0.0,"delta_dose_pct":0,"distance_mi":0.18,"status_now":"walk","status_rec":"walk","reason":"Shortest route already under threshold (dose 24).","safe_until_hour":null}},{"type":"Feature","geometry":{"type":"Polygon","coordinates":[[[-81.4135949995526,28.542383000242513],[-81.41356799978843,28.54195200004847],[-81.41357000033656,28.54187100023998],[-81.41357100016148,28.541827000074328],[-81.41357199998639,28.541806000221936],[-81.4135519998949,28.54155300024334],[-81.41352500013073,28.541414000367645],[-81.41348499994776,28.541022999693972],[-81.4134170001757,28.54047400001642],[-81.41338799986337,28.54033199993595],[-81.41338799986337,28.540165000052156],[-81.41336000027428,28.540035000238127],[-81.41272599988949,28.540046000271094],[-81.41272599988949,28.540102000277663],[-81.41272900026253,28.540270000118678],[-81.41273000008745,28.54032699986297],[-81.41273099991234,28.54043400026876],[-81.41253000007089,28.540435000124532],[-81.41229599971918,28.540439000336665],[-81.41204499964898,28.540441999903845],[-81.41204299999917,28.540321999789683],[-81.41203600032648,28.54005399993564],[-81.41185600040141,28.540055999654385],[-81.41173199965455,28.54005800016225],[-81.4111800001838,28.54006800033357],[-81.41056000004271,28.540075000137282],[-81.4106360002107,28.540126999904544],[-81.41086700018937,28.540287999916657],[-81.41094400018225,28.54034000036795],[-81.41098500019015,28.540386000078005],[-81.41121500034393,28.5405459998396],[-81.41238100010797,28.541437999836955],[-81.41254299959138,28.541549000073445],[-81.41292300043129,28.541853999765664],[-81.4132919996039,28.542145000032964],[-81.4135949995526,28.542383000242513]]]},"properties":{"block_id":"120950117021000","school_id":"sch_prosperitas_leadership_academy_charter","kids_est":4,"class":"green","shortest":{"len_m":1022.9,"mean_c":38.07,"peak_c":38.2,"dose":72.2},"coolest":{"len_m":1022.9,"mean_c":38.07,"peak_c":38.2,"dose":72.2},"delta_mean_c":0.0,"delta_dose_pct":0,"distance_mi":0.289,"status_now":"walk","status_rec":"walk","reason":"Shortest route already under threshold (dose 72).","safe_until_hour":null}},{"type":"Feature","geometry":{"type":"Polygon","coordinates":[[[-81.4136289998878,28.546006000232218],[-81.4136359995605,28.545780000346106],[-81.41284200024043,28.5455360002878],[-81.41280999955507,28.545525999846504],[-81.41281499957792,28.54569100029979],[-81.41281700012607,28.545857000298955],[-81.4128199996008,28.546050000230434],[-81.4128260003469,28.546424999666797],[-81.4128120001032,28.546424999666797],[-81.41281600030116,28.546836999658858],[-81.41281600030116,28.546895000378708],[-81.41288599972303,28.546895000378708],[-81.41293299957871,28.546893999795135],[-81.41307499986893,28.546892000206206],[-81.41312300044781,28.546892000206206],[-81.41361800001714,28.546886999655495],[-81.41361200016935,28.546840999627882],[-81.41361999966696,28.546117000389764],[-81.4136289998878,28.546006000232218]]]},"properties":{"block_id":"120950183003020","school_id":"sch_prosperitas_leadership_academy_charter","kids_est":0,"class":"green","shortest":{"len_m":570.6,"mean_c":38.02,"peak_c":38.1,"dose":39.7},"coolest":{"len_m":570.6,"mean_c":38.02,"peak_c":38.1,"dose":39.7},"delta_mean_c":0.0,"delta_dose_pct":0,"distance_mi":0.279,"status_now":"walk","status_rec":"walk","reason":"Shortest route already under threshold (dose 40).","safe_until_hour":null}},{"type":"Feature","geometry":{"type":"Polygon","coordinates":[[[-81.4162190000571,28.549121999642068],[-81.41621599968404,28.54896600017025],[-81.41620999983627,28.548498000368202],[-81.41620800018643,28.548341999971985],[-81.4157980001076,28.54834599988385],[-81.41456899969604,28.54836099974936],[-81.41416000034044,28.548367000010572],[-81.41407199957858,28.54836799979104],[-81.41380799998794,28.54837099992148],[-81.41381600038386,28.548987999947926],[-81.41381300001082,28.549148999830702],[-81.41404099961645,28.549145999722427],[-81.41412000015748,28.549145999722427],[-81.41453899955881,28.549141000067827],[-81.41579899993252,28.54912600031347],[-81.4162190000571,28.549121999642068]]]},"properties":{"block_id":"120950183002039","school_id":"sch_prosperitas_leadership_academy_charter","kids_est":6,"class":"green","shortest":{"len_m":836.8,"mean_c":37.98,"peak_c":38.1,"dose":57.7},"coolest":{"len_m":836.8,"mean_c":37.98,"peak_c":38.1,"dose":57.7},"delta_mean_c":0.0,"delta_dose_pct":0,"distance_mi":0.472,"status_now":"walk","status_rec":"walk","reason":"Shortest route already under threshold (dose 58).","safe_until_hour":null}},{"type":"Feature","geometry":{"type":"Polygon","coordinates":[[[-81.41620900001135,28.547746000356856],[-81.41620999983627,28.547703000064864],[-81.41620700036152,28.547669000206888],[-81.41619200029292,28.547636999912825],[-81.41616700017856,28.547610999913296],[-81.41613399966828,28.547592999788495],[-81.41609699985835,28.547584999907368],[-81.4160099998197,28.547585999695254],[-81.41552399957291,28.547596999728807],[-81.41536200008952,28.547600999668965],[-81.41512400043814,28.54761000012565],[-81.41488300041374,28.5476210001567],[-81.41441100041062,28.547632000186578],[-81.41434199991532,28.54763399976146],[-81.41417399968583,28.54763600012541],[-81.41408300034756,28.54763600012541],[-81.41397899969216,28.547637999700218],[-81.41380999963778,28.54763600012541],[-81.41380799998794,28.54837099992148],[-81.41407199957858,28.54836799979104],[-81.41416000034044,28.548367000010572],[-81.41456899969604,28.54836099974936],[-81.4157980001076,28.54834599988385],[-81.41620800018643,28.548341999971985],[-81.41620800018643,28.548193000187155],[-81.41620900001135,28.547746000356856]]]},"properties":{"block_id":"120950183002040","school_id":"sch_prosperitas_leadership_academy_charter","kids_est":2,"class":"green","shortest":{"len_m":837.2,"mean_c":38.04,"peak_c":38.1,"dose":58.5},"coolest":{"len_m":837.2,"mean_c":38.04,"peak_c":38.1,"dose":58.5},"delta_mean_c":0.0,"delta_dose_pct":0,"distance_mi":0.437,"status_now":"walk","status_rec":"walk","reason":"Shortest route already under threshold (dose 58).","safe_until_hour":null}},{"type":"Feature","geometry":{"type":"Polygon","coordinates":[[[-81.42215900027887,28.541219999984666],[-81.42216400030173,28.540904999944285],[-81.4221269995935,28.540950000345937],[-81.42207100041533,28.541071000383578],[-81.42205899982143,28.54142299977471],[-81.42193999999574,28.54141699990701],[-81.42195900026233,28.54131300004199],[-81.42193400014797,28.54105200008037],[-81.4219149998814,28.540845000167998],[-81.4218660003759,28.540772999760016],[-81.4217039999942,28.540685000071427],[-81.42152900009202,28.54048199964841],[-81.42146700016772,28.54012400032845],[-81.42140500024345,28.539980999916153],[-81.42138599997688,28.539969999876405],[-81.4214229997868,28.53971100025856],[-81.4214229997868,28.5392550003529],[-81.42124299986175,28.53886400034685],[-81.42103699999741,28.538478999714307],[-81.42103699999741,28.538407000056797],[-81.4211120003405,28.538263999681472],[-81.421056000264,28.538120999901192],[-81.420944000111,28.537939999779628],[-81.4207750000566,28.537906999806747],[-81.42077300040678,28.537884000202215],[-81.42076300036105,28.537740999906166],[-81.42070700028455,28.537377999739963],[-81.42068800001798,28.537004000341263],[-81.4207259996528,28.53666900012622],[-81.42059500013154,28.536650999709927],[-81.42035800030509,28.536619999906478],[-81.42020500014421,28.53660100037888],[-81.42007500044788,28.536584999735645],[-81.42004699996045,28.536720000105163],[-81.42003299971677,28.53679300001666],[-81.42000900032562,28.536994999767522],[-81.42000400030277,28.537131000288042],[-81.4200000001048,28.537270000290498],[-81.42000699977748,28.53741099987854],[-81.42001099997545,28.53747299979993],[-81.42004600013556,28.537762999660853],[-81.42005899965602,28.537832000117053],[-81.42008499959529,28.53797199986297],[-81.42011899993048,28.53812299965668],[-81.42023600010634,28.538572999697223],[-81.4202749995661,28.538724000207853],[-81.42031200027432,28.538871000230557],[-81.4204229997041,28.53931400037911],[-81.42046000041232,28.539462000232767],[-81.42049600039734,28.5396049997712],[-81.42060699982711,28.540036999957227],[-81.42064399963705,28.540181000151684],[-81.42068100034527,28.540322999646524],[-81.4207740002317,28.54067699966562],[-81.4207819997293,28.54072399987076],[-81.42078099990438,28.540751999697505],[-81.42078099990438,28.54077199990745],[-81.42077199968355,28.540819000070215],[-81.42075499996513,28.540863999719438],[-81.42073900007158,28.54089200029813],[-81.42069700023879,28.54094500030222],[-81.42065799988073,28.540978000112673],[-81.42061400039812,28.54100500002156],[-81.42056499999431,28.541026000033614],[-81.42051300011578,28.541038999663247],[-81.42046000041232,28.54104500034158],[-81.42016400013631,28.5410510002304],[-81.41940400025314,28.54106899989495],[-81.41828500034474,28.541089000044703],[-81.41765900035584,28.54110099981706],[-81.4174860001035,28.541104000154544],[-81.41696999971946,28.541116999774495],[-81.41679800019033,28.54112199980998],[-81.41662499993795,28.541125000146828],[-81.4161069999041,28.54113699991514],[-81.41593500037496,28.54114100010062],[-81.41593399965174,28.541247999679634],[-81.41593299982682,28.54157199966702],[-81.41593299982682,28.541680000230535],[-81.41593299982682,28.54170500027216],[-81.41593299982682,28.54178299989029],[-81.41593299982682,28.541808999750145],[-81.4162190000571,28.541807999907412],[-81.41635600032443,28.541806000221936],[-81.41762500002066,28.54178899973714],[-81.41804799961996,28.54178399973325],[-81.41844600000321,28.541778999729186],[-81.41919599984068,28.54177000035253],[-81.41964000025469,28.541761000185957],[-81.42003899956454,28.541753999705104],[-81.42033200036582,28.541748999699628],[-81.42121100007469,28.541737000001085],[-81.42141899958884,28.541735000314198],[-81.42145499957385,28.541735000314198],[-81.42149099955887,28.54174100016378],[-81.42150399997766,28.541745000326323],[-81.42163200002419,28.541717999817937],[-81.4219070003838,28.54166100003717],[-81.42201899963847,28.54165900034883],[-81.42215000005804,28.541656999871382],[-81.42215199970785,28.54164299968463],[-81.422154000256,28.541585999863265],[-81.422154000256,28.541542000367667],[-81.42215900027887,28.541219999984666]]]},"properties":{"block_id":"120950117011008","school_id":"sch_prosperitas_leadership_academy_charter","kids_est":6,"class":"red","shortest":{"len_m":1829.3,"mean_c":38.06,"peak_c":38.2,"dose":129.3},"coolest":{"len_m":1829.3,"mean_c":38.06,"peak_c":38.2,"dose":129.3},"delta_mean_c":0.0,"delta_dose_pct":0,"distance_mi":0.756,"status_now":"walk","status_rec":"bus_eligible","reason":"Coolest route mean 38.1C exceeds threshold (110 C-min dose, actual 129).","safe_until_hour":"14:00"}},{"type":"Feature","geometry":{"type":"Polygon","coordinates":[[[-81.40298000040396,28.54410500031372],[-81.4029779998558,28.543706999807966],[-81.40296699998515,28.543217999951054],[-81.40297299983294,28.542844999810512],[-81.40281999967206,28.542815999917707],[-81.40254900040873,28.542739999943105],[-81.40237100013348,28.54268299992619],[-81.40211900023841,28.542588999664808],[-81.40197299975024,28.542520999792742],[-81.40183499965796,28.542442999931918],[-81.40160600022743,28.542293999693285],[-81.40158500031104,28.54234500010584],[-81.40157000024242,28.54241200025447],[-81.40157799974003,28.54371499998359],[-81.4015760000902,28.54387400038966],[-81.40177100008387,28.5438959996527],[-81.40205999978886,28.543938999920762],[-81.40261299998284,28.544043000349696],[-81.40298000040396,28.54410500031372]]]},"properties":{"block_id":"120950183001022","school_id":"sch_prosperitas_leadership_academy_charter","kids_est":0,"class":"green","shortest":{"len_m":751.4,"mean_c":37.71,"peak_c":38.0,"dose":49.1},"coolest":{"len_m":751.4,"mean_c":37.71,"peak_c":38.0,"dose":49.1},"delta_mean_c":0.0,"delta_dose_pct":0,"distance_mi":0.436,"status_now":"walk","status_rec":"walk","reason":"Shortest route already under threshold (dose 49).","safe_until_hour":null}},{"type":"Feature","geometry":{"type":"Polygon","coordinates":[[[-81.420062999854,28.54729600004659],[-81.420062999854,28.547110000156295],[-81.42005899965602,28.546995000293162],[-81.42005199998333,28.54675499986555],[-81.42004399958742,28.546091999817076],[-81.4200419999376,28.545898000158587],[-81.41990499967024,28.545886999947598],[-81.41906100012146,28.54572199980135],[-81.41850600027769,28.545550999764405],[-81.41780900014368,28.545327999908228],[-81.41697399991742,28.54495500013743],[-81.41633600023296,28.5445890001277],[-81.41569400035054,28.54418500016249],[-81.41499899986636,28.54366500005943],[-81.4142680002955,28.543093999731422],[-81.41379999959202,28.54273900010923],[-81.41378200004867,28.543003000120144],[-81.41378700007155,28.543357999641717],[-81.41379600029238,28.543636000392386],[-81.41384800017092,28.543559000394218],[-81.41403399994375,28.543420999836414],[-81.41421899989169,28.543402999784615],[-81.41424200035621,28.5434129996384],[-81.41430099990744,28.54344899973546],[-81.41435500033411,28.543489999743358],[-81.41515600022518,28.544010999743023],[-81.41549699980874,28.544238000087994],[-81.41563800027406,28.5443280003918],[-81.4159169999333,28.544481999996723],[-81.41553199996883,28.54448100017937],[-81.41573899965806,28.54463100029693],[-81.41590600006265,28.54475299986673],[-81.41593100017701,28.544786999876916],[-81.41594100022274,28.54482499992171],[-81.4159379998497,28.545156000209786],[-81.4159379998497,28.54518200002622],[-81.41594100022274,28.546149000356547],[-81.41592799980394,28.546479999640233],[-81.41596200013915,28.54648999999101],[-81.4160650000713,28.546522999642452],[-81.4161000002314,28.546533999787034],[-81.41668000018953,28.546715999931767],[-81.4168740003583,28.546777999900602],[-81.4177699997856,28.547084999819326],[-81.4179229999465,28.54713200032168],[-81.41807699993228,28.547172999684996],[-81.41823299956789,28.54720900007515],[-81.41842400026191,28.547243000081632],[-81.41854800011048,28.54726500021917],[-81.41870799994403,28.5472849999816],[-81.41886799977762,28.54729999999817],[-81.41895800018929,28.547304999740224],[-81.4190290003344,28.54730899969146],[-81.4191899999929,28.54731299964256],[-81.41923500019873,28.54731199985209],[-81.41985600016476,28.547299000207563],[-81.420062999854,28.54729600004659]]]},"properties":{"block_id":"120950183002057","school_id":"sch_prosperitas_leadership_academy_charter","kids_est":0,"class":"green","shortest":{"len_m":871.3,"mean_c":38.04,"peak_c":38.1,"dose":61.1},"coolest":{"len_m":871.3,"mean_c":38.04,"peak_c":38.1,"dose":61.1},"delta_mean_c":0.0,"delta_dose_pct":0,"distance_mi":0.515,"status_now":"walk","status_rec":"walk","reason":"Shortest route already under threshold (dose 61).","safe_until_hour":null}},{"type":"Feature","geometry":{"type":"Polygon","coordinates":[[[-81.420070000425,28.54850900030644],[-81.42006600022704,28.54786999983444],[-81.42006500040212,28.54762199994424],[-81.4200639996789,28.547587000272248],[-81.4200639996789,28.547555999741444],[-81.420062999854,28.547360999833188],[-81.420062999854,28.54729600004659],[-81.41985600016476,28.547299000207563],[-81.41923500019873,28.54731199985209],[-81.4191899999929,28.54731299964256],[-81.4190290003344,28.54730899969146],[-81.41895800018929,28.547304999740224],[-81.41895700036439,28.54748899970847],[-81.41896300021217,28.547600999668965],[-81.4189599998391,28.548620999971348],[-81.41903000015932,28.54862199974941],[-81.41903099998422,28.548738999757163],[-81.41903199980914,28.54887900000024],[-81.41903199980914,28.54890099979602],[-81.41903699983202,28.54895500027968],[-81.41906000029655,28.54900400028547],[-81.4190999995812,28.549044999709114],[-81.41912600041879,28.549060000264102],[-81.41918199959696,28.549079999685603],[-81.41921299955911,28.549082999795825],[-81.41922699980282,28.549082000022075],[-81.41955300021606,28.549078000138188],[-81.41955200039114,28.548843999956887],[-81.41955099966792,28.548513000212004],[-81.42001299962527,28.54850900030644],[-81.420070000425,28.54850900030644]]]},"properties":{"block_id":"120950183002031","school_id":"sch_prosperitas_leadership_academy_charter","kids_est":3,"class":"green","shortest":{"len_m":1246.9,"mean_c":38.0,"peak_c":38.1,"dose":86.7},"coolest":{"len_m":1247.9,"mean_c":38.0,"peak_c":38.1,"dose":86.6},"delta_mean_c":0.0,"delta_dose_pct":0,"distance_mi":0.674,"status_now":"walk","status_rec":"walk","reason":"Shortest route already under threshold (dose 87).","safe_until_hour":null}},{"type":"Feature","geometry":{"type":"Polygon","coordinates":[[[-81.4128260003469,28.546424999666797],[-81.4128199996008,28.546050000230434],[-81.41281700012607,28.545857000298955],[-81.41281499957792,28.54569100029979],[-81.41280999955507,28.545525999846504],[-81.41220299983274,28.545342000394335],[-81.41210499992346,28.54531099999186],[-81.41181399967031,28.545220999738852],[-81.41171699958592,28.54519099990051],[-81.41169800021768,28.545245999729207],[-81.41167399992824,28.545359000305766],[-81.41166999973028,28.545444999629794],[-81.41167700030128,28.545522999634947],[-81.41173000000472,28.54603999983794],[-81.41173900022555,28.54653699996972],[-81.41174300042351,28.546727000056183],[-81.41175799959382,28.54677200033798],[-81.41178600008124,28.546812000046202],[-81.41182799991402,28.54684500038586],[-81.4118820003407,28.546886999655495],[-81.41190599973181,28.546904999900963],[-81.41208300018215,28.546901999728757],[-81.41215199977911,28.546901999728757],[-81.41229800026731,28.54690000013998],[-81.4126630001403,28.546896999967636],[-81.41273900030826,28.54689600017321],[-81.41281600030116,28.546895000378708],[-81.41281600030116,28.546836999658858],[-81.4128120001032,28.546424999666797],[-81.4128260003469,28.546424999666797]]]},"properties":{"block_id":"120950183003023","school_id":"sch_prosperitas_leadership_academy_charter","kids_est":0,"class":"green","shortest":{"len_m":406.5,"mean_c":37.99,"peak_c":38.1,"dose":28.2},"coolest":{"len_m":406.5,"mean_c":37.99,"peak_c":38.1,"dose":28.2},"delta_mean_c":0.0,"delta_dose_pct":0,"distance_mi":0.226,"status_now":"walk","status_rec":"walk","reason":"Shortest route already under threshold (dose 28).","safe_until_hour":null}},{"type":"Feature","geometry":{"type":"Polygon","coordinates":[[[-81.41593399965174,28.541247999679634],[-81.41593500037496,28.54114100010062],[-81.41593299982682,28.540915000035213],[-81.41592699997905,28.540237000086513],[-81.41592600015413,28.540010999660034],[-81.4158259996967,28.540009999800244],[-81.41552600012105,28.54000899994045],[-81.41542599966363,28.54000899994045],[-81.41525999998227,28.540009999800244],[-81.41476500041294,28.540016999607808],[-81.41459999965818,28.540019999976117],[-81.41459800000835,28.540080000222286],[-81.4145929999855,28.540264000185317],[-81.41459200016058,28.540325000149313],[-81.41459600035854,28.540441999903845],[-81.41459800000835,28.540552999611492],[-81.41413199985304,28.540561999881266],[-81.41381999968351,28.540566999943152],[-81.41360399977344,28.540572999859197],[-81.41371500010152,28.541073999932777],[-81.41378600024663,28.541620999951046],[-81.41379299991932,28.541766000190876],[-81.4137979999422,28.541887999922434],[-81.41389000000372,28.541895000394316],[-81.41396500034678,28.541916000228973],[-81.41399299993587,28.54192700006551],[-81.41406499990589,28.541921000226587],[-81.41442099955806,28.541897999920046],[-81.41548900031113,28.5418310002336],[-81.41583099971957,28.54181000038201],[-81.41586300040494,28.541808999750145],[-81.41591500028348,28.541808999750145],[-81.41593299982682,28.541808999750145],[-81.41593299982682,28.54178299989029],[-81.41593299982682,28.54170500027216],[-81.41593299982682,28.541680000230535],[-81.41593299982682,28.54157199966702],[-81.41593399965174,28.541247999679634]]]},"properties":{"block_id":"120950117011007","school_id":"sch_prosperitas_leadership_academy_charter","kids_est":1,"class":"green","shortest":{"len_m":1442.5,"mean_c":38.08,"peak_c":38.2,"dose":102.3},"coolest":{"len_m":1442.5,"mean_c":38.08,"peak_c":38.2,"dose":102.3},"delta_mean_c":0.0,"delta_dose_pct":0,"distance_mi":0.395,"status_now":"walk","status_rec":"walk","reason":"Shortest route already under threshold (dose 102).","safe_until_hour":null}}]}