{"type":"FeatureCollection","features":[{"type":"Feature","geometry":{"type":"Polygon","coordinates":[[[-81.38290500020341,28.582133999973596],[-81.38289599998257,28.581393000118968],[-81.3828909999597,28.58096400001729],[-81.38286099982247,28.579173000036604],[-81.3828499999518,28.578433999609143],[-81.38264300026258,28.578434999892917],[-81.38202300012146,28.5784420003013],[-81.38181700025714,28.57844500036346],[-81.3818280001278,28.579185000201377],[-81.38186099973977,28.58140800000813],[-81.38187199961041,28.58214899975707],[-81.38207800037306,28.582145999800545],[-81.38269799961586,28.58213599968196],[-81.38290500020341,28.582133999973596]]]},"properties":{"block_id":"120950127011008","school_id":"sch_edgewater_high","kids_est":72,"class":"green","shortest":{"len_m":1133.8,"mean_c":37.11,"peak_c":37.4,"dose":64.5},"coolest":{"len_m":1133.8,"mean_c":37.11,"peak_c":37.4,"dose":64.5},"delta_mean_c":0.0,"delta_dose_pct":0,"distance_mi":0.561,"status_now":"walk","status_rec":"walk","reason":"Shortest route already under threshold (dose 64).","safe_until_hour":null}},{"type":"Feature","geometry":{"type":"Polygon","coordinates":[[[-81.39260499965818,28.577763000331082],[-81.39240600036486,28.577395000198003],[-81.39236000033411,28.57729000007833],[-81.39234699991532,28.577253000214007],[-81.39232799964873,28.57720000034307],[-81.39230699973234,28.577122999649415],[-81.3922909998388,28.576992000204513],[-81.39229300038696,28.57685899999892],[-81.39231900032622,28.576701000010722],[-81.39236000033411,28.576552999646665],[-81.39241899988532,28.576393000170263],[-81.39249099985535,28.576240999732196],[-81.39228800036409,28.576165000219703],[-81.39218299988377,28.57613299991029],[-81.3921000000431,28.5761149999292],[-81.39198100021741,28.57610300020306],[-81.39186999988934,28.57610000007408],[-81.39143600041938,28.576106000331947],[-81.39144100044226,28.57647900017544],[-81.39145800016068,28.577598999950624],[-81.39146400000847,28.577973000310248],[-81.39198399969216,28.577965999870667],[-81.39209699967006,28.57795400035568],[-81.39220799999813,28.577924999878633],[-81.39260499965818,28.577763000331082]]]},"properties":{"block_id":"120950126001004","school_id":"sch_edgewater_high","kids_est":56,"class":"green","shortest":{"len_m":1795.0,"mean_c":37.4,"peak_c":37.5,"dose":109.9},"coolest":{"len_m":1795.0,"mean_c":37.4,"peak_c":37.5,"dose":109.9},"delta_mean_c":0.0,"delta_dose_pct":0,"distance_mi":0.338,"status_now":"walk","status_rec":"walk","reason":"Shortest route already under threshold (dose 110).","safe_until_hour":null}},{"type":"Feature","geometry":{"type":"Polygon","coordinates":[[[-81.37883000042781,28.583957000320233],[-81.37883299990257,28.583930999826507],[-81.37883000042781,28.58358299994135],[-81.37882700005477,28.583076000366415],[-81.37881700000902,28.582539999931512],[-81.37881199998616,28.58219299963548],[-81.37849499979374,28.582198000086578],[-81.37754499993976,28.582212999860932],[-81.37727799997607,28.58221800031113],[-81.37722899957227,28.58221800031113],[-81.3772300002955,28.582326999653606],[-81.37723199994532,28.582445000305295],[-81.3772379997931,28.582801999826103],[-81.37724500036411,28.583126999953464],[-81.37724600018902,28.58321800037709],[-81.37725000038698,28.58335499980017],[-81.37725000038698,28.583378999962832],[-81.3772510002119,28.583454000337326],[-81.37725200003679,28.583478999924424],[-81.37725299986171,28.58359899975274],[-81.37725899970948,28.583960000225094],[-81.37726100025763,28.58408099973462],[-81.37756500003125,28.584074999931705],[-81.37847800007532,28.584060999864437],[-81.37874599986391,28.584056999732162],[-81.37878100002402,28.584043999892856],[-81.37880100011552,28.58402699991859],[-81.37882899970461,28.58398300001874],[-81.37883000042781,28.583957000320233]]]},"properties":{"block_id":"120950153002036","school_id":"sch_edgewater_high","kids_est":0,"class":"green","shortest":{"len_m":1607.9,"mean_c":36.96,"peak_c":37.4,"dose":88.1},"coolest":{"len_m":1607.9,"mean_c":36.96,"peak_c":37.4,"dose":88.1},"delta_mean_c":0.0,"delta_dose_pct":0,"distance_mi":0.816,"status_now":"walk","status_rec":"walk","reason":"Shortest route already under threshold (dose 88).","safe_until_hour":null}},{"type":"Feature","geometry":{"type":"Polygon","coordinates":[[[-81.39397999965959,28.589639999742836],[-81.39396600031421,28.589585999626507],[-81.39395200007051,28.589532999660634],[-81.39394700004765,28.58951400021707],[-81.3939239995831,28.58940000032818],[-81.39389199979604,28.58923599995296],[-81.3938590001841,28.588997999982606],[-81.39384900013835,28.588863000393],[-81.39384599976529,28.588787999932578],[-81.39383999991752,28.58856399999533],[-81.39383800026769,28.588490000298563],[-81.39383700044279,28.58847799961794],[-81.39383700044279,28.58844199993438],[-81.39383700044279,28.588430000037153],[-81.39383599971956,28.5884180001385],[-81.39383499989466,28.588381999645627],[-81.39383499989466,28.58836999974149],[-81.39383400006973,28.58833900018008],[-81.39383300024481,28.58828100021274],[-81.39382999987177,28.588017000174762],[-81.39382900004685,28.58792899975186],[-81.39382700039702,28.587851999814415],[-81.39382499984889,28.58775600005927],[-81.39382200037417,28.58762000025608],[-81.39382200037417,28.58758199988528],[-81.39382099965093,28.58754400028948],[-81.39381900000112,28.58743399984611],[-81.39381300015334,28.587104000191815],[-81.3938109996052,28.586994000076917],[-81.39380800013046,28.586886999668263],[-81.39380099955946,28.58660299989861],[-81.39379700025981,28.58656799977947],[-81.39378800003898,28.586461999933533],[-81.39376200009971,28.58628900019359],[-81.39371000022118,28.58607200035446],[-81.39365300031976,28.58590599988439],[-81.39354799983947,28.5856710001204],[-81.39353899961864,28.58565300019399],[-81.39345599977796,28.585504999806037],[-81.39342900001377,28.585456999656845],[-81.39333600012736,28.58531699995094],[-81.3931980000351,28.58514500012477],[-81.39304499987422,28.584981999644576],[-81.39281300007063,28.584772999685185],[-81.39242700028126,28.584436000347658],[-81.39227099974734,28.584301999861523],[-81.39216399961721,28.58428200003332],[-81.39206099968504,28.58424400003378],[-81.3917479996906,28.583934999963578],[-81.39048200036743,28.582878000064763],[-81.38982799989112,28.582335000049603],[-81.38971400008832,28.582196999838594],[-81.38964499959303,28.582015000300988],[-81.38960899960801,28.58201899972209],[-81.38950400002602,28.582034000310756],[-81.38946899986593,28.58203899998062],[-81.38937799962933,28.582041999940206],[-81.38935000004024,28.582043000189653],[-81.389107000366,28.582044999899683],[-81.38901699995431,28.58204600014912],[-81.3889740002966,28.58204600014912],[-81.3888479998999,28.582046999609688],[-81.3888060000671,28.582047999859086],[-81.38878099995276,28.582047999859086],[-81.38861000024853,28.582053000317142],[-81.38861100007344,28.58210000019359],[-81.3886210001192,28.58269799982564],[-81.3886350003629,28.583488999915353],[-81.38865100025642,28.583598000306928],[-81.38867600037076,28.583676999883263],[-81.38871099963256,28.58375300027847],[-81.38909599959702,28.5843690001259],[-81.38918099998584,28.584503999963857],[-81.38925999962856,28.584600999757964],[-81.38938799967507,28.584747999616894],[-81.3894599996451,28.58484399975195],[-81.38955300042981,28.584967000265195],[-81.38957099997317,28.585003000349722],[-81.38958299966875,28.58504200029592],[-81.38958799969163,28.585081999659423],[-81.3895860000418,28.585121999796495],[-81.38957599999604,28.585160999698562],[-81.38956000010252,28.585197999936067],[-81.389536999638,28.58523299972246],[-81.38950800022398,28.585264000199615],[-81.38946300001814,28.585297000315837],[-81.38943600025397,28.585311999648155],[-81.38939400042116,28.585327999985306],[-81.38935000004024,28.58533700037112],[-81.38930499983441,28.585340999665878],[-81.38925899980366,28.585337999800405],[-81.38921500032103,28.585327999985306],[-81.38917299958992,28.58531299986645],[-81.38913400013017,28.585292000012046],[-81.38879199982341,28.58504900026451],[-81.38867499964755,28.584957999847756],[-81.38852300020989,28.58481999992358],[-81.388446000217,28.584731999980253],[-81.38829499970595,28.58454400032081],[-81.38816099981165,28.58441899964787],[-81.38767100026519,28.583900999976944],[-81.38762100003648,28.583817999638676],[-81.38759199972417,28.583730999879073],[-81.38757900020369,28.583607000051973],[-81.3875520004395,28.582480000219075],[-81.38753900002071,28.58211200002441],[-81.3875380001958,28.582075999739022],[-81.38742699986773,28.582076999988164],[-81.3873259995854,28.58207800023722],[-81.38551299991605,28.58209799969574],[-81.38519800027177,28.58210199990253],[-81.38425400026557,28.582114999981904],[-81.38394000044622,28.582119999647926],[-81.38383499996591,28.582120999896638],[-81.38352000032164,28.58212500010255],[-81.38341599966624,28.582126999811027],[-81.38341700038947,28.58216300007896],[-81.3834190000393,28.58225799995991],[-81.38342599971199,28.582545999821996],[-81.38342900008503,28.582642000389598],[-81.38343499993282,28.582987999752486],[-81.38345599984922,28.584029000379676],[-81.38345900022227,28.58416600032383],[-81.3834680004431,28.58437600013931],[-81.38347000009293,28.58454899987134],[-81.38347900031374,28.58506899994684],[-81.38348199978849,28.585243000335378],[-81.38349000018441,28.58547999991184],[-81.3835110001008,28.585724999881002],[-81.38354700008581,28.58586300019506],[-81.38357600039814,28.585931999889773],[-81.38370400044464,28.58617900001484],[-81.38413500043987,28.586940000179144],[-81.38466099997133,28.587904999838887],[-81.3847990000636,28.588133000368703],[-81.38488299972917,28.588261999754106],[-81.3849110002166,28.58830100006907],[-81.38495700024735,28.588352999677827],[-81.38504099991295,28.588424999882342],[-81.38506100000441,28.58844199993438],[-81.38512299992871,28.58848600033478],[-81.38536700032617,28.58863799964006],[-81.38545600001463,28.58870400011064],[-81.38552999963447,28.58874600003003],[-81.38561099982532,28.58877600007479],[-81.38561400019837,28.58897599989186],[-81.38561199965024,28.589245000004194],[-81.38567100009979,28.589247999758193],[-81.38640400021879,28.589239999888147],[-81.38644299967855,28.589242000250128],[-81.38659199964147,28.589239999888147],[-81.38684299971162,28.589237000133927],[-81.38715700042928,28.58923300019863],[-81.38722000017847,28.589232000017564],[-81.38726500038433,28.58898700033223],[-81.3872910003236,28.58869799978271],[-81.38733399998131,28.58846800010147],[-81.3873470004001,28.588401000082584],[-81.38739099988271,28.588340000369634],[-81.38740299957828,28.588311999791262],[-81.38742199984485,28.58826900029708],[-81.38742100001996,28.588248999645863],[-81.38741799964689,28.588187999844724],[-81.38741599999707,28.58813099998564],[-81.38744699995921,28.588108999713487],[-81.38748700014219,28.588100999756776],[-81.38753399999786,28.58809199960761],[-81.3875520004395,28.588096999778184],[-81.38772800016659,28.588148000085273],[-81.38776300032671,28.588153000253186],[-81.3878829999773,28.58817000034927],[-81.3879390000538,28.58821400007463],[-81.3881080001082,28.588262999944394],[-81.38812599965156,28.588262999944394],[-81.38826499956872,28.588315000360694],[-81.38829300005612,28.58840900001646],[-81.38964899979098,28.588232999753203],[-81.389684999776,28.588269999698554],[-81.38971599973813,28.58830799982071],[-81.3897330003549,28.588328999861567],[-81.38978500023343,28.58839400033714],[-81.38980299977678,28.588415999760848],[-81.3899390002192,28.588582000212135],[-81.38998500024996,28.58863799964006],[-81.39001500038718,28.58864900011575],[-81.39022700009929,28.58879800020743],[-81.39042000044314,28.588957000347623],[-81.39043999963631,28.588981000020464],[-81.39057600007877,28.58914799976155],[-81.39067599963786,28.58927099997272],[-81.39068800023175,28.58935900006117],[-81.39068200038396,28.589419999971692],[-81.39063800000304,28.589545999610127],[-81.39063200015525,28.58977700026411],[-81.39065700026961,28.589881999748222],[-81.39068800023175,28.589941999969724],[-81.39069499990444,28.58997199967326],[-81.39070699960001,28.590013999874895],[-81.39069099970648,28.59006100013693],[-81.39082200012605,28.59006600021388],[-81.39097799976166,28.590072999848005],[-81.39191500009518,28.59006600021388],[-81.39225800022685,28.59006200031011],[-81.39244499982459,28.59006100013693],[-81.39289699973622,28.59004899963564],[-81.3932890002717,28.590043000173285],[-81.39362999985522,28.590039000268646],[-81.39362900003033,28.589976000369298],[-81.39361599961154,28.58974399997637],[-81.39360999976375,28.589643000274357],[-81.39369799962729,28.589642000097196],[-81.39381999982604,28.589639999742836],[-81.39390299966671,28.589639999742836],[-81.39397999965959,28.589639999742836]]]},"properties":{"block_id":"120950153002005","school_id":"sch_edgewater_high","kids_est":233,"class":"green","shortest":{"len_m":1308.5,"mean_c":37.36,"peak_c":37.5,"dose":78.9},"coolest":{"len_m":1308.5,"mean_c":37.36,"peak_c":37.5,"dose":78.9},"delta_mean_c":0.0,"delta_dose_pct":0,"distance_mi":0.324,"status_now":"walk","status_rec":"walk","reason":"Shortest route already under threshold (dose 79).","safe_until_hour":null}},{"type":"Feature","geometry":{"type":"Polygon","coordinates":[[[-81.38394000044622,28.582119999647926],[-81.3839320000503,28.581476000004667],[-81.38392299982947,28.580620000043304],[-81.38390399956288,28.579544000290735],[-81.38389400041547,28.578901000141492],[-81.38389299969222,28.578856000183883],[-81.38389100004241,28.578721000195422],[-81.38389100004241,28.578676999653347],[-81.3838900002175,28.57862499999304],[-81.38388799966934,28.578470999846914],[-81.38388799966934,28.57842000036864],[-81.38368000015521,28.57842200014755],[-81.38305699964106,28.57843100033554],[-81.3828499999518,28.578433999609143],[-81.38286099982247,28.579173000036604],[-81.3828909999597,28.58096400001729],[-81.38289599998257,28.581393000118968],[-81.38290500020341,28.582133999973596],[-81.38300700031064,28.582132000265258],[-81.38331299973409,28.582128000059676],[-81.38341599966624,28.582126999811027],[-81.38352000032164,28.58212500010255],[-81.38383499996591,28.582120999896638],[-81.38394000044622,28.582119999647926]]]},"properties":{"block_id":"120950127011009","school_id":"sch_edgewater_high","kids_est":167,"class":"green","shortest":{"len_m":1186.4,"mean_c":37.1,"peak_c":37.4,"dose":67.5},"coolest":{"len_m":1186.4,"mean_c":37.1,"peak_c":37.4,"dose":67.5},"delta_mean_c":0.0,"delta_dose_pct":0,"distance_mi":0.5,"status_now":"walk","status_rec":"walk","reason":"Shortest route already under threshold (dose 68).","safe_until_hour":null}},{"type":"Feature","geometry":{"type":"Polygon","coordinates":[[[-81.40018000017237,28.580039000261127],[-81.4001750001495,28.579980999659977],[-81.40017000012664,28.579898000172204],[-81.40015800043106,28.579811000325122],[-81.40012900011875,28.57965600006565],[-81.4001259997457,28.5796469999825],[-81.40008499973783,28.57949700006086],[-81.40003000038455,28.579340999852377],[-81.39996199971417,28.579190000006687],[-81.39995500004149,28.579179000119158],[-81.3998720002008,28.57903499962087],[-81.39976500007067,28.578876000255093],[-81.39944700005337,28.578400000210767],[-81.39934099974815,28.57824200017063],[-81.3992319999682,28.57808299960606],[-81.39915499997531,28.5779700002346],[-81.39904899967009,28.577798000225258],[-81.39895699960859,28.577611000295],[-81.39894800028608,28.57758400030712],[-81.39888899983654,28.577401999886707],[-81.39885799987438,28.577269000199568],[-81.39884700000374,28.57720099984968],[-81.39883600013309,28.577122000142055],[-81.39882699991225,28.576974999879166],[-81.3988310001102,28.57682699990063],[-81.39884700000374,28.576678999713916],[-81.39886299989726,28.576589000244763],[-81.39886700009522,28.576571999854302],[-81.39891700032393,28.576391999867063],[-81.39895300030894,28.576255000051617],[-81.39897599987516,28.576111999800563],[-81.39898199972295,28.576020000021757],[-81.39898199972295,28.57594300004214],[-81.39897599987516,28.575851999635013],[-81.39895699960859,28.57572799998511],[-81.39894800028608,28.575680000106825],[-81.39891800014884,28.575576999685985],[-81.39888399981366,28.575483999916372],[-81.398872999943,28.575462000153937],[-81.39880099997299,28.575319999927174],[-81.39874700044462,28.575233999763302],[-81.3986339995684,28.57509300033316],[-81.3985199997656,28.574978000272008],[-81.39840000011499,28.57487800011664],[-81.39833599964257,28.574834000333713],[-81.39826799987053,28.57478799989553],[-81.39823899955819,28.574750999940065],[-81.3982250002128,28.574707999634345],[-81.39821699981688,28.574604999839554],[-81.39812899995334,28.574606999691056],[-81.3978650003627,28.5746160002054],[-81.39782900037768,28.574623999610182],[-81.39778300034693,28.57464600033671],[-81.3977049996308,28.57469200004815],[-81.39763900040688,28.5747170001401],[-81.39757400010954,28.57472299968795],[-81.39737499991791,28.574725000326055],[-81.39610200002375,28.574742999756094],[-81.39567799970122,28.574749999621268],[-81.39526500014766,28.574754000107525],[-81.39462400009015,28.57476099997196],[-81.3940290000634,28.5747710000029],[-81.39401599964461,28.57477200032151],[-81.39361700033474,28.574772999851184],[-81.39361899998457,28.57494699991845],[-81.39361999980949,28.575025000154408],[-81.39361499978662,28.575080000174765],[-81.39360399991597,28.57510800033187],[-81.39358299999958,28.575140999690444],[-81.39354000034186,28.575186999974218],[-81.39350699983159,28.575208999794206],[-81.39346300034897,28.575228000244536],[-81.39336299989154,28.57525199989515],[-81.39329500011948,28.575253000209113],[-81.39312100004221,28.575256999887397],[-81.39308699970701,28.575351999694995],[-81.39302200030801,28.57547099980629],[-81.39295700001067,28.5755569997764],[-81.39288199966761,28.575639000012668],[-81.3928180000935,28.57572600015497],[-81.39276000036719,28.575816000362416],[-81.39256899967316,28.57609199999269],[-81.39249099985535,28.576240999732196],[-81.39241899988532,28.576393000170263],[-81.39236000033411,28.576552999646665],[-81.39231900032622,28.576701000010722],[-81.39229300038696,28.57685899999892],[-81.3922909998388,28.576992000204513],[-81.39230699973234,28.577122999649415],[-81.39232799964873,28.57720000034307],[-81.39234699991532,28.577253000214007],[-81.39236000033411,28.57729000007833],[-81.39240600036486,28.577395000198003],[-81.39260499965818,28.577763000331082],[-81.39220799999813,28.577924999878633],[-81.39209699967006,28.57795400035568],[-81.39198399969216,28.577965999870667],[-81.39146400000847,28.577973000310248],[-81.39129599977899,28.57797399980952],[-81.39079299981373,28.57797999996049],[-81.39076699987447,28.577981000248577],[-81.39072400021676,28.57797399980952],[-81.3906849998587,28.577956000143455],[-81.39064600039896,28.57791800022474],[-81.39062700013238,28.577875999924913],[-81.39062399975933,28.577856999952814],[-81.39061899973645,28.577560999902932],[-81.39060399966785,28.57647799987313],[-81.3906000003682,28.576116999751935],[-81.39038299973491,28.57611900036355],[-81.38973199963166,28.576126999653976],[-81.3895159997216,28.576129999782175],[-81.38951800026973,28.576315999674787],[-81.38952599976733,28.57687699985271],[-81.38952900014039,28.577064000298982],[-81.3895319996151,28.57725000011783],[-81.38954099983594,28.577809000257208],[-81.3895450000339,28.57799599983547],[-81.38959699991244,28.58111100022711],[-81.38958900041483,28.581473000028943],[-81.38959500026262,28.581769000113265],[-81.38960399958513,28.581879000172123],[-81.389616000179,28.58193300030233],[-81.38964499959303,28.582015000300988],[-81.38971400008832,28.582196999838594],[-81.38982799989112,28.582335000049603],[-81.39048200036743,28.582878000064763],[-81.3917479996906,28.583934999963578],[-81.39183499972924,28.583864000071845],[-81.39184999979786,28.583855000348798],[-81.39192599996582,28.583814999729768],[-81.3920220002253,28.58377300020723],[-81.39217200001312,28.583723999822748],[-81.39227199957223,28.583702999650992],[-81.39235000028836,28.583686999855374],[-81.39271099996338,28.583617000030742],[-81.39307300036162,28.583547000159466],[-81.39318700016445,28.583524000270504],[-81.39330099996727,28.583501999823206],[-81.39341499977009,28.583480000160208],[-81.39352899957288,28.583458999939687],[-81.39362800020541,28.58344000018739],[-81.39372799976452,28.58342099964274],[-81.3938039999325,28.583406000040696],[-81.3940220003907,28.583364999802843],[-81.39431600011858,28.58330899993314],[-81.39425300036939,28.583052000134597],[-81.39421900003418,28.58290800020619],[-81.3942049997905,28.58279700019252],[-81.39418499969901,28.582263999866477],[-81.3941760003765,28.581999999709563],[-81.39435100027869,28.581999000248548],[-81.39487799963506,28.58199500003784],[-81.39505400026047,28.58199500003784],[-81.39505799956011,28.582227000174274],[-81.39506299958299,28.58248300016606],[-81.39507299962872,28.582702000009604],[-81.39509000024547,28.58282700035697],[-81.39511000033696,28.582921000185873],[-81.3951610003906,28.583148000240268],[-81.39577099958764,28.583027999897247],[-81.39607500025957,28.582968999915092],[-81.39632600032974,28.582912000382166],[-81.39657700039992,28.58284200004161],[-81.3967189997918,28.582794000254463],[-81.39708500038803,28.582657000100607],[-81.39754399997234,28.582467000184828],[-81.39811899990761,28.582230000128487],[-81.39820500012132,28.58219399988344],[-81.39843899957474,28.582098999944666],[-81.39846399968908,28.58208700011236],[-81.39854999990281,28.582050000357892],[-81.39866100023089,28.58200200020926],[-81.39866999955342,28.581996999748785],[-81.39882600008735,28.581914999736096],[-81.39901100003527,28.5818000000339],[-81.39912300018825,28.581732000246856],[-81.39924200001394,28.58165400025142],[-81.39960199986406,28.581424000150488],[-81.39969399992557,28.581365000057257],[-81.39972200041298,28.58134700018265],[-81.39972099968975,28.581329000304954],[-81.39980600007857,28.581212999704643],[-81.39991099966055,28.581038000277356],[-81.39998900037666,28.580876000002615],[-81.40002000033881,28.580795000166066],[-81.40002700001149,28.58078000018948],[-81.40009899998152,28.58065900003725],[-81.40013400014162,28.58049099996014],[-81.40015500005802,28.580394999795644],[-81.4001750001495,28.58021699978457],[-81.40018000017237,28.580039000261127]]]},"properties":{"block_id":"120950126001000","school_id":"sch_edgewater_high","kids_est":478,"class":"green","shortest":{"len_m":1281.6,"mean_c":37.43,"peak_c":37.5,"dose":79.1},"coolest":{"len_m":1281.6,"mean_c":37.43,"peak_c":37.5,"dose":79.1},"delta_mean_c":0.0,"delta_dose_pct":0,"distance_mi":0.208,"status_now":"walk","status_rec":"walk","reason":"Shortest route already under threshold (dose 79).","safe_until_hour":null}},{"type":"Feature","geometry":{"type":"Polygon","coordinates":[[[-81.39351699987732,28.574849000369355],[-81.39361700033474,28.574747000242606],[-81.39320499970779,28.574750999940065],[-81.39197199999657,28.574764999668883],[-81.39156100009285,28.574769999684282],[-81.39114799964098,28.574774999699443],[-81.38991099973181,28.57479100006191],[-81.38949900000316,28.57479700039444],[-81.38949999982808,28.57489800015532],[-81.38950400002602,28.57520300027403],[-81.38950599967586,28.575304999958693],[-81.39022899974911,28.57529600029208],[-81.39239799996892,28.57527000002392],[-81.39264099964319,28.575268000185076],[-81.39312100004221,28.575256999887397],[-81.39321999977642,28.57515399984124],[-81.39351699987732,28.574849000369355]]]},"properties":{"block_id":"120950126001009","school_id":"sch_edgewater_high","kids_est":206,"class":"green","shortest":{"len_m":1245.0,"mean_c":37.33,"peak_c":37.4,"dose":75.1},"coolest":{"len_m":1245.0,"mean_c":37.33,"peak_c":37.4,"dose":75.1},"delta_mean_c":0.0,"delta_dose_pct":0,"distance_mi":0.475,"status_now":"walk","status_rec":"walk","reason":"Shortest route already under threshold (dose 75).","safe_until_hour":null}},{"type":"Feature","geometry":{"type":"Polygon","coordinates":[[[-81.38878900034868,28.581418000196],[-81.3887900001736,28.58137299973753],[-81.38877500010497,28.581329999772343],[-81.38863899966253,28.58116499996287],[-81.38860199985263,28.58111100022711],[-81.3885590001949,28.58103100004184],[-81.38852900005767,28.580953999786264],[-81.38851800018703,28.580896999950067],[-81.38851099961602,28.580826999846014],[-81.38850999979111,28.58080100015609],[-81.38849200024775,28.579983000198084],[-81.38847200015628,28.57871000025885],[-81.38846200011052,28.578012999995735],[-81.38812599965156,28.57801900014448],[-81.38785399966498,28.578019999643306],[-81.38754300021867,28.578022000218713],[-81.386030000125,28.578038000087304],[-81.38542199967944,28.578044999733212],[-81.38542400022757,28.578206000138273],[-81.38543300044842,28.57868899987472],[-81.38543500009823,28.578791999614882],[-81.38542500005249,28.57882299962419],[-81.38540999998388,28.57884399998155],[-81.3853909997173,28.578861000004824],[-81.38535899993025,28.578876000255093],[-81.38532399977015,28.578882000354554],[-81.3851150004311,28.57888400012468],[-81.38419900001396,28.57889600032246],[-81.38389400041547,28.578901000141492],[-81.38390399956288,28.579544000290735],[-81.38392299982947,28.580620000043304],[-81.3839320000503,28.581476000004667],[-81.38394000044622,28.582119999647926],[-81.38425400026557,28.582114999981904],[-81.38519800027177,28.58210199990253],[-81.38551299991605,28.58209799969574],[-81.3873259995854,28.58207800023722],[-81.38742699986773,28.582076999988164],[-81.3875380001958,28.582075999739022],[-81.38790600044183,28.58207100007091],[-81.38861000024853,28.582053000317142],[-81.38859299963178,28.581958999712402],[-81.3885800001113,28.581785000200707],[-81.38858299958603,28.58175000005557],[-81.38858500013419,28.581733999962815],[-81.38860100002769,28.581672000073432],[-81.38860500022565,28.58165899993935],[-81.38864100021067,28.58158999980739],[-81.38867399982263,28.58155199962395],[-81.38874499996776,28.58148900016137],[-81.3887700000821,28.581461000125216],[-81.38878900034868,28.581418000196]]]},"properties":{"block_id":"120950127012000","school_id":"sch_edgewater_high","kids_est":533,"class":"green","shortest":{"len_m":1011.6,"mean_c":37.18,"peak_c":37.4,"dose":58.5},"coolest":{"len_m":1011.6,"mean_c":37.18,"peak_c":37.4,"dose":58.5},"delta_mean_c":0.0,"delta_dose_pct":0,"distance_mi":0.331,"status_now":"walk","status_rec":"walk","reason":"Shortest route already under threshold (dose 58).","safe_until_hour":null}},{"type":"Feature","geometry":{"type":"Polygon","coordinates":[[[-81.3834680004431,28.58437600013931],[-81.38345900022227,28.58416600032383],[-81.38345599984922,28.584029000379676],[-81.38343499993282,28.582987999752486],[-81.38342900008503,28.582642000389598],[-81.38335799993993,28.582651000216458],[-81.38282300018763,28.582797999645937],[-81.3810120001681,28.583298999925137],[-81.38040899974544,28.583466000013658],[-81.38031800040716,28.58349000015105],[-81.3800460004206,28.583564999657522],[-81.3799560000089,28.58359100024175],[-81.37993000006965,28.583597000072263],[-81.37985499972658,28.583618000265215],[-81.37983100033544,28.583625000328613],[-81.37977500025895,28.583641000133618],[-81.37972400020531,28.583658000170338],[-81.37967899999948,28.583675000204273],[-81.37958699993796,28.583723000378107],[-81.37954699975498,28.58375300027847],[-81.37947899998294,28.58382499968875],[-81.37945999971636,28.58385199965214],[-81.37945200021875,28.583865999747257],[-81.37943100030236,28.583909000253186],[-81.37941500040881,28.583953999626438],[-81.379406000188,28.58401299984486],[-81.37940199999004,28.584046999795238],[-81.37940299981494,28.584191999970663],[-81.37940399963986,28.584252000283943],[-81.37940500036308,28.584397999614925],[-81.37941100021087,28.58483699976971],[-81.37941299986069,28.58498400008756],[-81.37941500040881,28.58514799999574],[-81.37942299990644,28.585639999763227],[-81.37942600027948,28.58580499965073],[-81.37958799976288,28.585804000225885],[-81.38007400000969,28.58580100037363],[-81.38023600039139,28.585800000159917],[-81.38022799999547,28.5857150001027],[-81.3802010002313,28.585617000332],[-81.38005300009328,28.585078000354827],[-81.38002100030624,28.584960999724068],[-81.38002100030624,28.584914000337463],[-81.38002799997894,28.58489799993726],[-81.38004899989532,28.584876999999974],[-81.38008700042847,28.584864999695828],[-81.38065300014291,28.58485099973372],[-81.38071500006718,28.58484300031797],[-81.38075900044812,28.58483900021544],[-81.38213000025158,28.584544999757625],[-81.38228000003942,28.584524999975695],[-81.38253600013245,28.5845099997423],[-81.3827369999739,28.58449299984331],[-81.3827779999818,28.584487000063966],[-81.38296100027989,28.58446300015411],[-81.38339999977272,28.584377999804968],[-81.3834680004431,28.58437600013931]]]},"properties":{"block_id":"120950153002030","school_id":"sch_edgewater_high","kids_est":17,"class":"green","shortest":{"len_m":1178.3,"mean_c":37.08,"peak_c":37.4,"dose":66.9},"coolest":{"len_m":1178.3,"mean_c":37.08,"peak_c":37.4,"dose":66.9},"delta_mean_c":0.0,"delta_dose_pct":0,"distance_mi":0.626,"status_now":"walk","status_rec":"walk","reason":"Shortest route already under threshold (dose 67).","safe_until_hour":null}},{"type":"Feature","geometry":{"type":"Polygon","coordinates":[[[-81.38342900008503,28.582642000389598],[-81.38342599971199,28.582545999821996],[-81.3834190000393,28.58225799995991],[-81.38341700038947,28.58216300007896],[-81.38341599966624,28.582126999811027],[-81.38331299973409,28.582128000059676],[-81.38300700031064,28.582132000265258],[-81.38290500020341,28.582133999973596],[-81.38269799961586,28.58213599968196],[-81.38207800037306,28.582145999800545],[-81.38187199961041,28.58214899975707],[-81.38167800033997,28.582151000253933],[-81.38109699965861,28.582160000122816],[-81.38090400021308,28.58216300007896],[-81.38088999996937,28.58216300007896],[-81.38084999978639,28.58216300007896],[-81.38083700026593,28.58216400032725],[-81.38051300040082,28.58216799974268],[-81.37954299955703,28.582182000062026],[-81.37922000041516,28.58218699972487],[-81.37913800039941,28.58218799997293],[-81.378893000177,28.582190999928198],[-81.37881199998616,28.58219299963548],[-81.37881700000902,28.582539999931512],[-81.37882700005477,28.583076000366415],[-81.37883000042781,28.58358299994135],[-81.37883299990257,28.583930999826507],[-81.37887599956025,28.58393699963763],[-81.37891999994119,28.583943999679782],[-81.3790060001549,28.583943999679782],[-81.37904999963753,28.583943999679782],[-81.37909599966828,28.583943000237188],[-81.3792370001336,28.583943000237188],[-81.37928399998927,28.583943000237188],[-81.37930200043091,28.583943000237188],[-81.37935799960911,28.583947999816296],[-81.3793769998757,28.583950000278946],[-81.37941500040881,28.583953999626438],[-81.37943100030236,28.583909000253186],[-81.37945200021875,28.583865999747257],[-81.37945999971636,28.58385199965214],[-81.37947899998294,28.58382499968875],[-81.37954699975498,28.58375300027847],[-81.37958699993796,28.583723000378107],[-81.37967899999948,28.583675000204273],[-81.37972400020531,28.583658000170338],[-81.37977500025895,28.583641000133618],[-81.37983100033544,28.583625000328613],[-81.37985499972658,28.583618000265215],[-81.37993000006965,28.583597000072263],[-81.3799560000089,28.58359100024175],[-81.3800460004206,28.583564999657522],[-81.38031800040716,28.58349000015105],[-81.38040899974544,28.583466000013658],[-81.3810120001681,28.583298999925137],[-81.38282300018763,28.582797999645937],[-81.38335799993993,28.582651000216458],[-81.38342900008503,28.582642000389598]]]},"properties":{"block_id":"120950153002037","school_id":"sch_edgewater_high","kids_est":0,"class":"green","shortest":{"len_m":1297.5,"mean_c":37.05,"peak_c":37.4,"dose":72.7},"coolest":{"len_m":1297.5,"mean_c":37.05,"peak_c":37.4,"dose":72.7},"delta_mean_c":0.0,"delta_dose_pct":0,"distance_mi":0.654,"status_now":"walk","status_rec":"walk","reason":"Shortest route already under threshold (dose 73).","safe_until_hour":null}},{"type":"Feature","geometry":{"type":"Polygon","coordinates":[[[-81.38360399998723,28.586204999952784],[-81.38370400044464,28.58617900001484],[-81.38357600039814,28.585931999889773],[-81.38354700008581,28.58586300019506],[-81.3835110001008,28.585724999881002],[-81.38349000018441,28.58547999991184],[-81.38348199978849,28.585243000335378],[-81.38343199955978,28.585249000071634],[-81.38103599955924,28.585772999907924],[-81.38098899970358,28.58580499965073],[-81.38095299971856,28.585848000152588],[-81.38092599995437,28.5858960001233],[-81.38090400021308,28.585964000373025],[-81.3808990001902,28.586022000040888],[-81.38090800041104,28.586110999904157],[-81.38164700037784,28.586643000245843],[-81.38168800038572,28.58662499969706],[-81.38174899958676,28.58661200017524],[-81.38360399998723,28.586204999952784]]]},"properties":{"block_id":"120950153002032","school_id":"sch_edgewater_high","kids_est":0,"class":"green","shortest":{"len_m":1912.2,"mean_c":36.98,"peak_c":37.4,"dose":105.7},"coolest":{"len_m":1912.2,"mean_c":36.98,"peak_c":37.4,"dose":105.7},"delta_mean_c":0.0,"delta_dose_pct":0,"distance_mi":0.616,"status_now":"walk","status_rec":"walk","reason":"Shortest route already under threshold (dose 106).","safe_until_hour":null}},{"type":"Feature","geometry":{"type":"Polygon","coordinates":[[[-81.3895450000339,28.57799599983547],[-81.38954099983594,28.577809000257208],[-81.3895319996151,28.57725000011783],[-81.38952900014039,28.577064000298982],[-81.38860199985263,28.577071000009756],[-81.38823600015472,28.577074000110986],[-81.38582099988761,28.57710199973733],[-81.38489500032307,28.577112999842065],[-81.3848979997978,28.57729999986885],[-81.38490700001864,28.57786199982125],[-81.38491000039168,28.57805000038159],[-81.38499200040744,28.57804900009417],[-81.38523799955642,28.578046000020684],[-81.38532100029543,28.578046000020684],[-81.3853410003869,28.578044999733212],[-81.38540099976305,28.578044999733212],[-81.38542199967944,28.578044999733212],[-81.386030000125,28.578038000087304],[-81.38754300021867,28.578022000218713],[-81.38785399966498,28.578019999643306],[-81.38812599965156,28.57801900014448],[-81.38846200011052,28.578012999995735],[-81.38867800002059,28.57800899963349],[-81.38932800029893,28.577998999910363],[-81.3895450000339,28.57799599983547]]]},"properties":{"block_id":"120950127012002","school_id":"sch_edgewater_high","kids_est":172,"class":"green","shortest":{"len_m":806.8,"mean_c":37.32,"peak_c":37.4,"dose":48.6},"coolest":{"len_m":808.2,"mean_c":37.32,"peak_c":37.4,"dose":48.5},"delta_mean_c":0.0,"delta_dose_pct":0,"distance_mi":0.394,"status_now":"walk","status_rec":"walk","reason":"Shortest route already under threshold (dose 49).","safe_until_hour":null}},{"type":"Feature","geometry":{"type":"Polygon","coordinates":[[[-81.39070699960001,28.590013999874895],[-81.39069499990444,28.58997199967326],[-81.39068800023175,28.589941999969724],[-81.39065700026961,28.589881999748222],[-81.39063200015525,28.58977700026411],[-81.39063800000304,28.589545999610127],[-81.39068200038396,28.589419999971692],[-81.39068800023175,28.58935900006117],[-81.39067599963786,28.58927099997272],[-81.39057600007877,28.58914799976155],[-81.39043999963631,28.588981000020464],[-81.39042000044314,28.588957000347623],[-81.39022700009929,28.58879800020743],[-81.39001500038718,28.58864900011575],[-81.38998500024996,28.58863799964006],[-81.3899390002192,28.588582000212135],[-81.38980299977678,28.588415999760848],[-81.38978500023343,28.58839400033714],[-81.3897330003549,28.588328999861567],[-81.38971599973813,28.58830799982071],[-81.389684999776,28.588269999698554],[-81.38964899979098,28.588232999753203],[-81.38829300005612,28.58840900001646],[-81.38826499956872,28.588315000360694],[-81.38812599965156,28.588262999944394],[-81.3881080001082,28.588262999944394],[-81.3879390000538,28.58821400007463],[-81.3878829999773,28.58817000034927],[-81.38776300032671,28.588153000253186],[-81.38772800016659,28.588148000085273],[-81.3875520004395,28.588096999778184],[-81.38753399999786,28.58809199960761],[-81.38748700014219,28.588100999756776],[-81.38744699995921,28.588108999713487],[-81.38741599999707,28.58813099998564],[-81.38741799964689,28.588187999844724],[-81.38742100001996,28.588248999645863],[-81.38742199984485,28.58826900029708],[-81.38740299957828,28.588311999791262],[-81.38739099988271,28.588340000369634],[-81.3873470004001,28.588401000082584],[-81.38733399998131,28.58846800010147],[-81.3872910003236,28.58869799978271],[-81.38726500038433,28.58898700033223],[-81.38722000017847,28.589232000017564],[-81.38730100036933,28.589230999836484],[-81.38740199975338,28.589229999655405],[-81.38766200004437,28.589225999719776],[-81.3876639996942,28.589364000171553],[-81.38937199978156,28.58934200015741],[-81.38972499995896,28.58933700004598],[-81.38972800033201,28.589563000269692],[-81.38973599982963,28.590018999954072],[-81.3904320001387,28.59004899963564],[-81.39069099970648,28.59006100013693],[-81.39070699960001,28.590013999874895]]]},"properties":{"block_id":"120950153002006","school_id":"sch_edgewater_high","kids_est":0,"class":"green","shortest":{"len_m":1685.0,"mean_c":37.44,"peak_c":37.5,"dose":103.4},"coolest":{"len_m":1696.7,"mean_c":37.38,"peak_c":37.5,"dose":103.0},"delta_mean_c":-0.06,"delta_dose_pct":0,"distance_mi":0.505,"status_now":"walk","status_rec":"walk","reason":"Shortest route already under threshold (dose 103).","safe_until_hour":null}},{"type":"Feature","geometry":{"type":"Polygon","coordinates":[[[-81.38090400021308,28.58216300007896],[-81.38090099984004,28.581977999732285],[-81.38089300034243,28.581424999616974],[-81.38089099979429,28.5812409998069],[-81.38055400040872,28.581243999789166],[-81.37954599993009,28.581256999974606],[-81.37921000036943,28.581261999681402],[-81.37921200001924,28.581446999709883],[-81.37921799986701,28.58200200020926],[-81.37922000041516,28.58218699972487],[-81.37954299955703,28.582182000062026],[-81.38051300040082,28.58216799974268],[-81.38083700026593,28.58216400032725],[-81.38084999978639,28.58216300007896],[-81.38088999996937,28.58216300007896],[-81.38090400021308,28.58216300007896]]]},"properties":{"block_id":"120950127011006","school_id":"sch_edgewater_high","kids_est":28,"class":"green","shortest":{"len_m":1307.1,"mean_c":37.04,"peak_c":37.4,"dose":73.2},"coolest":{"len_m":1307.1,"mean_c":37.04,"peak_c":37.4,"dose":73.2},"delta_mean_c":0.0,"delta_dose_pct":0,"distance_mi":0.69,"status_now":"walk","status_rec":"walk","reason":"Shortest route already under threshold (dose 73).","safe_until_hour":null}},{"type":"Feature","geometry":{"type":"Polygon","coordinates":[[[-81.38348199978849,28.585243000335378],[-81.38347900031374,28.58506899994684],[-81.38347000009293,28.58454899987134],[-81.3834680004431,28.58437600013931],[-81.38339999977272,28.584377999804968],[-81.38296100027989,28.58446300015411],[-81.3827779999818,28.584487000063966],[-81.3827369999739,28.58449299984331],[-81.38253600013245,28.5845099997423],[-81.38228000003942,28.584524999975695],[-81.38213000025158,28.584544999757625],[-81.38075900044812,28.58483900021544],[-81.38071500006718,28.58484300031797],[-81.38065300014291,28.58485099973372],[-81.38008700042847,28.584864999695828],[-81.38004899989532,28.584876999999974],[-81.38002799997894,28.58489799993726],[-81.38002100030624,28.584914000337463],[-81.38002100030624,28.584960999724068],[-81.38005300009328,28.585078000354827],[-81.3802010002313,28.585617000332],[-81.38022799999547,28.5857150001027],[-81.38023600039139,28.585800000159917],[-81.38026999982826,28.585798999946192],[-81.38037399958533,28.585797999732453],[-81.38040899974544,28.585797999732453],[-81.38053599996704,28.585797000307547],[-81.38054099998993,28.58583300010791],[-81.3805600002565,28.585864999832463],[-81.38090800041104,28.586110999904157],[-81.3808990001902,28.586022000040888],[-81.38090400021308,28.585964000373025],[-81.38092599995437,28.5858960001233],[-81.38095299971856,28.585848000152588],[-81.38098899970358,28.58580499965073],[-81.38103599955924,28.585772999907924],[-81.38343199955978,28.585249000071634],[-81.38348199978849,28.585243000335378]]]},"properties":{"block_id":"120950153002031","school_id":"sch_edgewater_high","kids_est":17,"class":"green","shortest":{"len_m":1819.1,"mean_c":36.98,"peak_c":37.4,"dose":100.4},"coolest":{"len_m":1819.1,"mean_c":36.98,"peak_c":37.4,"dose":100.4},"delta_mean_c":0.0,"delta_dose_pct":0,"distance_mi":0.626,"status_now":"walk","status_rec":"walk","reason":"Shortest route already under threshold (dose 100).","safe_until_hour":null}},{"type":"Feature","geometry":{"type":"Polygon","coordinates":[[[-81.39146400000847,28.577973000310248],[-81.39145800016068,28.577598999950624],[-81.39144100044226,28.57647900017544],[-81.39143600041938,28.576106000331947],[-81.3912680001899,28.576106999848953],[-81.39076699987447,28.576113999623352],[-81.3906000003682,28.576116999751935],[-81.39060399966785,28.57647799987313],[-81.39061899973645,28.577560999902932],[-81.39062399975933,28.577856999952814],[-81.39062700013238,28.577875999924913],[-81.39064600039896,28.57791800022474],[-81.3906849998587,28.577956000143455],[-81.39072400021676,28.57797399980952],[-81.39076699987447,28.577981000248577],[-81.39079299981373,28.57797999996049],[-81.39129599977899,28.57797399980952],[-81.39146400000847,28.577973000310248]]]},"properties":{"block_id":"120950126001002","school_id":"sch_edgewater_high","kids_est":0,"class":"green","shortest":{"len_m":854.0,"mean_c":37.33,"peak_c":37.4,"dose":51.5},"coolest":{"len_m":854.0,"mean_c":37.33,"peak_c":37.4,"dose":51.5},"delta_mean_c":0.0,"delta_dose_pct":0,"distance_mi":0.337,"status_now":"walk","status_rec":"walk","reason":"Shortest route already under threshold (dose 52).","safe_until_hour":null}},{"type":"Feature","geometry":{"type":"Polygon","coordinates":[[[-81.39308699970701,28.575351999694995],[-81.39312100004221,28.575256999887397],[-81.39264099964319,28.575268000185076],[-81.39239799996892,28.57527000002392],[-81.39022899974911,28.57529600029208],[-81.38950599967586,28.575304999958693],[-81.38950800022398,28.575470000283225],[-81.38951400007178,28.575964999704034],[-81.3895159997216,28.576129999782175],[-81.38973199963166,28.576126999653976],[-81.39038299973491,28.57611900036355],[-81.3906000003682,28.576116999751935],[-81.39076699987447,28.576113999623352],[-81.3912680001899,28.576106999848953],[-81.39143600041938,28.576106000331947],[-81.39186999988934,28.57610000007408],[-81.39198100021741,28.57610300020306],[-81.3921000000431,28.5761149999292],[-81.39218299988377,28.57613299991029],[-81.39228800036409,28.576165000219703],[-81.39249099985535,28.576240999732196],[-81.39256899967316,28.57609199999269],[-81.39276000036719,28.575816000362416],[-81.3928180000935,28.57572600015497],[-81.39288199966761,28.575639000012668],[-81.39295700001067,28.5755569997764],[-81.39302200030801,28.57547099980629],[-81.39308699970701,28.575351999694995]]]},"properties":{"block_id":"120950126001010","school_id":"sch_edgewater_high","kids_est":17,"class":"green","shortest":{"len_m":1082.8,"mean_c":37.33,"peak_c":37.4,"dose":65.4},"coolest":{"len_m":1082.8,"mean_c":37.33,"peak_c":37.4,"dose":65.4},"delta_mean_c":0.0,"delta_dose_pct":0,"distance_mi":0.43,"status_now":"walk","status_rec":"walk","reason":"Shortest route already under threshold (dose 65).","safe_until_hour":null}},{"type":"Feature","geometry":{"type":"Polygon","coordinates":[[[-81.38964499959303,28.582015000300988],[-81.389616000179,28.58193300030233],[-81.38960399958513,28.581879000172123],[-81.38959500026262,28.581769000113265],[-81.38958900041483,28.581473000028943],[-81.38959699991244,28.58111100022711],[-81.3895450000339,28.57799599983547],[-81.38932800029893,28.577998999910363],[-81.38867800002059,28.57800899963349],[-81.38846200011052,28.578012999995735],[-81.38847200015628,28.57871000025885],[-81.38849200024775,28.579983000198084],[-81.38850999979111,28.58080100015609],[-81.38851099961602,28.580826999846014],[-81.38851800018703,28.580896999950067],[-81.38852900005767,28.580953999786264],[-81.3885590001949,28.58103100004184],[-81.38860199985263,28.58111100022711],[-81.38863899966253,28.58116499996287],[-81.38877500010497,28.581329999772343],[-81.3887900001736,28.58137299973753],[-81.38878900034868,28.581418000196],[-81.3887700000821,28.581461000125216],[-81.38874499996776,28.58148900016137],[-81.38867399982263,28.58155199962395],[-81.38864100021067,28.58158999980739],[-81.38860500022565,28.58165899993935],[-81.38860100002769,28.581672000073432],[-81.38858500013419,28.581733999962815],[-81.38858299958603,28.58175000005557],[-81.3885800001113,28.581785000200707],[-81.38859299963178,28.581958999712402],[-81.38861000024853,28.582053000317142],[-81.38878099995276,28.582047999859086],[-81.3888060000671,28.582047999859086],[-81.3888479998999,28.582046999609688],[-81.3889740002966,28.58204600014912],[-81.38901699995431,28.58204600014912],[-81.389107000366,28.582044999899683],[-81.38935000004024,28.582043000189653],[-81.38937799962933,28.582041999940206],[-81.38946899986593,28.58203899998062],[-81.38950400002602,28.582034000310756],[-81.38960899960801,28.58201899972209],[-81.38964499959303,28.582015000300988]]]},"properties":{"block_id":"120950127012001","school_id":"sch_edgewater_high","kids_est":0,"class":"green","shortest":{"len_m":527.7,"mean_c":37.34,"peak_c":37.4,"dose":31.7},"coolest":{"len_m":527.7,"mean_c":37.34,"peak_c":37.4,"dose":31.7},"delta_mean_c":0.0,"delta_dose_pct":0,"distance_mi":0.197,"status_now":"walk","status_rec":"walk","reason":"Shortest route already under threshold (dose 32).","safe_until_hour":null}},{"type":"Feature","geometry":{"type":"Polygon","coordinates":[[[-81.3895860000418,28.585121999796495],[-81.38958799969163,28.585081999659423],[-81.38958299966875,28.58504200029592],[-81.38957099997317,28.585003000349722],[-81.38955300042981,28.584967000265195],[-81.3894599996451,28.58484399975195],[-81.38938799967507,28.584747999616894],[-81.38925999962856,28.584600999757964],[-81.38918099998584,28.584503999963857],[-81.38909599959702,28.5843690001259],[-81.38871099963256,28.58375300027847],[-81.38867600037076,28.583676999883263],[-81.38865100025642,28.583598000306928],[-81.3886350003629,28.583488999915353],[-81.3886210001192,28.58269799982564],[-81.38861100007344,28.58210000019359],[-81.38861000024853,28.582053000317142],[-81.38790600044183,28.58207100007091],[-81.3875380001958,28.582075999739022],[-81.38753900002071,28.58211200002441],[-81.3875520004395,28.582480000219075],[-81.38757900020369,28.583607000051973],[-81.38759199972417,28.583730999879073],[-81.38762100003648,28.583817999638676],[-81.38767100026519,28.583900999976944],[-81.38816099981165,28.58441899964787],[-81.38829499970595,28.58454400032081],[-81.388446000217,28.584731999980253],[-81.38852300020989,28.58481999992358],[-81.38867499964755,28.584957999847756],[-81.38879199982341,28.58504900026451],[-81.38913400013017,28.585292000012046],[-81.38917299958992,28.58531299986645],[-81.38921500032103,28.585327999985306],[-81.38925899980366,28.585337999800405],[-81.38930499983441,28.585340999665878],[-81.38935000004024,28.58533700037112],[-81.38939400042116,28.585327999985306],[-81.38943600025397,28.585311999648155],[-81.38946300001814,28.585297000315837],[-81.38950800022398,28.585264000199615],[-81.389536999638,28.58523299972246],[-81.38956000010252,28.585197999936067],[-81.38957599999604,28.585160999698562],[-81.3895860000418,28.585121999796495]]]},"properties":{"block_id":"120950153002007","school_id":"sch_edgewater_high","kids_est":17,"class":"green","shortest":{"len_m":750.2,"mean_c":37.27,"peak_c":37.4,"dose":44.3},"coolest":{"len_m":750.2,"mean_c":37.27,"peak_c":37.4,"dose":44.3},"delta_mean_c":0.0,"delta_dose_pct":0,"distance_mi":0.217,"status_now":"walk","status_rec":"walk","reason":"Shortest route already under threshold (dose 44).","safe_until_hour":null}}]}