{"type":"FeatureCollection","features":[{"type":"Feature","geometry":{"type":"Polygon","coordinates":[[[-81.4067,28.54105],[-81.398,28.54105],[-81.398,28.5544],[-81.4067,28.5544],[-81.4067,28.54105]]]},"properties":{"block_id":"120951238001001","school_id":"sch_rock_lake_elementary","kids_est":13,"class":"green","shortest":{"len_m":550.9,"mean_c":37.38,"peak_c":38.58,"dose":33.5},"coolest":{"len_m":689.5,"mean_c":34.15,"peak_c":35.15,"dose":11.0},"delta_mean_c":-3.23,"delta_dose_pct":-67,"distance_mi":0.274,"status_now":"walk","status_rec":"walk","reason":"Shortest route already under threshold (dose 34).","safe_until_hour":null}}]}