{"type":"FeatureCollection","features":[{"type":"Feature","geometry":{"type":"Polygon","coordinates":[[[-81.398,28.54105],[-81.3893,28.54105],[-81.3893,28.5544],[-81.398,28.5544],[-81.398,28.54105]]]},"properties":{"block_id":"120951239001001","school_id":"sch_ocps_academic_center_for_excellence","kids_est":26,"class":"green","shortest":{"len_m":408.2,"mean_c":36.82,"peak_c":38.02,"dose":21.7},"coolest":{"len_m":506.1,"mean_c":34.14,"peak_c":35.14,"dose":8.0},"delta_mean_c":-2.68,"delta_dose_pct":-63,"distance_mi":0.203,"status_now":"walk","status_rec":"walk","reason":"Shortest route already under threshold (dose 22).","safe_until_hour":null}},{"type":"Feature","geometry":{"type":"Polygon","coordinates":[[[-81.3893,28.54105],[-81.3806,28.54105],[-81.3806,28.5544],[-81.3893,28.5544],[-81.3893,28.54105]]]},"properties":{"block_id":"120951240001001","school_id":"sch_ocps_academic_center_for_excellence","kids_est":15,"class":"green","shortest":{"len_m":657.7,"mean_c":37.88,"peak_c":39.08,"dose":44.6},"coolest":{"len_m":730.2,"mean_c":36.51,"peak_c":37.51,"dose":35.6},"delta_mean_c":-1.37,"delta_dose_pct":-20,"distance_mi":0.327,"status_now":"walk","status_rec":"walk","reason":"Shortest route already under threshold (dose 45).","safe_until_hour":null}},{"type":"Feature","geometry":{"type":"Polygon","coordinates":[[[-81.398,28.5544],[-81.3893,28.5544],[-81.3893,28.56775],[-81.398,28.56775],[-81.398,28.5544]]]},"properties":{"block_id":"120951239001002","school_id":"sch_ocps_academic_center_for_excellence","kids_est":44,"class":"green","shortest":{"len_m":1854.7,"mean_c":37.03,"peak_c":38.23,"dose":103.8},"coolest":{"len_m":2043.2,"mean_c":36.03,"peak_c":37.03,"dose":85.9},"delta_mean_c":-1.0,"delta_dose_pct":-17,"distance_mi":0.922,"status_now":"walk","status_rec":"walk","reason":"Shortest route already under threshold (dose 104).","safe_until_hour":null}}]}