{"type":"FeatureCollection","features":[{"type":"Feature","geometry":{"type":"Polygon","coordinates":[[[-81.426,28.5352],[-81.412,28.5352],[-81.412,28.5548],[-81.426,28.5548],[-81.426,28.5352]]]},"properties":{"block_id":"120951236001002","school_id":"sch_prosperitas_leadership_academy_charter","kids_est":35,"class":"green","shortest":{"len_m":1184.4,"mean_c":36.73,"peak_c":37.93,"dose":61.4},"coolest":{"len_m":1484.8,"mean_c":33.96,"peak_c":34.96,"dose":19.7},"delta_mean_c":-2.77,"delta_dose_pct":-68,"distance_mi":0.589,"status_now":"walk","status_rec":"walk","reason":"Shortest route already under threshold (dose 61).","safe_until_hour":null}},{"type":"Feature","geometry":{"type":"Polygon","coordinates":[[[-81.412,28.5352],[-81.398,28.5352],[-81.398,28.5548],[-81.412,28.5548],[-81.412,28.5352]]]},"properties":{"block_id":"120951237001002","school_id":"sch_prosperitas_leadership_academy_charter","kids_est":35,"class":"green","shortest":{"len_m":551.1,"mean_c":36.51,"peak_c":37.71,"dose":26.9},"coolest":{"len_m":683.6,"mean_c":34.03,"peak_c":35.03,"dose":9.8},"delta_mean_c":-2.48,"delta_dose_pct":-64,"distance_mi":0.274,"status_now":"walk","status_rec":"walk","reason":"Shortest route already under threshold (dose 27).","safe_until_hour":null}}]}