{"type":"FeatureCollection","features":[{"type":"Feature","geometry":{"type":"Polygon","coordinates":[[[-81.4739509996755,28.537195000147292],[-81.47394800020078,28.53654400019711],[-81.47394499982772,28.535764999620778],[-81.47393300013216,28.534593999622956],[-81.47392999975911,28.534249999618705],[-81.47393300013216,28.533944000093513],[-81.47246000022145,28.533956999807682],[-81.4723930002743,28.534029000138414],[-81.4722669998776,28.534074000320125],[-81.47214999970174,28.53411699986199],[-81.47211100024198,28.534143000035318],[-81.47211200006689,28.534180000058416],[-81.47212299993755,28.534783999942256],[-81.47212399976246,28.53479900016058],[-81.47213200015838,28.536598999805367],[-81.47213499963311,28.537203999914766],[-81.4723170001063,28.53720200014189],[-81.47286399955416,28.537197999806846],[-81.47304699985227,28.53719699992031],[-81.47322699977731,28.537196000033802],[-81.47376999992555,28.537195000147292],[-81.47392499973625,28.537195000147292],[-81.4739509996755,28.537195000147292]]]},"properties":{"block_id":"120950147022005","school_id":"sch_sunshine_high_school_greater_orlando_campus","kids_est":3,"class":"green","shortest":{"len_m":901.4,"mean_c":38.3,"peak_c":38.3,"dose":66.4},"coolest":{"len_m":901.4,"mean_c":38.3,"peak_c":38.3,"dose":66.4},"delta_mean_c":0.0,"delta_dose_pct":0,"distance_mi":0.168,"status_now":"walk","status_rec":"walk","reason":"Shortest route already under threshold (dose 66).","safe_until_hour":null}},{"type":"Feature","geometry":{"type":"Polygon","coordinates":[[[-81.47509999972114,28.532107000131845],[-81.47508800002555,28.531307000323956],[-81.47507799997982,28.531190999839783],[-81.47505799988835,28.531094999696318],[-81.47504700001768,28.53103899963807],[-81.47502399955316,28.530963999795198],[-81.47498799956814,28.530916000025677],[-81.47491999979607,28.53085400019228],[-81.47486600026771,28.530822000314924],[-81.47480599999327,28.53079800000591],[-81.47456800034189,28.53073100036398],[-81.47435499990655,28.530690000126228],[-81.47407700007221,28.53065800019909],[-81.47389600032224,28.530647999923907],[-81.47374700035932,28.530646000026568],[-81.47317200042406,28.530665999787164],[-81.4730560000731,28.53067799995736],[-81.47295399996585,28.530701000345566],[-81.47283199976712,28.530742999737534],[-81.47269000037521,28.53081799973768],[-81.47257999987204,28.530892999684387],[-81.47252799999352,28.53094000030776],[-81.47248399961256,28.530988000066404],[-81.47245400037367,28.531029000188216],[-81.47242300041152,28.531081999629095],[-81.47240400014495,28.53112399965846],[-81.47239400009919,28.53116299983989],[-81.47238300022856,28.531213000172773],[-81.47235599956605,28.53156600008009],[-81.4723580001142,28.531666000339737],[-81.47237400000772,28.53176900031858],[-81.47239999994699,28.531862000036742],[-81.47248600016073,28.532043000339115],[-81.47253800003925,28.53213799968454],[-81.47264299962123,28.532089999660446],[-81.47270200007078,28.532067000364606],[-81.47287500032313,28.53199999995097],[-81.47321199970871,28.531897000197933],[-81.473385999786,28.53185900022529],[-81.47352100040351,28.53183400021505],[-81.47354599961955,28.531829999676223],[-81.473822999629,28.53179199967947],[-81.47390100034511,28.53178699999039],[-81.47399199968339,28.531792999617235],[-81.47403000021654,28.531799999970648],[-81.47407200004933,28.531808000261268],[-81.47418599985215,28.531848000126825],[-81.47435300025674,28.53194999999147],[-81.47453200035687,28.53205900009364],[-81.47461299964942,28.532085999920547],[-81.47469600038839,28.532105000262238],[-81.47482500025984,28.532117000268585],[-81.47491099957526,28.53211399967522],[-81.47495300030636,28.532109000001423],[-81.47509999972114,28.532107000131845]]]},"properties":{"block_id":"120950147021003","school_id":"sch_sunshine_high_school_greater_orlando_campus","kids_est":4,"class":"green","shortest":{"len_m":1135.6,"mean_c":38.3,"peak_c":38.3,"dose":83.6},"coolest":{"len_m":1135.6,"mean_c":38.3,"peak_c":38.3,"dose":83.6},"delta_mean_c":0.0,"delta_dose_pct":0,"distance_mi":0.453,"status_now":"walk","status_rec":"walk","reason":"Shortest route already under threshold (dose 84).","safe_until_hour":null}},{"type":"Feature","geometry":{"type":"Polygon","coordinates":[[[-81.47510800011706,28.533532000185467],[-81.47510700029214,28.53339499983233],[-81.4751039999191,28.53298400007193],[-81.4751039999191,28.53284699979557],[-81.47510300009418,28.53269900012071],[-81.47509999972114,28.532254999848952],[-81.47509999972114,28.532107000131845],[-81.47495300030636,28.532109000001423],[-81.47491099957526,28.53211399967522],[-81.47482500025984,28.532117000268585],[-81.47469600038839,28.532105000262238],[-81.47461299964942,28.532085999920547],[-81.47453200035687,28.53205900009364],[-81.47435300025674,28.53194999999147],[-81.47418599985215,28.531848000126825],[-81.47407200004933,28.531808000261268],[-81.47403000021654,28.531799999970648],[-81.47399199968339,28.531792999617235],[-81.47390100034511,28.53178699999039],[-81.473822999629,28.53179199967947],[-81.47354599961955,28.531829999676223],[-81.47352100040351,28.53183400021505],[-81.473385999786,28.53185900022529],[-81.47321199970871,28.531897000197933],[-81.47287500032313,28.53199999995097],[-81.47270200007078,28.532067000364606],[-81.47264299962123,28.532089999660446],[-81.47253800003925,28.53213799968454],[-81.47258400007,28.53222199967407],[-81.47268799982707,28.532392000105695],[-81.47272399981208,28.532451000028896],[-81.47285699988147,28.53264699984432],[-81.47295800016383,28.532785000309048],[-81.47311700017248,28.532985999924843],[-81.47320099983807,28.53308199992418],[-81.47322000010465,28.533101000086297],[-81.47328299985384,28.53316400010091],[-81.47335700037199,28.533226000153686],[-81.47344500023553,28.533292999787857],[-81.47361599993975,28.53338900029668],[-81.47374999983406,28.533443999973294],[-81.47383299967473,28.533473000078267],[-81.47390800001781,28.53348899961566],[-81.47407100022441,28.53352200018295],[-81.47416400011085,28.533534000027988],[-81.47452899998383,28.533537999712923],[-81.4747659998103,28.53353499994924],[-81.47510800011706,28.533532000185467]]]},"properties":{"block_id":"120950147021000","school_id":"sch_sunshine_high_school_greater_orlando_campus","kids_est":3,"class":"green","shortest":{"len_m":968.2,"mean_c":38.3,"peak_c":38.3,"dose":71.3},"coolest":{"len_m":968.2,"mean_c":38.3,"peak_c":38.3,"dose":71.3},"delta_mean_c":0.0,"delta_dose_pct":0,"distance_mi":0.363,"status_now":"walk","status_rec":"walk","reason":"Shortest route already under threshold (dose 71).","safe_until_hour":null}},{"type":"Feature","geometry":{"type":"Polygon","coordinates":[[[-81.47178700037689,28.517886999692934],[-81.47164199971363,28.517783000286652],[-81.47154299997942,28.517713000051675],[-81.47129100008434,28.517550000136307],[-81.47119499982486,28.517493999986165],[-81.471041999664,28.51740499972866],[-81.47102999996842,28.5173979999979],[-81.47070500027841,28.51722200018707],[-81.47037399984231,28.51704199977169],[-81.4697050001957,28.516660000178906],[-81.46962499982976,28.516614999666658],[-81.46936799991182,28.516480000382856],[-81.46901100043476,28.51697700022587],[-81.46863099959485,28.51751000037035],[-81.46856100017295,28.51763099969477],[-81.46850300044665,28.517757000024393],[-81.46844499982201,28.517933999800864],[-81.46841800005782,28.518053000081085],[-81.4684010003394,28.518207000197986],[-81.46839999961617,28.518317000369358],[-81.4684099996619,28.518431999959354],[-81.46843700032439,28.51859299996396],[-81.46844800019505,28.518641999882224],[-81.46846900011144,28.51872699963819],[-81.46848199963193,28.518803000355504],[-81.46848900020295,28.518928000014203],[-81.46848300035514,28.519069999730792],[-81.46847599978415,28.519129000007045],[-81.4684509996698,28.51924799972797],[-81.46842899992848,28.519349999945707],[-81.46841399985986,28.51944799984526],[-81.46841200021004,28.51947200037054],[-81.46840800001209,28.51955500013897],[-81.46841300003496,28.520157000070014],[-81.46841499968478,28.52038599980088],[-81.4672189997835,28.520391000030674],[-81.46722600035451,28.521534999817124],[-81.46721999960839,28.521623999745813],[-81.46720200006504,28.52171300038866],[-81.46716199988208,28.521829000253515],[-81.46712599989706,28.521898000092214],[-81.46708300023937,28.521963999792654],[-81.46703200018574,28.522026000119425],[-81.46697500028434,28.522084000290285],[-81.46694299959897,28.52210900024517],[-81.46691099981192,28.522135000223592],[-81.46684200021495,28.52218099998755],[-81.46676699987187,28.522221000349376],[-81.46668900005407,28.52225399970903],[-81.46660799986321,28.522278999623612],[-81.4660920003775,28.52240900003121],[-81.46599100009514,28.522445000200722],[-81.46589599966059,28.52249199985545],[-81.46571599973554,28.522625000074683],[-81.46563700009283,28.52269900030208],[-81.46556699977262,28.522780999874747],[-81.46550499984835,28.52287299960811],[-81.46546700021351,28.52294699966143],[-81.46543500042645,28.523021999683785],[-81.46541100013702,28.523099999713573],[-81.46539299969535,28.52317899970513],[-81.4653829996496,28.52325999967502],[-81.46537900034997,28.52334000035395],[-81.4653829996496,28.523421000200155],[-81.46539500024348,28.523500999967617],[-81.46541299978684,28.523580999674433],[-81.46575000007073,28.524646999957593],[-81.4657890004288,28.524783999843102],[-81.46580399959907,28.524881000213192],[-81.46580399959907,28.524977999704813],[-81.46579000025369,28.525073999894882],[-81.4657609999414,28.525167999996295],[-81.46571800028367,28.525257000015042],[-81.46566300003211,28.525340999963785],[-81.46559500026004,28.525416999859804],[-81.465515999719,28.52548499972028],[-81.46542799985546,28.525543000355896],[-81.46533199959597,28.525590000207995],[-81.46526700019697,28.52561500012074],[-81.46504100024117,28.525675999883013],[-81.46358400022396,28.526036000129086],[-81.46318099981782,28.526123000221144],[-81.46310600037307,28.526136000110817],[-81.46296200043304,28.52614999999019],[-81.46269899976899,28.526155999937924],[-81.4623969996452,28.526152999964072],[-81.46239599982029,28.526645000054767],[-81.46239499999537,28.52675700007536],[-81.46238199957658,28.526904000217808],[-81.462369999881,28.527036999606267],[-81.46234399994175,28.52721500035887],[-81.46232399985026,28.52744299977527],[-81.46231899982739,28.52759099972793],[-81.46232200020044,28.527681000045416],[-81.46233200024618,28.52794100000489],[-81.4629389999685,28.52793800008189],[-81.46310200017511,28.52793800008189],[-81.46359599991953,28.527932000235573],[-81.46451099961342,28.5279419999792],[-81.46476099985867,28.52793700010753],[-81.46491200036974,28.527934000184374],[-81.4650930001197,28.527916999829078],[-81.46512599973164,28.5279139999054],[-81.4653040000069,28.527897000336093],[-81.46536699975609,28.527896000361345],[-81.46568300012358,28.52789199967303],[-81.46580600014723,28.52789199967303],[-81.46647300014399,28.527898000310884],[-81.4669800003072,28.52789199967303],[-81.46712300042235,28.52788899974864],[-81.46756199991515,28.527879999974843],[-81.46772299957365,28.52787100020032],[-81.46793900038203,28.52784600003337],[-81.46815299974396,28.527805000251774],[-81.46836199998133,28.527750999976163],[-81.4684859998299,28.527710000157676],[-81.46856100017295,28.52768599992927],[-81.468817000266,28.527583999884158],[-81.46900200021392,28.527496000230162],[-81.46975200005137,28.527092000230052],[-81.47017300000086,28.526860000116137],[-81.46990699986208,28.526488999658614],[-81.46985300033373,28.52639399995697],[-81.46981300015075,28.526294000220012],[-81.46960200026354,28.52547199975038],[-81.47118899997709,28.524674000104618],[-81.47113000042586,28.524454000283423],[-81.47110000028862,28.524316999968985],[-81.47107599999919,28.52417900025585],[-81.47104400021213,28.523902000274944],[-81.4710349999913,28.523691999778684],[-81.47103300034148,28.523623000324882],[-81.47103599981621,28.523483999686682],[-81.47105900028075,28.523214000381863],[-81.47107699982409,28.52309200034057],[-81.4710979997405,28.522944999618026],[-81.47115200016715,28.522678999819092],[-81.47123099980988,28.522387000228523],[-81.47098200028783,28.52233300033455],[-81.47012399959705,28.52213000007644],[-81.47029199982654,28.521581999877526],[-81.47037600039043,28.52134600011848],[-81.47056399981311,28.5209289996977],[-81.47068799966166,28.520695000141732],[-81.47078999976891,28.520522999698446],[-81.47094200010487,28.52028599988997],[-81.47113399972551,28.52000799989185],[-81.47116999971051,28.51994900010746],[-81.47120200039588,28.51988500003647],[-81.47122900016006,28.51981899982389],[-81.47125000007647,28.519752000307246],[-81.47126500014505,28.51968399990614],[-81.47127500019081,28.519615000197142],[-81.47127799966555,28.519475999799813],[-81.47127099999285,28.51940699995476],[-81.47120900006857,28.51912200039072],[-81.47120499987061,28.519104000134817],[-81.47118099958115,28.51897200026924],[-81.47117200025865,28.518893000282542],[-81.47117100043373,28.51883299981353],[-81.47117100043373,28.51881400023672],[-81.47117700028151,28.51873400007006],[-81.47119200035013,28.518655999967493],[-81.47121300026653,28.51857799980719],[-81.47124199968053,28.518502999780864],[-81.47127900038876,28.518429999830243],[-81.47132200004647,28.518361000090035],[-81.4713720002752,28.51829499971278],[-81.47142800035168,28.51823200028288],[-81.47157200029172,28.518084999888124],[-81.47178700037689,28.517886999692934]]]},"properties":{"block_id":"120950147031001","school_id":"sch_sunshine_high_school_greater_orlando_campus","kids_est":76,"class":"red","shortest":{"len_m":3398.0,"mean_c":38.37,"peak_c":38.4,"dose":252.7},"coolest":{"len_m":3399.4,"mean_c":38.37,"peak_c":38.4,"dose":252.5},"delta_mean_c":0.0,"delta_dose_pct":0,"distance_mi":1.055,"status_now":"walk","status_rec":"bus_eligible","reason":"Coolest route mean 38.4C exceeds threshold (110 C-min dose, actual 252).","safe_until_hour":"11:00"}},{"type":"Feature","geometry":{"type":"Polygon","coordinates":[[[-81.47582799981728,28.539102999945737],[-81.47581799977152,28.538718000186506],[-81.4758160001217,28.53859300032083],[-81.47581199992374,28.538060000239412],[-81.47579900040328,28.537566000008283],[-81.47579699985512,28.53747299979993],[-81.47580299970292,28.537182000043416],[-81.47570399996872,28.53718000027012],[-81.47561500028026,28.537181000156767],[-81.47505200004056,28.53718800015224],[-81.47486500044282,28.537190999811983],[-81.4746820001447,28.537190999811983],[-81.47413300014871,28.537194000260783],[-81.4739509996755,28.537195000147292],[-81.47392499973625,28.537195000147292],[-81.47376999992555,28.537195000147292],[-81.47322699977731,28.537196000033802],[-81.47304699985227,28.53719699992031],[-81.47286399955416,28.537197999806846],[-81.4723170001063,28.53720200014189],[-81.47213499963311,28.537203999914766],[-81.47213200015838,28.536598999805367],[-81.47212399976246,28.53479900016058],[-81.47212299993755,28.534783999942256],[-81.47211200006689,28.534180000058416],[-81.47211100024198,28.534143000035318],[-81.47214999970174,28.53411699986199],[-81.4722669998776,28.534074000320125],[-81.4723930002743,28.534029000138414],[-81.47246000022145,28.533956999807682],[-81.4721129998918,28.53395799972493],[-81.4706419996309,28.533972000143734],[-81.47018600041964,28.53397399997791],[-81.46700000039868,28.533999000269677],[-81.464966999723,28.534018000266457],[-81.46496800044623,28.53486000013193],[-81.46497799959366,28.536594000344415],[-81.46498500016467,28.536988999647704],[-81.46498500016467,28.537158000393703],[-81.4649879996394,28.53752199962298],[-81.46499400038549,28.537787999842767],[-81.4649879996394,28.537924000128864],[-81.46621500040114,28.53804800012068],[-81.46760999959575,28.53820399997943],[-81.4680849999719,28.538256999757433],[-81.46809699966745,28.538082999805525],[-81.46807999994903,28.53635300000015],[-81.46805599965958,28.534829999710578],[-81.4680509996367,28.53424300021722],[-81.46805400000976,28.534139000373344],[-81.46806700042855,28.534107999830862],[-81.46809099981968,28.534081999648908],[-81.46810199969033,28.534075000236303],[-81.4681429996982,28.534061999747426],[-81.46907800038191,28.534050999878918],[-81.46997299998431,28.53403399972113],[-81.47001200034236,28.534040000009263],[-81.47006900024378,28.534059999914916],[-81.47010500022878,28.53409400021938],[-81.47012100012233,28.534123000145414],[-81.47013100016807,28.53416700037175],[-81.47014600023667,28.535528000146606],[-81.47017399982575,28.537313000106526],[-81.47015600028242,28.53768600010485],[-81.4701610003053,28.538294999790356],[-81.47015799993224,28.538483000000713],[-81.47119499982486,28.53860199996888],[-81.47212100028773,28.538703999609183],[-81.47263900032159,28.538761000200683],[-81.47393300013216,28.53889500027924],[-81.47405399960766,28.538910999782477],[-81.47490100042782,28.539000000033173],[-81.47530399993562,28.539042999932317],[-81.47534800031654,28.53905099967298],[-81.47551800019586,28.539066999941763],[-81.47582799981728,28.539102999945737]]]},"properties":{"block_id":"120950147022002","school_id":"sch_sunshine_high_school_greater_orlando_campus","kids_est":21,"class":"green","shortest":{"len_m":634.1,"mean_c":38.3,"peak_c":38.3,"dose":46.8},"coolest":{"len_m":634.1,"mean_c":38.3,"peak_c":38.3,"dose":46.8},"delta_mean_c":0.0,"delta_dose_pct":0,"distance_mi":0.226,"status_now":"walk","status_rec":"walk","reason":"Shortest route already under threshold (dose 47).","safe_until_hour":null}},{"type":"Feature","geometry":{"type":"Polygon","coordinates":[[[-81.48220599970698,28.539237000378414],[-81.48221900012577,28.53920300015517],[-81.48205799956897,28.53918299964741],[-81.4820319996297,28.539180999912038],[-81.48175499962026,28.539168999920996],[-81.48146900028831,28.539143000198695],[-81.48144699964868,28.539140999673453],[-81.48128400034038,28.539115999812598],[-81.48083699955332,28.539068999679234],[-81.4800740001954,28.538988999891],[-81.47998600033185,28.538976999878077],[-81.47990199976795,28.53894900036869],[-81.47982599959995,28.538909000042015],[-81.47978399976716,28.538870000359953],[-81.47975000033028,28.538824999859003],[-81.47971500017019,28.53875099990531],[-81.47970299957632,28.53869900024806],[-81.47970299957632,28.538632000105434],[-81.47970400029952,28.538184000071155],[-81.4797019997514,28.538090999619136],[-81.4797019997514,28.53806399975255],[-81.47970799959917,28.53795399966929],[-81.47973199988863,28.537815999660708],[-81.47973400043676,28.53780699994552],[-81.4797589996528,28.537727999869652],[-81.47978499959208,28.53766600009824],[-81.47982300012524,28.5375990000879],[-81.47984499986653,28.537570000329357],[-81.47989400027033,28.537506999792306],[-81.48015700003606,28.537127999837445],[-81.48026099979315,28.536979999861874],[-81.48018499962515,28.536935000132015],[-81.48011500020327,28.536878000130926],[-81.4801019997845,28.536863000208562],[-81.48005599975372,28.536810999619494],[-81.48000899989806,28.536736999829614],[-81.47998299995878,28.536648000034816],[-81.47997200008815,28.536555999698],[-81.47998200013389,28.53643300021153],[-81.4800320003626,28.53631500005603],[-81.48011100000531,28.536133999988625],[-81.47997399973796,28.53609500006857],[-81.47994299977582,28.536083999623095],[-81.47944800020649,28.535912999724644],[-81.47928300035007,28.53585699985905],[-81.47908499998334,28.5357910001766],[-81.47883800011114,28.535707999775905],[-81.47872699978305,28.53565600019515],[-81.47862300002598,28.535593999993768],[-81.47856299975152,28.535538999860922],[-81.47853799963717,28.535511000227082],[-81.47848300028389,28.535449999843404],[-81.4784139997886,28.535345999612456],[-81.47833199977283,28.535185999845847],[-81.47808700044878,28.53470799969783],[-81.47800600025792,28.53454899966331],[-81.47772900024849,28.53465800023399],[-81.47764700023272,28.534704000057257],[-81.47757199988965,28.534757000017454],[-81.47749800026982,28.53482600007462],[-81.47748400002608,28.53484000037805],[-81.47743899982025,28.534930000029664],[-81.47741000040627,28.535024000022073],[-81.47739699998746,28.5351220003447],[-81.47737000022329,28.535489999904886],[-81.47731400014679,28.536126000026492],[-81.47728900003243,28.536211999785493],[-81.4772580000703,28.536272999727974],[-81.47719899962074,28.536330999951122],[-81.47715000011526,28.536361999839546],[-81.4770970004118,28.536383999882098],[-81.47703899978717,28.536397999978586],[-81.47702500044178,28.536398999872667],[-81.47701000037317,28.536400999660774],[-81.47644100028569,28.536406999814126],[-81.47631099969102,28.536406999814126],[-81.47601500031335,28.536409000391277],[-81.47592200042692,28.536412000073156],[-81.47579299965717,28.536418000225886],[-81.47579600003023,28.536569999771576],[-81.4758010000531,28.536757000012575],[-81.475801999878,28.53702899991414],[-81.47580299970292,28.537182000043416],[-81.47579699985512,28.53747299979993],[-81.47579900040328,28.537566000008283],[-81.47581199992374,28.538060000239412],[-81.4758160001217,28.53859300032083],[-81.47581799977152,28.538718000186506],[-81.47582799981728,28.539102999945737],[-81.47625200013981,28.539148000327934],[-81.47730699957579,28.539262000210567],[-81.47752300038415,28.539292000159186],[-81.4777169996546,28.53932000036659],[-81.47794500015856,28.539358000016094],[-81.47797600012069,28.539364000001],[-81.47826300017587,28.53938999966875],[-81.47883999976095,28.539445000158825],[-81.47921899987763,28.53948600014676],[-81.47953799971987,28.539522000007555],[-81.48003499983733,28.539576999639603],[-81.48067000004706,28.539648000212527],[-81.48102800024733,28.539697999675894],[-81.48152600018972,28.53975600038105],[-81.48202400013207,28.539814000265114],[-81.48203699965256,28.539684000017967],[-81.48204500004847,28.539610999742088],[-81.48207299963758,28.53950099969569],[-81.4821160001936,28.53939499978627],[-81.4821589998513,28.539317999844705],[-81.48220599970698,28.539237000378414]],[[-81.47881899984455,28.53864500003046],[-81.47881899984455,28.538677999772126],[-81.47880600032408,28.538714999781114],[-81.47876699996603,28.53876299994397],[-81.47873099998101,28.538786000145848],[-81.47866800023182,28.538801999665637],[-81.47860200010959,28.538801999665637],[-81.47801299993061,28.538730000228934],[-81.47679399956479,28.53859699981379],[-81.47673900021151,28.53858599962954],[-81.47666200021862,28.538556000268994],[-81.47659400044657,28.53851200029714],[-81.47654900024072,28.53845500036004],[-81.47651999992841,28.53838999981268],[-81.47650900005775,28.53834400002024],[-81.47650200038505,28.538130000378732],[-81.4765120004308,28.538087999985066],[-81.47653699964685,28.53804999987749],[-81.47655300043867,28.538034000243446],[-81.47659400044657,28.538009999998675],[-81.47664100030222,28.537997999874257],[-81.47705100038105,28.537992999690438],[-81.47777199990618,28.537985999748386],[-81.47796500025002,28.537959999734213],[-81.47817299976418,28.537945999845284],[-81.47836299973497,28.53795399966929],[-81.47841600033674,28.53796499991953],[-81.47846599966714,28.537982000232297],[-81.47853400033752,28.538021000243074],[-81.47870400021684,28.538130000378732],[-81.47874199985166,28.538171000089246],[-81.47877100016399,28.538216999957218],[-81.47879000043056,28.538267999976046],[-81.47879700010326,28.53832099972191],[-81.47879000043056,28.538447999659567],[-81.47879999957799,28.53854599995422],[-81.47881899984455,28.53864500003046]]]},"properties":{"block_id":"120950148071000","school_id":"sch_sunshine_high_school_greater_orlando_campus","kids_est":9,"class":"green","shortest":{"len_m":316.5,"mean_c":38.3,"peak_c":38.3,"dose":23.4},"coolest":{"len_m":316.5,"mean_c":38.3,"peak_c":38.3,"dose":23.4},"delta_mean_c":0.0,"delta_dose_pct":0,"distance_mi":0.276,"status_now":"walk","status_rec":"walk","reason":"Shortest route already under threshold (dose 23).","safe_until_hour":null}},{"type":"Feature","geometry":{"type":"Polygon","coordinates":[[[-81.46769900018252,28.531466999666428],[-81.46769900018252,28.53134700037967],[-81.46768499993883,28.531202999950196],[-81.46767599971798,28.53111100038399],[-81.46766700039547,28.531021999783597],[-81.46764099955789,28.53075699979424],[-81.46763300006027,28.53066899963251],[-81.46761799999167,28.53047000023359],[-81.46760399974795,28.53027800012414],[-81.46759500042545,28.530029999859735],[-81.46759200005239,28.529873999738143],[-81.46758899967935,28.529674999627307],[-81.46758600020462,28.529510000134884],[-81.46757699998378,28.529015000107773],[-81.46757500033395,28.528851000337117],[-81.46757199996091,28.528655999743467],[-81.46756399956499,28.528073999663395],[-81.46756199991515,28.527879999974843],[-81.46712300042235,28.52788899974864],[-81.4669800003072,28.52789199967303],[-81.46647300014399,28.527898000310884],[-81.46580600014723,28.52789199967303],[-81.46568300012358,28.52789199967303],[-81.46536699975609,28.527896000361345],[-81.4653040000069,28.527897000336093],[-81.46512599973164,28.5279139999054],[-81.4650930001197,28.527916999829078],[-81.46491200036974,28.527934000184374],[-81.46476099985867,28.52793700010753],[-81.46451099961342,28.5279419999792],[-81.46359599991953,28.527932000235573],[-81.46310200017511,28.52793800008189],[-81.4629389999685,28.52793800008189],[-81.46233200024618,28.52794100000489],[-81.46171899977777,28.52794799982494],[-81.46094100035123,28.52795800035631],[-81.46095600041984,28.528203000055953],[-81.46092200008464,28.528265999841565],[-81.46037700028661,28.528265999841565],[-81.46039599965488,28.52866900010993],[-81.46037700028661,28.5287090003776],[-81.46013799991202,28.528714000212712],[-81.4598120003971,28.52872899971653],[-81.45978300008477,28.528864999855827],[-81.4597780000619,28.529206000188044],[-81.45974399972671,28.529308000242008],[-81.45962699955084,28.529308000242008],[-81.45941900003672,28.52931799985509],[-81.45941900003672,28.529461999703106],[-81.45942800025753,28.52964400013938],[-81.45943599975513,28.53040800013781],[-81.45940300014318,28.53156899989988],[-81.45938600042474,28.532060000028874],[-81.4595959995887,28.532058000158393],[-81.46066799964144,28.53204999988674],[-81.46078800019035,28.53204999988674],[-81.46102599984172,28.532048999951403],[-81.46105799962876,28.532048999951403],[-81.46115600043639,28.532048999951403],[-81.46118900004835,28.532048999951403],[-81.46134999970681,28.532048000016054],[-81.46183500012872,28.532046000145332],[-81.46199699961211,28.532046000145332],[-81.4623129999796,28.532044000274517],[-81.4632620000087,28.53204199961448],[-81.46334400002445,28.53204199961448],[-81.46349499963719,28.53205399962805],[-81.46357699965297,28.532065999640196],[-81.46361400036119,28.532072000040397],[-81.46363100007963,28.532074999845737],[-81.46374099968449,28.53210099973364],[-81.4637909999132,28.532112999740495],[-81.46393300020341,28.532158999885468],[-81.46409100038717,28.532228000065327],[-81.46410800010561,28.532237000257037],[-81.46422500028147,28.53229700020001],[-81.46429200022862,28.53233200021679],[-81.4647070003303,28.532593999612107],[-81.46482699998091,28.532667999943826],[-81.46486700016389,28.53269299975621],[-81.46504999956367,28.532796000309702],[-81.4651779996102,28.532853000151306],[-81.46531099967959,28.53290099982787],[-81.46544799994693,28.53293900021396],[-81.46558799968902,28.532966999741987],[-81.46579299972845,28.532991000346275],[-81.46590099968347,28.53299500005181],[-81.46606300006518,28.532991000346275],[-81.4661979997844,28.532977999723713],[-81.46633000002888,28.532955999759185],[-81.46647800016687,28.532916000314184],[-81.46662200010691,28.532866000000066],[-81.46676100002408,28.532804999663654],[-81.46684499968968,28.532758999800656],[-81.46691400018496,28.532722000067853],[-81.46701899976695,28.532654000141044],[-81.46710099978272,28.532591999751677],[-81.4671779997756,28.532526000391865],[-81.46725099957055,28.53245599968642],[-81.4673190002409,28.53238199999505],[-81.4673819999901,28.532306000385816],[-81.46744100043966,28.532225000264354],[-81.46747300022672,28.53217399968823],[-81.4674940001431,28.53214200021169],[-81.46754199982368,28.532056000287845],[-81.46758399965647,28.531967999632407],[-81.46763899990806,28.531821000238992],[-81.46765899999954,28.531733000176484],[-81.46768099974086,28.531645000040555],[-81.46768999996168,28.53157600026815],[-81.46769699963437,28.53148300029763],[-81.46769900018252,28.531466999666428]]]},"properties":{"block_id":"120950147022012","school_id":"sch_sunshine_high_school_greater_orlando_campus","kids_est":85,"class":"red","shortest":{"len_m":3676.5,"mean_c":38.37,"peak_c":38.4,"dose":273.4},"coolest":{"len_m":3677.2,"mean_c":38.37,"peak_c":38.4,"dose":273.3},"delta_mean_c":0.0,"delta_dose_pct":0,"distance_mi":0.806,"status_now":"walk","status_rec":"bus_eligible","reason":"Coolest route mean 38.4C exceeds threshold (110 C-min dose, actual 273).","safe_until_hour":"11:00"}},{"type":"Feature","geometry":{"type":"Polygon","coordinates":[[[-81.47015600028242,28.53768600010485],[-81.47017399982575,28.537313000106526],[-81.47014600023667,28.535528000146606],[-81.47013100016807,28.53416700037175],[-81.47012100012233,28.534123000145414],[-81.47010500022878,28.53409400021938],[-81.47006900024378,28.534059999914916],[-81.47001200034236,28.534040000009263],[-81.46997299998431,28.53403399972113],[-81.46907800038191,28.534050999878918],[-81.46910299959795,28.536333999635204],[-81.46913199991027,28.538113000089858],[-81.46912400041266,28.538369999939707],[-81.46914699997888,28.53837300035492],[-81.47015799993224,28.538483000000713],[-81.4701610003053,28.538294999790356],[-81.47015600028242,28.53768600010485]]]},"properties":{"block_id":"120950147022004","school_id":"sch_sunshine_high_school_greater_orlando_campus","kids_est":3,"class":"green","shortest":{"len_m":582.6,"mean_c":38.3,"peak_c":38.3,"dose":42.9},"coolest":{"len_m":582.6,"mean_c":38.3,"peak_c":38.3,"dose":42.9},"delta_mean_c":0.0,"delta_dose_pct":0,"distance_mi":0.277,"status_now":"walk","status_rec":"walk","reason":"Shortest route already under threshold (dose 43).","safe_until_hour":null}},{"type":"Feature","geometry":{"type":"Polygon","coordinates":[[[-81.46912400041266,28.538369999939707],[-81.46913199991027,28.538113000089858],[-81.46910299959795,28.536333999635204],[-81.46907800038191,28.534050999878918],[-81.4681429996982,28.534061999747426],[-81.46810199969033,28.534075000236303],[-81.46809099981968,28.534081999648908],[-81.46806700042855,28.534107999830862],[-81.46805400000976,28.534139000373344],[-81.4680509996367,28.53424300021722],[-81.46805599965958,28.534829999710578],[-81.46807999994903,28.53635300000015],[-81.46809699966745,28.538082999805525],[-81.4680849999719,28.538256999757433],[-81.46812500015487,28.538261000052337],[-81.46912400041266,28.538369999939707]]]},"properties":{"block_id":"120950147022003","school_id":"sch_sunshine_high_school_greater_orlando_campus","kids_est":1,"class":"green","shortest":{"len_m":686.7,"mean_c":38.3,"peak_c":38.3,"dose":50.5},"coolest":{"len_m":686.7,"mean_c":38.3,"peak_c":38.3,"dose":50.5},"delta_mean_c":0.0,"delta_dose_pct":0,"distance_mi":0.336,"status_now":"walk","status_rec":"walk","reason":"Shortest route already under threshold (dose 50).","safe_until_hour":null}},{"type":"Feature","geometry":{"type":"Polygon","coordinates":[[[-81.47880200012612,28.531795000282006],[-81.47880299995104,28.531735999991525],[-81.47879200008038,28.531677999606885],[-81.47877100016399,28.53162199985837],[-81.4787229995851,28.531601000339595],[-81.4784980003525,28.531450999822084],[-81.47830599983358,28.53132200024797],[-81.47783899985333,28.531051999710588],[-81.47766300012624,28.53096800036695],[-81.47763299998901,28.530954000338298],[-81.47746599958444,28.530887000006288],[-81.47742299992673,28.530880000381423],[-81.47735799962939,28.530880000381423],[-81.4772949998802,28.53089500036623],[-81.47716000016099,28.530958000121206],[-81.47693000000721,28.5310669996709],[-81.47658500022573,28.53123800033031],[-81.47639400043002,28.531332999612108],[-81.47629300014768,28.531382999864334],[-81.47627200023129,28.53139400001138],[-81.47599699987168,28.53154900031065],[-81.47590900000813,28.53157800014787],[-81.47578099996161,28.53162199985837],[-81.47577799958856,28.531718000310963],[-81.47577199974077,28.532008000226412],[-81.47577000009095,28.532105000262238],[-81.47589499976444,28.532098999863923],[-81.47595800041194,28.532096000059283],[-81.47611900007041,28.532081000245416],[-81.47626999968315,28.532081000245416],[-81.47628099955381,28.532081000245416],[-81.47639500025493,28.532089999660446],[-81.47645700017922,28.532095000124368],[-81.47647200024782,28.532096999994177],[-81.47655099989055,28.532111999805757],[-81.47664200012714,28.53213699975003],[-81.4766959996555,28.532158999885468],[-81.47676799962554,28.53218900027809],[-81.47681299983137,28.532212000336465],[-81.47700799982502,28.532356000176403],[-81.47712199962785,28.532439999992175],[-81.47733400023827,28.532586000170365],[-81.4774210002769,28.5326129998622],[-81.47751099979027,28.532631000179066],[-81.4776029998518,28.532637999687637],[-81.47774099994405,28.53262900031941],[-81.47781000043933,28.532614999722163],[-81.47789499992983,28.53259800012193],[-81.47800100023504,28.53256599998491],[-81.47809099974842,28.53253000011512],[-81.47820000042668,28.532474999961472],[-81.47830300035884,28.532406999875292],[-81.47836199991008,28.532369000086533],[-81.47845999981935,28.53228800001343],[-81.47854600003309,28.53219699974995],[-81.47876699996603,28.53190800029128],[-81.4787860002326,28.53186000016248],[-81.47880200012612,28.531795000282006]]]},"properties":{"block_id":"120950148071005","school_id":"sch_sunshine_high_school_greater_orlando_campus","kids_est":3,"class":"green","shortest":{"len_m":927.1,"mean_c":38.3,"peak_c":38.3,"dose":68.2},"coolest":{"len_m":927.1,"mean_c":38.3,"peak_c":38.3,"dose":68.2},"delta_mean_c":0.0,"delta_dose_pct":0,"distance_mi":0.477,"status_now":"walk","status_rec":"walk","reason":"Shortest route already under threshold (dose 68).","safe_until_hour":null}},{"type":"Feature","geometry":{"type":"Polygon","coordinates":[[[-81.4948739996228,28.52241700024533],[-81.49487299979788,28.522383000120367],[-81.49487199997299,28.521570000250343],[-81.49486799977502,28.521225000321454],[-81.49486799977502,28.521204000309922],[-81.49486399957706,28.520838999929982],[-81.49486000027741,28.520464000202217],[-81.49484799968353,28.51934000017632],[-81.4948450002088,28.518965999912627],[-81.49415300009767,28.518960999615185],[-81.49364699975938,28.518951999868563],[-81.49348199990293,28.518938999882355],[-81.49342599982643,28.518934999643392],[-81.49320700044163,28.518908999665182],[-81.49293799992982,28.51885699968953],[-81.49267400033915,28.518790000350936],[-81.49219800013809,28.518644000007303],[-81.49183699956475,28.51855800012112],[-81.49150500020205,28.518516999884554],[-81.49116100024548,28.518499000314684],[-81.49096200005383,28.51850599997237],[-81.49066400012799,28.518528999859196],[-81.49037700007283,28.51858099999661],[-81.4901710002085,28.518632000045766],[-81.48992900035918,28.518712000289803],[-81.48961600036472,28.518801000233502],[-81.48948300029534,28.51883499993493],[-81.48940999960209,28.518854000297296],[-81.48918899966914,28.518896999733773],[-81.4887700002678,28.51896699997208],[-81.48871300036639,28.518978999895516],[-81.48859500036563,28.51899099981759],[-81.48813400023316,28.519001999679112],[-81.48808300017956,28.519002999738223],[-81.48803200012593,28.519001999679112],[-81.48772699962909,28.5190000003502],[-81.48762600024504,28.5190000003502],[-81.48754699970404,28.5190000003502],[-81.48737799964964,28.518981000014158],[-81.48701100012683,28.518917000144878],[-81.48689200030113,28.518896999733773],[-81.48665100027671,28.5188390001777],[-81.48633800028226,28.518749000204583],[-81.48607700016636,28.518658000092266],[-81.4857859999132,28.518542999959426],[-81.4853979995757,28.518368999821984],[-81.4852639996814,28.51829499971278],[-81.48516300029738,28.518240000024676],[-81.48483199986127,28.518036999779287],[-81.48474099962466,28.517964000295382],[-81.4845599998747,28.517819999738062],[-81.48452200023988,28.51778899992124],[-81.48439599984317,28.51767599977338],[-81.48420699969729,28.51749500005958],[-81.48405000023676,28.517352999800654],[-81.48400300038111,28.517309999734533],[-81.48396099965,28.51727699961686],[-81.48388200000728,28.51719599978647],[-81.48386600011376,28.517180000143927],[-81.48382000008299,28.517131999623082],[-81.48380500001439,28.51711599997088],[-81.48364099998285,28.51725200009481],[-81.48359099975416,28.51728999980796],[-81.48343500011853,28.51741200024829],[-81.48305000015407,28.517673999629995],[-81.4829120000618,28.517762000378866],[-81.4826810000831,28.51791099978425],[-81.4826300000295,28.517942999634368],[-81.48250700000584,28.518004999957693],[-81.48215300000352,28.51818799971911],[-81.48181300024488,28.51834000029735],[-81.48179399997831,28.518349000096276],[-81.48159300013685,28.51842600036135],[-81.4813289996479,28.51852799979559],[-81.48079300007069,28.518699000274],[-81.48053799980258,28.518762000214213],[-81.48045599978681,28.51878299992278],[-81.48004400005816,28.518877000108223],[-81.4797300002388,28.518932000253372],[-81.47936700001564,28.518983000132764],[-81.47917500039502,28.518998000231914],[-81.4791119997475,28.519003999797373],[-81.47899999959452,28.51900499985646],[-81.4788499998067,28.519006999974604],[-81.4780330000221,28.519026000305967],[-81.47744200019329,28.519026000305967],[-81.47731699962152,28.51902700036485],[-81.47645299998126,28.519039000281452],[-81.47608899993318,28.519038000222682],[-81.47567100035675,28.519060999993417],[-81.47563299982362,28.519064000169084],[-81.4753440001186,28.51909400034211],[-81.47508499965252,28.51913400029652],[-81.47505799988835,28.519137999738565],[-81.47477400020621,28.519195999919503],[-81.47472099960444,28.51920899987402],[-81.47449499964863,28.519267000015898],[-81.47427000041606,28.519339000120418],[-81.47401099994998,28.519438000085174],[-81.47375700040507,28.51954599965372],[-81.4736760002142,28.519584000118765],[-81.47355999986326,28.519638999895147],[-81.47334700032623,28.519753999621962],[-81.4733220002119,28.51976800034886],[-81.47325000024186,28.51981300030479],[-81.47322699977731,28.51982800028582],[-81.47319699964011,28.519845000366978],[-81.47315700035544,28.519871000114428],[-81.4731120001496,28.519901000057846],[-81.4730839996622,28.519921000278515],[-81.47298900012596,28.519985000327697],[-81.47274700027661,28.520166999761898],[-81.47248399961256,28.520391000030674],[-81.47247500029006,28.52039899960867],[-81.47230799988547,28.520559999767038],[-81.47214300002904,28.520737000363365],[-81.47198800021835,28.520922000200873],[-81.4718440002783,28.521112999948546],[-81.4717120000338,28.521310999610915],[-81.47159200038323,28.521514999902628],[-81.47148400042818,28.52172399996629],[-81.47138899999362,28.521937999772053],[-81.47130699997784,28.522155000020486],[-81.47124699970341,28.52233699965529],[-81.47123099980988,28.522387000228523],[-81.47134600033591,28.522412000111615],[-81.47148799972783,28.522443000147803],[-81.4715060001695,28.522445000200722],[-81.47159599968286,28.522454999675627],[-81.47170500036113,28.522452999622885],[-81.47179200039974,28.522439000041825],[-81.47191500042341,28.522412000111615],[-81.47199400006612,28.522406999977605],[-81.47203900027196,28.5224080000044],[-81.47215800009765,28.5224210003522],[-81.47214700022698,28.52251999979092],[-81.47212399976246,28.522619999950827],[-81.47207600008188,28.522741999749027],[-81.47205400034058,28.522779999851476],[-81.47203300042418,28.52281899996313],[-81.47198099964733,28.522892000032076],[-81.47189199995887,28.522993999881646],[-81.47184699975303,28.523069999891106],[-81.47181900016392,28.523151999964444],[-81.4718099999431,28.523255000370526],[-81.47181599979089,28.523334000245942],[-81.47225600000694,28.523331000191824],[-81.47231899975613,28.52333000017378],[-81.47269700004792,28.52332800013764],[-81.47269600022298,28.523404999923663],[-81.47269399967485,28.523637999763917],[-81.47269399967485,28.523716000127227],[-81.47269299984995,28.52377900022675],[-81.47273700023088,28.524092000137962],[-81.4727520002995,28.524227999945925],[-81.47277499986572,28.52442600007234],[-81.47277900006368,28.52450099983173],[-81.47277700041384,28.524530000029596],[-81.47276300017015,28.524568000276762],[-81.47272100033736,28.52464399994079],[-81.47269500039808,28.524706000270005],[-81.47265500021511,28.524873000186062],[-81.4726059998113,28.525045999848462],[-81.47255200028295,28.525176000001057],[-81.47246600006922,28.525334999969715],[-81.47238700042652,28.52545199979348],[-81.4723010002128,28.52556000030478],[-81.47223099989259,28.525632000058025],[-81.47221300034924,28.525651999980767],[-81.47211600026485,28.525736999610046],[-81.47204799959448,28.525790000133455],[-81.47181599979089,28.525937000045886],[-81.47191100022545,28.52606299992041],[-81.47207199988392,28.52625699979605],[-81.47215200024986,28.526343999705713],[-81.47224299958813,28.526444000184462],[-81.47242400023643,28.52662400033362],[-81.47261400020723,28.526795000309],[-81.47281199967563,28.526960000105362],[-81.47301099986726,28.52712299967928],[-81.47333300008255,28.52739999987805],[-81.47351899985537,28.527559999627062],[-81.4737249997197,28.52775599985671],[-81.47374200033646,28.527772000262054],[-81.47388399972836,28.527929000312326],[-81.47415099969206,28.52815599979047],[-81.47425699999727,28.52824700038627],[-81.47448299995308,28.528452999822864],[-81.47471200028194,28.52867699984898],[-81.4749080001005,28.528921000280043],[-81.47503600014703,28.529102000108793],[-81.4752660003008,28.529482999648074],[-81.47527200014858,28.529495999912545],[-81.47551999984569,28.530027999950715],[-81.47549700027947,28.529686999910325],[-81.47543799982994,28.5287789996257],[-81.4754350003552,28.528664000272755],[-81.47543299980707,28.528531999749006],[-81.47542799978419,28.528457999670053],[-81.4757099998165,28.528509999645628],[-81.47589700031256,28.528509999645628],[-81.4772310003061,28.527901000235005],[-81.47775000016489,28.527664999626257],[-81.4779629997019,28.527668000346345],[-81.47796600007496,28.527584999861862],[-81.47796799972478,28.527564000327985],[-81.4779419997855,28.527545999934976],[-81.47794799963327,28.527419000275337],[-81.47803499967193,28.527275999984504],[-81.47814699982492,28.527133000288927],[-81.4782160003202,28.527016999946305],[-81.47824100043456,28.526858000146966],[-81.47817199993926,28.526808000115803],[-81.47817299976418,28.52644700015005],[-81.47817799978706,28.525685999840714],[-81.4782089997492,28.525168999996907],[-81.47827099967347,28.5249599996594],[-81.4784139997886,28.52461799979191],[-81.47856500029965,28.52414899995116],[-81.47866900005674,28.523826000075985],[-81.4786819995772,28.52364999994495],[-81.47865700036115,28.523512000147985],[-81.47826999984856,28.523060999705862],[-81.47817699996214,28.52297300022248],[-81.47817799978706,28.522835000328545],[-81.47818299980992,28.522214000149024],[-81.47829499996293,28.522152999962046],[-81.47837600015377,28.52218099998755],[-81.47854400038325,28.522306999615655],[-81.47861899982802,28.5224339999091],[-81.47871900028545,28.5224339999091],[-81.47880600032408,28.5224339999091],[-81.4789619999597,28.522384000147394],[-81.47898100022626,28.522284999791683],[-81.47898600024914,28.522262999963104],[-81.47896500033275,28.522200999775716],[-81.47887999994393,28.521950000146656],[-81.47887400009616,28.521707000188034],[-81.4791169997704,28.52162999995115],[-81.47929099984766,28.521607999985896],[-81.47966599976638,28.521411000128253],[-81.47979600036103,28.52134400004471],[-81.48017600030263,28.520997000085167],[-81.4803999997103,28.52070000035695],[-81.4806240000163,28.520573000342708],[-81.48076700013145,28.520539999667587],[-81.48102300022448,28.520463000156973],[-81.4812719997465,28.520369999853038],[-81.4815959996116,28.520397000306197],[-81.48169000022125,28.52043000023675],[-81.4819260002228,28.520473999865004],[-81.48219400001139,28.52048999979699],[-81.4824180003174,28.520451999658537],[-81.48236899991359,28.520247999677945],[-81.48249899960993,28.520038999845635],[-81.48266699983941,28.519901000057846],[-81.48283599989381,28.519890000290044],[-81.48294700022191,28.51990500026017],[-81.48303500008545,28.519918000127287],[-81.48313499964456,28.520913999873308],[-81.48324500014775,28.521097000111034],[-81.48341000000417,28.521095000032528],[-81.48388799985506,28.52108599967874],[-81.48397200041896,28.521084999639335],[-81.4855740002011,28.52107299995565],[-81.48747599955892,28.5210590001913],[-81.4877569997663,28.52105600007245],[-81.4880520002174,28.52105600007245],[-81.48814900030179,28.52105399999317],[-81.48815699979939,28.520848000304838],[-81.48816199982227,28.520736000320706],[-81.48815699979939,28.520450000357055],[-81.48814500010383,28.51959199975793],[-81.48813900025606,28.519224999998038],[-81.49217800004662,28.519192999747627],[-81.49221700040468,28.52280399961827],[-81.49221700040468,28.522849999879625],[-81.4922540002146,28.522849999879625],[-81.49237100039046,28.522849999879625],[-81.49253799989673,28.522852999947435],[-81.49287000015775,28.52284799983439],[-81.49298499978546,28.522846999811755],[-81.49361900017028,28.52284599978904],[-81.49436999983264,28.522837999607475],[-81.4948169997214,28.52283400030578],[-81.49487000032316,28.52283400030578],[-81.49487000032316,28.52282100000892],[-81.49487000032316,28.522781999898008],[-81.49487100014807,28.52276999961816],[-81.4948739996228,28.52241700024533]],[[-81.48591300013483,28.520277000256385],[-81.48571300011828,28.520576999730146],[-81.48566700008753,28.52061799995507],[-81.48561299966086,28.520646000388236],[-81.48554999991167,28.520664000380837],[-81.48548100031469,28.520667999764907],[-81.48416800023755,28.52067700015437],[-81.48388899967998,28.520679000240865],[-81.48383099995364,28.520666999721584],[-81.48377700042529,28.520642000214025],[-81.48373300004435,28.520607000262068],[-81.48371399977779,28.520586000127434],[-81.48368799983851,28.52053800036777],[-81.48367000029516,28.520463000156973],[-81.48363299958694,28.52024699963064],[-81.4835949999521,28.520015000238672],[-81.48359400012718,28.519938000344712],[-81.4836090001958,28.519881999884173],[-81.48363599995999,28.519829000337094],[-81.48403199979509,28.519348999889893],[-81.48414700032116,28.5192109999883],[-81.48426299977378,28.519085999875838],[-81.48437300027696,28.519164999717873],[-81.48470399981474,28.519402999733547],[-81.48481500014283,28.51948300018195],[-81.48503400042596,28.519641000001272],[-81.4856930000268,28.520117999762963],[-81.48591300013483,28.520277000256385]],[[-81.4776029998518,28.525428999838386],[-81.47759899965384,28.52561400012435],[-81.4775479996002,28.526034000144282],[-81.47754400030057,28.526108000346476],[-81.47752500003398,28.52620800025985],[-81.47749499989675,28.52627900036967],[-81.47745800008684,28.52633499980005],[-81.47745200023905,28.526345999684626],[-81.47742499957654,28.52637000021814],[-81.4773359998881,28.52643500028734],[-81.47723899980372,28.526488999658614],[-81.47713400022174,28.526531999927478],[-81.47701399967282,28.526588999999863],[-81.47706300007663,28.526644000068146],[-81.47707800014524,28.526661999825997],[-81.47720399964362,28.526816999981083],[-81.4772520002225,28.526874999883784],[-81.47730599975087,28.526940999625392],[-81.47733099986522,28.526993000349314],[-81.47734699975877,28.527049000189642],[-81.47735199978162,28.527105000000162],[-81.47734799958366,28.527161999762686],[-81.47733300041335,28.527217000321254],[-81.47730900012391,28.527270000100504],[-81.47727599961362,28.527317999952075],[-81.47723499960576,28.527361999862517],[-81.47718699992518,28.527398999898594],[-81.47713300039682,28.527430000046802],[-81.47688999982425,28.527540000066345],[-81.47676099995283,28.52759800036043],[-81.47638299966104,28.52777900009332],[-81.47617900034486,28.52787000022534],[-81.47578699980939,28.52804800036048],[-81.47574300032677,28.528064999905386],[-81.4756110000823,28.528117000074847],[-81.47556800042459,28.528135000370366],[-81.47548899988357,28.528166000302107],[-81.47544700005076,28.52817200013509],[-81.47536099983704,28.52817200013509],[-81.47531900000425,28.528165000329913],[-81.47530300011071,28.528159999679573],[-81.4752379998134,28.528140000232693],[-81.47516500001846,28.528098999776276],[-81.4751039999191,28.528045999624595],[-81.4750550004136,28.527977999837717],[-81.47480599999327,28.527663999649317],[-81.47477800040417,28.527608000135785],[-81.47476800035842,28.52757100017308],[-81.47476300033554,28.527547999891077],[-81.47474400006898,28.527301000286652],[-81.47465200000747,28.527307000168882],[-81.47438199967073,28.527325999793675],[-81.47429399980719,28.52736499980197],[-81.47423799973068,28.52725299963814],[-81.47418599985215,28.52716699967118],[-81.47413499979852,28.527080999634],[-81.4740629998285,28.526988999626727],[-81.47397900016293,28.5269060001861],[-81.47387899970549,28.526824999860686],[-81.47374599963611,28.52670300005212],[-81.4737249997197,28.52667799960813],[-81.4737039998033,28.52665199996089],[-81.47366699999338,28.526592999948367],[-81.47364100005412,28.526537999853485],[-81.47362400033568,28.526479999765332],[-81.47348000039564,28.52648799967052],[-81.47343900038774,28.52648599969429],[-81.47337800028838,28.526472999847794],[-81.47331100034123,28.52644000023031],[-81.47313800008888,28.52628800028013],[-81.47298400010307,28.526153999955348],[-81.47288799984362,28.52605899995174],[-81.47283699978999,28.52600200038207],[-81.47279300030736,28.525928000105466],[-81.47278699956127,28.525896000311032],[-81.47278900010942,28.52583699987537],[-81.4728090002009,28.525781000180494],[-81.47292800002658,28.52559500019098],[-81.47300800039254,28.525455999785137],[-81.47306500029394,28.525331999972504],[-81.47308500038542,28.525296999998968],[-81.47311999964721,28.525254000015654],[-81.47316200037831,28.525223000016727],[-81.47322000010465,28.525201000011982],[-81.47329100024974,28.52519200000873],[-81.47349399974102,28.52519000000792],[-81.47404699993498,28.525185000005674],[-81.4740629998285,28.52508499991106],[-81.47406899967629,28.524911000309594],[-81.47406799985137,28.524825000010395],[-81.47406600020155,28.52444800023882],[-81.47407700007221,28.524399999869637],[-81.47410100036166,28.524360000334564],[-81.47414300019445,28.524322000012415],[-81.47416599976067,28.524305999872688],[-81.47420000009586,28.52429199974841],[-81.47425500034743,28.52428299966755],[-81.47468600034266,28.52427999964039],[-81.47483500030557,28.524272000356937],[-81.47492200034422,28.52425700021888],[-81.47500600000978,28.5242309999745],[-81.47504100016991,28.524214999820956],[-81.47509899989622,28.52418700033566],[-81.475140999729,28.524168000145146],[-81.47521600007208,28.52411899963791],[-81.47526200010283,28.52408300004003],[-81.47531399998138,28.524043999606697],[-81.47549200025661,28.52390900036321],[-81.47556400022661,28.52387299990433],[-81.47564200004443,28.52385000039402],[-81.47572300023529,28.523838000235685],[-81.47580600007596,28.52383900024892],[-81.47588700026682,28.523852999644056],[-81.47613199959089,28.523944000008274],[-81.47614199963664,28.523948000057207],[-81.47634199965317,28.52402400016815],[-81.47637000014058,28.524035000293942],[-81.4765629995861,28.52409300014878],[-81.47659199989842,28.52410200024586],[-81.47677299964839,28.52414299988918],[-81.47691699958844,28.524160000063834],[-81.47724899984945,28.524207999753017],[-81.47728300018464,28.52421399981128],[-81.47734500010893,28.524237000031466],[-81.47740100018542,28.52427000033866],[-81.47745100041413,28.52431399994287],[-81.47750199956945,28.524387999773904],[-81.47751800036129,28.524452000268557],[-81.47753799955446,28.524582000364383],[-81.47753900027769,28.52471400030983],[-81.47754500012546,28.52480999995104],[-81.47756000019407,28.52502599981074],[-81.47759500035417,28.525316999985268],[-81.4776029998518,28.525428999838386]]]},"properties":{"block_id":"120950148072000","school_id":"sch_sunshine_high_school_greater_orlando_campus","kids_est":19,"class":"green","shortest":{"len_m":1423.5,"mean_c":38.3,"peak_c":38.3,"dose":104.8},"coolest":{"len_m":1423.5,"mean_c":38.3,"peak_c":38.3,"dose":104.8},"delta_mean_c":0.0,"delta_dose_pct":0,"distance_mi":1.098,"status_now":"walk","status_rec":"walk","reason":"Shortest route already under threshold (dose 105).","safe_until_hour":null}},{"type":"Feature","geometry":{"type":"Polygon","coordinates":[[[-81.47571999986224,28.530015999706517],[-81.47571499983937,28.529214999848573],[-81.4757099998165,28.528509999645628],[-81.47542799978419,28.528457999670053],[-81.47543299980707,28.528531999749006],[-81.4754350003552,28.528664000272755],[-81.47543799982994,28.5287789996257],[-81.47549700027947,28.529686999910325],[-81.47551999984569,28.530027999950715],[-81.47555900020376,28.530111000089818],[-81.47558599996793,28.530191000304683],[-81.47558599996793,28.530017999615765],[-81.47571999986224,28.530015999706517]]]},"properties":{"block_id":"120950148071015","school_id":"sch_sunshine_high_school_greater_orlando_campus","kids_est":0,"class":"green","shortest":{"len_m":1043.9,"mean_c":38.3,"peak_c":38.3,"dose":76.9},"coolest":{"len_m":1043.9,"mean_c":38.3,"peak_c":38.3,"dose":76.9},"delta_mean_c":0.0,"delta_dose_pct":0,"distance_mi":0.609,"status_now":"walk","status_rec":"walk","reason":"Shortest route already under threshold (dose 77).","safe_until_hour":null}},{"type":"Feature","geometry":{"type":"Polygon","coordinates":[[[-81.47734799958366,28.527161999762686],[-81.47735199978162,28.527105000000162],[-81.47734699975877,28.527049000189642],[-81.47733099986522,28.526993000349314],[-81.47730599975087,28.526940999625392],[-81.4772520002225,28.526874999883784],[-81.47720399964362,28.526816999981083],[-81.47707800014524,28.526661999825997],[-81.47706300007663,28.526644000068146],[-81.47701399967282,28.526588999999863],[-81.47693699967994,28.526623000346795],[-81.47670800024937,28.52672899968679],[-81.4766320000814,28.526763999974055],[-81.47653499999703,28.526807000130724],[-81.4764839999434,28.526830999770002],[-81.47624899976675,28.526940999625392],[-81.47615400023051,28.52698699966],[-81.47608499973522,28.527020999878562],[-81.47606299999391,28.527032999674557],[-81.47587700022108,28.52711299985796],[-81.475801999878,28.52714100014455],[-81.47573599975576,28.527164999707775],[-81.47559299964064,28.527219000283605],[-81.47553499991432,28.527230000075996],[-81.47546700014226,28.527244999791],[-81.47542500030946,28.52725299963814],[-81.47532300020221,28.5272660001777],[-81.47525399970691,28.527275000003876],[-81.47488800000903,28.527292999653906],[-81.47474400006898,28.527301000286652],[-81.47476300033554,28.527547999891077],[-81.47476800035842,28.52757100017308],[-81.47477800040417,28.527608000135785],[-81.47480599999327,28.527663999649317],[-81.4750550004136,28.527977999837717],[-81.4751039999191,28.528045999624595],[-81.47516500001846,28.528098999776276],[-81.4752379998134,28.528140000232693],[-81.47530300011071,28.528159999679573],[-81.47531900000425,28.528165000329913],[-81.47536099983704,28.52817200013509],[-81.47544700005076,28.52817200013509],[-81.47548899988357,28.528166000302107],[-81.47556800042459,28.528135000370366],[-81.4756110000823,28.528117000074847],[-81.47574300032677,28.528064999905386],[-81.47578699980939,28.52804800036048],[-81.47617900034486,28.52787000022534],[-81.47638299966104,28.52777900009332],[-81.47676099995283,28.52759800036043],[-81.47688999982425,28.527540000066345],[-81.47713300039682,28.527430000046802],[-81.47718699992518,28.527398999898594],[-81.47723499960576,28.527361999862517],[-81.47727599961362,28.527317999952075],[-81.47730900012391,28.527270000100504],[-81.47733300041335,28.527217000321254],[-81.47734799958366,28.527161999762686]]]},"properties":{"block_id":"120950148072007","school_id":"sch_sunshine_high_school_greater_orlando_campus","kids_est":0,"class":"green","shortest":{"len_m":1423.5,"mean_c":38.3,"peak_c":38.3,"dose":104.8},"coolest":{"len_m":1423.5,"mean_c":38.3,"peak_c":38.3,"dose":104.8},"delta_mean_c":0.0,"delta_dose_pct":0,"distance_mi":0.736,"status_now":"walk","status_rec":"walk","reason":"Shortest route already under threshold (dose 105).","safe_until_hour":null}},{"type":"Feature","geometry":{"type":"Polygon","coordinates":[[[-81.48587100030203,28.53300500010434],[-81.48586899975389,28.532872000354722],[-81.48585299986036,28.53274100029488],[-81.48582400044637,28.532611000002202],[-81.4857840002634,28.5324830002008],[-81.48572900001182,28.53235899997371],[-81.4856579998667,28.532241999924764],[-81.4856019997902,28.532168000083068],[-81.48552499979732,28.532088999725488],[-81.48546100022321,28.532000999886765],[-81.48541199981942,28.531905999628673],[-81.48536099976577,28.531774999946403],[-81.48535900011596,28.531718000310963],[-81.48507600025874,28.531730000361428],[-81.48499199969484,28.53172300000332],[-81.4849189998999,28.531718000310963],[-81.48476400008921,28.531692000328555],[-81.48455599967674,28.531641000283724],[-81.48442000013263,28.53162199985837],[-81.48428299986527,28.531618000100714],[-81.48418599978089,28.531625999615926],[-81.48400599985584,28.53165800003833],[-81.4839110003196,28.531681000212664],[-81.48382500010587,28.53171700037247],[-81.48376599965633,28.531752999730813],[-81.48371799997574,28.531795000282006],[-81.48366899957193,28.53186000016248],[-81.48364299963268,28.531914999847864],[-81.48351700013428,28.531974999974178],[-81.48313999966743,28.53215400021386],[-81.48301499999397,28.53221500013787],[-81.48311499955307,28.532281999625592],[-81.48332100031571,28.53237000001883],[-81.48353300002782,28.53230900018455],[-81.48395599962713,28.532276000026574],[-81.48411800000882,28.532287000080355],[-81.48429299991102,28.532342000332182],[-81.48448600025486,28.532418999847234],[-81.48474800019568,28.532566999915325],[-81.48486600019645,28.53265500007064],[-81.48499099986992,28.532770999732524],[-81.48515900009942,28.533079000147442],[-81.48524600013806,28.533138999611044],[-81.4853209995828,28.533210999711503],[-81.48537099981152,28.53328800017],[-81.4853769996593,28.53338200004877],[-81.48534599969716,28.533485999850527],[-81.48526500040462,28.53360699977907],[-81.48516599977211,28.53366799965124],[-81.48504699994643,28.5337059997608],[-81.48451200019414,28.533849000008573],[-81.48412499968151,28.534146999697203],[-81.48395700035034,28.53461999967859],[-81.48388299983219,28.534791000097027],[-81.48337200036933,28.53492299988413],[-81.48299200042774,28.534928000213583],[-81.48269199995377,28.534852000073005],[-81.4825870003718,28.534768999721862],[-81.48239300020303,28.534808000132703],[-81.48223099982133,28.53485699961668],[-81.48205099989627,28.5349339996616],[-81.48190100010844,28.53502200020782],[-81.48177700025987,28.535066000058777],[-81.4816580004342,28.535088000371932],[-81.48148400035691,28.535072000288107],[-81.48134100024178,28.53500600011397],[-81.48125900022602,28.534935000358768],[-81.48112199995867,28.53520999994472],[-81.48119700030175,28.535522999845565],[-81.4811169999358,28.535909000129806],[-81.48103599974493,28.53615600007886],[-81.48103599974493,28.53650299985347],[-81.48110400041533,28.536596000128817],[-81.481223000241,28.536694999669848],[-81.48137200020392,28.53666800023471],[-81.48155299995389,28.5365249998666],[-81.48160900003039,28.53649200023979],[-81.481764999666,28.536436999786485],[-81.48186400029853,28.536315999950887],[-81.48193299989549,28.535913999623315],[-81.48202599978192,28.535753999929987],[-81.48213200008712,28.53568800018304],[-81.4825870003718,28.53567100028934],[-81.4825870003718,28.535760000120195],[-81.4821449996076,28.53579299997626],[-81.48202599978192,28.53591899990573],[-81.48184000000906,28.536914999982844],[-81.481764999666,28.53704700026584],[-81.4816590002591,28.537107999724917],[-81.48126599989872,28.5368930000511],[-81.48098600041455,28.53672800002227],[-81.48077399980411,28.536624000263544],[-81.48068099991771,28.536518999720016],[-81.48074299984198,28.536331999845824],[-81.48091699991926,28.536095999965525],[-81.48101700037667,28.535980000017915],[-81.48102800024733,28.53565600019515],[-81.48103499992004,28.53546799967566],[-81.48100399995789,28.535110999797652],[-81.48099100043743,28.53465399980236],[-81.48072299975051,28.534373000074954],[-81.48065499997844,28.534318000093997],[-81.48046800038068,28.534180999973586],[-81.4803000001512,28.534070999782486],[-81.48024999992249,28.53402700030527],[-81.48021200028765,28.533976999729152],[-81.4801870001733,28.533916999953487],[-81.4801810003255,28.53384500033539],[-81.48022499980813,28.53372399989097],[-81.48033000028843,28.533592000180285],[-81.48045499996189,28.533460000304327],[-81.4805110000384,28.53334499974548],[-81.48051699988618,28.533239999880543],[-81.4804490001141,28.533141000250243],[-81.48034899965668,28.533037000107992],[-81.48025499994537,28.5329099999621],[-81.4801810003255,28.53277199966107],[-81.48014299979236,28.53260199984245],[-81.48012400042411,28.532441999855482],[-81.48012799972373,28.532280999692446],[-81.4801310000968,28.532145000015078],[-81.48003700038547,28.531782000301064],[-81.48002800016464,28.531727999695438],[-81.47999300000454,28.53150100001827],[-81.47996200004239,28.53143000026924],[-81.47986800033107,28.53134199988024],[-81.47955100013866,28.531148999837125],[-81.47953199987208,28.53111100038399],[-81.47955100013866,28.53105600027902],[-81.47953199987208,28.53100100014527],[-81.47948800038947,28.53097899976803],[-81.47913900041003,28.530880000381423],[-81.4790330001048,28.530841000095275],[-81.47885499982957,28.530736000103104],[-81.4787719999889,28.53068700028143],[-81.47864700031542,28.530583000085144],[-81.47852900031464,28.530456000138752],[-81.47846900004019,28.5303380003932],[-81.47845399997158,28.53030800026297],[-81.478434999705,28.530169999711593],[-81.47847200041322,28.530010999933182],[-81.47850300037538,28.52994499974625],[-81.47852799959142,28.529729999663783],[-81.47888699961662,28.52955899971453],[-81.47907599976251,28.529471000131014],[-81.47931900033508,28.529300999723027],[-81.47960600039025,28.529151999840945],[-81.47971799964493,28.529014000143633],[-81.4797429997593,28.528909999874923],[-81.4797429997593,28.52871700011362],[-81.47964900004794,28.528480999753473],[-81.47948099981846,28.52829399982192],[-81.47859000041402,28.528085000155748],[-81.47841600033674,28.528067999824817],[-81.47835299968924,28.52813399960862],[-81.47831300040458,28.528200000140416],[-81.47824100043456,28.528321999794827],[-81.47820399972632,28.52834399993743],[-81.47817899961197,28.52827199966886],[-81.47811599986277,28.52782599973765],[-81.47814099997713,28.527682999999026],[-81.47800299988488,28.527587999794903],[-81.47796799972478,28.527564000327985],[-81.47796600007496,28.527584999861862],[-81.4779629997019,28.527668000346345],[-81.47775000016489,28.527664999626257],[-81.4772310003061,28.527901000235005],[-81.47589700031256,28.528509999645628],[-81.4757099998165,28.528509999645628],[-81.47571499983937,28.529214999848573],[-81.47571999986224,28.530015999706517],[-81.47558599996793,28.530017999615765],[-81.47558599996793,28.530191000304683],[-81.47560100003656,28.530234999805078],[-81.47562899962564,28.530358000212253],[-81.47563799984647,28.530394999985845],[-81.475661000311,28.530490000027516],[-81.47569200027314,28.530646000026568],[-81.47569800012094,28.53068900017799],[-81.4757449999766,28.531015000167702],[-81.47577400028891,28.531294000282823],[-81.47577599993873,28.531304999649937],[-81.47577900031179,28.53149800019661],[-81.4757879996343,28.531524000226863],[-81.4757800001367,28.531596999791912],[-81.47578099996161,28.53162199985837],[-81.47590900000813,28.53157800014787],[-81.47599699987168,28.53154900031065],[-81.47627200023129,28.53139400001138],[-81.47629300014768,28.531382999864334],[-81.47639400043002,28.531332999612108],[-81.47658500022573,28.53123800033031],[-81.47693000000721,28.5310669996709],[-81.47716000016099,28.530958000121206],[-81.4772949998802,28.53089500036623],[-81.47735799962939,28.530880000381423],[-81.47742299992673,28.530880000381423],[-81.47746599958444,28.530887000006288],[-81.47763299998901,28.530954000338298],[-81.47766300012624,28.53096800036695],[-81.47783899985333,28.531051999710588],[-81.47830599983358,28.53132200024797],[-81.4784980003525,28.531450999822084],[-81.4787229995851,28.531601000339595],[-81.47877100016399,28.53162199985837],[-81.47891500010402,28.531696000083453],[-81.479019999686,28.53176299990114],[-81.47903499975462,28.53177200013254],[-81.47914699990763,28.531854999687404],[-81.47925099966469,28.531947000182583],[-81.47930000006849,28.531996000207663],[-81.47934799974908,28.532084000050496],[-81.47938000043443,28.532178000214017],[-81.47939499960472,28.532275000093374],[-81.47939200013,28.53237199988341],[-81.47938499955899,28.532420999710872],[-81.47937200003851,28.532472000167473],[-81.47935199994703,28.532667999943826],[-81.47933199985555,28.532726999712516],[-81.47931599996201,28.53274999965354],[-81.4792930003958,28.532778000021015],[-81.47923899996913,28.532817000379566],[-81.4791529997554,28.532855000006716],[-81.47907800031065,28.532888999910757],[-81.47869800036905,28.53303400033006],[-81.47860200010959,28.53306800017633],[-81.47841700016166,28.533134999910967],[-81.47809800031943,28.53325700016643],[-81.47752800040702,28.53348200016363],[-81.47721200003954,28.53361100025051],[-81.47716099998591,28.533628999607703],[-81.47689900004508,28.533728000357904],[-81.4768649997099,28.53372399989097],[-81.4768439997935,28.53371399990668],[-81.4768229998771,28.5336890003365],[-81.47681700002931,28.5336700002804],[-81.4767800002194,28.53343399996248],[-81.47677799967127,28.533416999705143],[-81.47676199977774,28.533132000135744],[-81.47674199968625,28.5324930003019],[-81.47673699966337,28.532300999931945],[-81.47676799962554,28.53218900027809],[-81.4766959996555,28.532158999885468],[-81.47664200012714,28.53213699975003],[-81.47655099989055,28.532111999805757],[-81.47647200024782,28.532096999994177],[-81.47645700017922,28.532095000124368],[-81.47639500025493,28.532089999660446],[-81.47628099955381,28.532081000245416],[-81.47626999968315,28.532081000245416],[-81.47611900007041,28.532081000245416],[-81.47595800041194,28.532096000059283],[-81.47589499976444,28.532098999863923],[-81.47577000009095,28.532105000262238],[-81.4757669997179,28.532230999866286],[-81.47577099991587,28.5323910001736],[-81.47578099996161,28.532786000237387],[-81.4757800001367,28.532950000198547],[-81.47577699976365,28.533248999985805],[-81.47577500011383,28.53353599987048],[-81.47577500011383,28.53361400001203],[-81.47577500011383,28.533849999926836],[-81.47577500011383,28.533928999753478],[-81.47577500011383,28.534095000135327],[-81.47577599993873,28.53432400036597],[-81.4757800001367,28.53459299971175],[-81.47578299961143,28.534719000286962],[-81.47578299961143,28.53475999974642],[-81.47578500015958,28.53509100009142],[-81.47579100000735,28.536086000206378],[-81.47579299965717,28.536418000225886],[-81.47592200042692,28.536412000073156],[-81.47601500031335,28.536409000391277],[-81.47631099969102,28.536406999814126],[-81.47644100028569,28.536406999814126],[-81.47701000037317,28.536400999660774],[-81.47702500044178,28.536398999872667],[-81.47703899978717,28.536397999978586],[-81.4770970004118,28.536383999882098],[-81.47715000011526,28.536361999839546],[-81.47719899962074,28.536330999951122],[-81.4772580000703,28.536272999727974],[-81.47728900003243,28.536211999785493],[-81.47731400014679,28.536126000026492],[-81.47737000022329,28.535489999904886],[-81.47739699998746,28.5351220003447],[-81.47741000040627,28.535024000022073],[-81.47743899982025,28.534930000029664],[-81.47748400002608,28.53484000037805],[-81.47749800026982,28.53482600007462],[-81.47757199988965,28.534757000017454],[-81.47764700023272,28.534704000057257],[-81.47772900024849,28.53465800023399],[-81.47800600025792,28.53454899966331],[-81.47842200018452,28.534379000343797],[-81.47845200032175,28.53436799971917],[-81.47876100011824,28.534248999704197],[-81.47913799968678,28.534089999766287],[-81.4791949995882,28.534072999614775],[-81.47928499999988,28.534064000369103],[-81.47937399968835,28.534072999614775],[-81.47944499983345,28.53409400021938],[-81.4795119997806,28.53412499997671],[-81.47957100023015,28.53416499975203],[-81.47962200028377,28.534214000324152],[-81.47964999987286,28.534253000151256],[-81.47966199956844,28.534270000273725],[-81.47985499991228,28.53465399980236],[-81.47994399960074,28.5348330002266],[-81.48000100040045,28.53493899999059],[-81.48011500020327,28.53515099998783],[-81.48024499989961,28.535448999940332],[-81.4802649999911,28.53551200012957],[-81.48028000005972,28.535609000096738],[-81.4802780004099,28.535673999992277],[-81.48025999996823,28.53576999991027],[-81.48023300020405,28.535837000294464],[-81.48017700012755,28.53598199981397],[-81.48011100000531,28.536133999988625],[-81.4800320003626,28.53631500005603],[-81.47998200013389,28.53643300021153],[-81.47997200008815,28.536555999698],[-81.47998299995878,28.536648000034816],[-81.48000899989806,28.536736999829614],[-81.48005599975372,28.536810999619494],[-81.4801019997845,28.536863000208562],[-81.48011500020327,28.536878000130926],[-81.48018499962515,28.536935000132015],[-81.48026099979315,28.536979999861874],[-81.48058100035858,28.537156999717652],[-81.48062599966613,28.537182000043416],[-81.4815460002812,28.537681999788177],[-81.48178099955952,28.537810000376766],[-81.48186699977325,28.53786099980349],[-81.48195800000985,28.53791399975403],[-81.48201599973616,28.537962000281887],[-81.48207000016285,28.538018999696522],[-81.48209199990414,28.53804100018229],[-81.48213399973694,28.53810000009923],[-81.48218599961547,28.53819299975414],[-81.48221599975271,28.53827400002308],[-81.48224599988994,28.53839900026724],[-81.48225400028586,28.538483999874995],[-81.4822500000879,28.538610999616154],[-81.48224900026297,28.538754000309673],[-81.48224900026297,28.539013999782057],[-81.48224900026297,28.5390410001943],[-81.48224800043808,28.539052000331054],[-81.48224400024012,28.539114000076015],[-81.4822290001715,28.539164999660635],[-81.48221900012577,28.53920300015517],[-81.48220599970698,28.539237000378414],[-81.4821589998513,28.539317999844705],[-81.4821160001936,28.53939499978627],[-81.48207299963758,28.53950099969569],[-81.48204500004847,28.539610999742088],[-81.48203699965256,28.539684000017967],[-81.48202400013207,28.539814000265114],[-81.48245299957917,28.539855000109455],[-81.48308600013907,28.53991700017097],[-81.48355399994422,28.539972000385898],[-81.48373899989214,28.539995000323778],[-81.48405600008455,28.540036000097675],[-81.48416700041263,28.540047999990044],[-81.48423400035978,28.540054999795014],[-81.48443500020123,28.540075999996464],[-81.48450200014838,28.540082999799626],[-81.48469399976901,28.54009800005268],[-81.48556300033047,28.54018600023166],[-81.48559199974447,28.539957999975222],[-81.48560299961512,28.539862999788518],[-81.48561400038407,28.53978399967597],[-81.48565600021686,28.539582999612033],[-81.48566200006466,28.539557999856047],[-81.48568299998107,28.53949200012443],[-81.48568299998107,28.539447999754305],[-81.48566999956228,28.539401999634638],[-81.48566999956228,28.539380000222252],[-81.48567499958513,28.53928899977013],[-81.4856650004377,28.539138999937354],[-81.48564500034624,28.539043999801283],[-81.4856229997066,28.53893399995205],[-81.48547799994165,28.538953999717954],[-81.48533800019956,28.538958999856096],[-81.48528999962068,28.538962000254543],[-81.48513999983284,28.538958999856096],[-81.48494599966409,28.53893999996111],[-81.48475400004347,28.538905999642065],[-81.48462599999694,28.53887399984239],[-81.48449399975247,28.53882800026128],[-81.48442500015548,28.53880500006861],[-81.48423000016182,28.538719000058563],[-81.48395900000017,28.538546999827904],[-81.48381599988504,28.538438999998363],[-81.48371600032593,28.53834400002024],[-81.48362199971629,28.538242000031463],[-81.48350799991346,28.538096999676256],[-81.48345799968475,28.538022000121746],[-81.48337300019425,28.537868999633893],[-81.48328299978256,28.53767100029758],[-81.48323299955385,28.53746699970734],[-81.48320199959171,28.53725999985359],[-81.48319599974393,28.537000999887056],[-81.48319200044428,28.536025000155643],[-81.48320199959171,28.535964000069516],[-81.48323500010198,28.53587600031001],[-81.48328899963035,28.535797000364695],[-81.48333600038433,28.5357530000298],[-81.48341900022501,28.535699999781368],[-81.48348000032438,28.535673000091275],[-81.48354499972339,28.53565400039291],[-81.48365299967841,28.535632000197918],[-81.48381099986217,28.53558099969229],[-81.48392499966498,28.53553299965813],[-81.48411100033614,28.535437000313365],[-81.48425199990314,28.535345999612456],[-81.48438199959948,28.53524100016295],[-81.48453300011053,28.535093999810854],[-81.4846440004386,28.534967999684063],[-81.48473899997484,28.53481999983123],[-81.48483600005923,28.534636999741835],[-81.4848979999835,28.534554999922115],[-81.48497199960335,28.534482999950786],[-81.48505699999217,28.534420999848383],[-81.48514599968063,28.53437499990157],[-81.48527200007732,28.534328999934633],[-81.48537099981152,28.534304999635157],[-81.48549499966008,28.534294999706056],[-81.48559500011751,28.534299000151314],[-81.48566999956228,28.534304999635157],[-81.48583199994395,28.533358000322778],[-81.48587100030203,28.53300500010434]]]},"properties":{"block_id":"120950148071001","school_id":"sch_sunshine_high_school_greater_orlando_campus","kids_est":24,"class":"green","shortest":{"len_m":695.6,"mean_c":38.3,"peak_c":38.3,"dose":51.3},"coolest":{"len_m":695.8,"mean_c":38.3,"peak_c":38.3,"dose":51.2},"delta_mean_c":0.0,"delta_dose_pct":0,"distance_mi":0.475,"status_now":"walk","status_rec":"walk","reason":"Shortest route already under threshold (dose 51).","safe_until_hour":null}},{"type":"Feature","geometry":{"type":"Polygon","coordinates":[[[-81.4755550000058,28.533613000091542],[-81.47555699965564,28.533530000342846],[-81.47546700014226,28.533530000342846],[-81.4751969998055,28.533531000264137],[-81.47510800011706,28.533532000185467],[-81.4747659998103,28.53353499994924],[-81.47452899998383,28.533537999712923],[-81.47416400011085,28.533534000027988],[-81.47407100022441,28.53352200018295],[-81.47390800001781,28.53348899961566],[-81.47383299967473,28.533473000078267],[-81.47374999983406,28.533443999973294],[-81.47361599993975,28.53338900029668],[-81.47344500023553,28.533292999787857],[-81.47335700037199,28.533226000153686],[-81.47328299985384,28.53316400010091],[-81.47322000010465,28.533101000086297],[-81.47320099983807,28.53308199992418],[-81.47311700017248,28.532985999924843],[-81.47295800016383,28.532785000309048],[-81.47285699988147,28.53264699984432],[-81.47272399981208,28.532451000028896],[-81.47268799982707,28.532392000105695],[-81.47258400007,28.53222199967407],[-81.47253800003925,28.53213799968454],[-81.47248600016073,28.532043000339115],[-81.47239999994699,28.531862000036742],[-81.47237400000772,28.53176900031858],[-81.4723580001142,28.531666000339737],[-81.47235599956605,28.53156600008009],[-81.47238300022856,28.531213000172773],[-81.47239400009919,28.53116299983989],[-81.47240400014495,28.53112399965846],[-81.47242300041152,28.531081999629095],[-81.47245400037367,28.531029000188216],[-81.47248399961256,28.530988000066404],[-81.47252799999352,28.53094000030776],[-81.47257999987204,28.530892999684387],[-81.47269000037521,28.53081799973768],[-81.47246600006922,28.530361000066367],[-81.47242099986337,28.53029600005059],[-81.47235599956605,28.53021999972634],[-81.47197999982242,28.529905999903338],[-81.4719010001797,28.52984400026503],[-81.47148400042818,28.529678000290108],[-81.47139200036666,28.52963299980973],[-81.47133799994,28.52959299989274],[-81.47131600019868,28.529571999969676],[-81.47115899983984,28.529345000384158],[-81.47115200016715,28.529326000334123],[-81.47114399977124,28.529277999818532],[-81.47115999966476,28.52888100009283],[-81.47117499973338,28.52872499984908],[-81.47119700037301,28.528593000190977],[-81.47122999998496,28.528392000089116],[-81.47130600015295,28.52793800008189],[-81.47133600029018,28.527792999754467],[-81.47134299996286,28.52777600016571],[-81.47142300032881,28.527725999780742],[-81.47163099984296,28.527614000000547],[-81.47183000003459,28.52750600001513],[-81.47210299984606,28.527360999882706],[-81.47215700027274,28.527343000244276],[-81.47220099975534,28.527343000244276],[-81.47223500009055,28.527358999923052],[-81.4723299996268,28.52722200022713],[-81.47238499987837,28.52718400014743],[-81.47257900004712,28.52707799968653],[-81.47281199967563,28.526960000105362],[-81.47261400020723,28.526795000309],[-81.47242400023643,28.52662400033362],[-81.47224299958813,28.526444000184462],[-81.47215200024986,28.526343999705713],[-81.47207199988392,28.52625699979605],[-81.47191100022545,28.52606299992041],[-81.47181599979089,28.525937000045886],[-81.47099399998342,28.526401999868686],[-81.47084300037068,28.52648799967052],[-81.47017300000086,28.526860000116137],[-81.46975200005137,28.527092000230052],[-81.46900200021392,28.527496000230162],[-81.468817000266,28.527583999884158],[-81.46856100017295,28.52768599992927],[-81.4684859998299,28.527710000157676],[-81.46836199998133,28.527750999976163],[-81.46815299974396,28.527805000251774],[-81.46793900038203,28.52784600003337],[-81.46772299957365,28.52787100020032],[-81.46756199991515,28.527879999974843],[-81.46756399956499,28.528073999663395],[-81.46757199996091,28.528655999743467],[-81.46757500033395,28.528851000337117],[-81.46757699998378,28.529015000107773],[-81.46758600020462,28.529510000134884],[-81.46758899967935,28.529674999627307],[-81.46759200005239,28.529873999738143],[-81.46759500042545,28.530029999859735],[-81.46760399974795,28.53027800012414],[-81.46761799999167,28.53047000023359],[-81.46763300006027,28.53066899963251],[-81.46764099955789,28.53075699979424],[-81.46766700039547,28.531021999783597],[-81.46767599971798,28.53111100038399],[-81.46768499993883,28.531202999950196],[-81.46769900018252,28.53134700037967],[-81.46769900018252,28.531466999666428],[-81.46769699963437,28.53148300029763],[-81.46768999996168,28.53157600026815],[-81.46768099974086,28.531645000040555],[-81.46765899999954,28.531733000176484],[-81.46763899990806,28.531821000238992],[-81.46758399965647,28.531967999632407],[-81.46754199982368,28.532056000287845],[-81.4674940001431,28.53214200021169],[-81.46747300022672,28.53217399968823],[-81.46744100043966,28.532225000264354],[-81.4673819999901,28.532306000385816],[-81.4673190002409,28.53238199999505],[-81.46725099957055,28.53245599968642],[-81.4671779997756,28.532526000391865],[-81.46710099978272,28.532591999751677],[-81.46701899976695,28.532654000141044],[-81.46691400018496,28.532722000067853],[-81.46684499968968,28.532758999800656],[-81.46676100002408,28.532804999663654],[-81.46662200010691,28.532866000000066],[-81.46647800016687,28.532916000314184],[-81.46633000002888,28.532955999759185],[-81.4661979997844,28.532977999723713],[-81.46606300006518,28.532991000346275],[-81.46590099968347,28.53299500005181],[-81.46589800020874,28.53325399960553],[-81.46589400001076,28.533532000185467],[-81.46581700001788,28.533533000106733],[-81.46573900020007,28.533553000108608],[-81.46556799959754,28.53355400002968],[-81.46551200041935,28.533557999713906],[-81.46543200005343,28.533586999787452],[-81.46537299960387,28.53360799969964],[-81.46533800034207,28.53361400001203],[-81.46499100001245,28.533615999852998],[-81.46495300037762,28.53360699977907],[-81.46471200035319,28.53345900038236],[-81.46460299967494,28.533391000141908],[-81.46440900040449,28.53326900004158],[-81.46435699962764,28.533235000260156],[-81.4642350003272,28.533159999612565],[-81.46403899961032,28.533038999959974],[-81.46403199993763,28.53275999972926],[-81.46402299971679,28.532742000223653],[-81.46400500017344,28.532722999996803],[-81.46393200037852,28.532681999744806],[-81.46385600021053,28.532654000141044],[-81.46375400010326,28.53261599965213],[-81.46360900033832,28.532554000029698],[-81.46358199967582,28.53253399983821],[-81.46356499995738,28.532506000195074],[-81.4635590001096,28.532474999961472],[-81.463580000026,28.532313999848867],[-81.46361400036119,28.532072000040397],[-81.46357699965297,28.532065999640196],[-81.46349499963719,28.53205399962805],[-81.46334400002445,28.53204199961448],[-81.4632620000087,28.53204199961448],[-81.4623129999796,28.532044000274517],[-81.46199699961211,28.532046000145332],[-81.46183500012872,28.532046000145332],[-81.46134999970681,28.532048000016054],[-81.46118900004835,28.532048999951403],[-81.46118900004835,28.532063999769818],[-81.46118900004835,28.532109000001423],[-81.46118900004835,28.532124999745925],[-81.46118700039851,28.53214200021169],[-81.46118300020056,28.532193000014058],[-81.46118200037564,28.532210999613444],[-81.46134999970681,28.53220899974581],[-81.46185799969493,28.532204000076568],[-81.46202699974936,28.532203000142644],[-81.46228899969016,28.532205000010443],[-81.46232399985026,28.532205000010443],[-81.46232399985026,28.53229500033402],[-81.46233800009395,28.532679999886117],[-81.46332599958278,28.532675000239152],[-81.46333200032889,28.533120000244995],[-81.4634100001467,28.533119000319807],[-81.4634100001467,28.533147999724942],[-81.4634179996443,28.534032999804612],[-81.464966999723,28.534018000266457],[-81.46700000039868,28.533999000269677],[-81.47018600041964,28.53397399997791],[-81.4706419996309,28.533972000143734],[-81.4721129998918,28.53395799972493],[-81.47246000022145,28.533956999807682],[-81.47393300013216,28.533944000093513],[-81.47411300005723,28.53395000038673],[-81.47465600020543,28.533967999686052],[-81.4748369999554,28.533974999894976],[-81.47497900024561,28.53396900039234],[-81.47540500021796,28.533952000221376],[-81.4755480003331,28.533946999845554],[-81.47554900015803,28.53386299965266],[-81.4755550000058,28.533613000091542]]]},"properties":{"block_id":"120950147023000","school_id":"sch_sunshine_high_school_greater_orlando_campus","kids_est":31,"class":"red","shortest":{"len_m":3521.0,"mean_c":38.34,"peak_c":38.4,"dose":261.4},"coolest":{"len_m":3521.0,"mean_c":38.34,"peak_c":38.4,"dose":261.4},"delta_mean_c":0.0,"delta_dose_pct":0,"distance_mi":0.664,"status_now":"walk","status_rec":"bus_eligible","reason":"Coolest route mean 38.3C exceeds threshold (110 C-min dose, actual 261).","safe_until_hour":"11:00"}},{"type":"Feature","geometry":{"type":"Polygon","coordinates":[[[-81.4757800001367,28.532950000198547],[-81.47578099996161,28.532786000237387],[-81.47577099991587,28.5323910001736],[-81.4757669997179,28.532230999866286],[-81.47577000009095,28.532105000262238],[-81.4756889999001,28.532105000262238],[-81.47565999958778,28.532105000262238],[-81.4755759999222,28.532105000262238],[-81.4755480003331,28.532106000197054],[-81.47545799992143,28.532106000197054],[-81.4751890003079,28.532106000197054],[-81.47509999972114,28.532107000131845],[-81.47509999972114,28.532254999848952],[-81.47510300009418,28.53269900012071],[-81.4751039999191,28.53284699979557],[-81.4751039999191,28.53298400007193],[-81.47510700029214,28.53339499983233],[-81.47510800011706,28.533532000185467],[-81.4751969998055,28.533531000264137],[-81.47546700014226,28.533530000342846],[-81.47555699965564,28.533530000342846],[-81.4755550000058,28.533613000091542],[-81.47554900015803,28.53386299965266],[-81.4755480003331,28.533946999845554],[-81.47559299964064,28.53394300017615],[-81.47572900008308,28.533932000295163],[-81.47577500011383,28.533928999753478],[-81.47577500011383,28.533849999926836],[-81.47577500011383,28.53361400001203],[-81.47577500011383,28.53353599987048],[-81.47577699976365,28.533248999985805],[-81.4757800001367,28.532950000198547]]]},"properties":{"block_id":"120950147021001","school_id":"sch_sunshine_high_school_greater_orlando_campus","kids_est":1,"class":"green","shortest":{"len_m":822.3,"mean_c":38.3,"peak_c":38.3,"dose":60.6},"coolest":{"len_m":822.3,"mean_c":38.3,"peak_c":38.3,"dose":60.6},"delta_mean_c":0.0,"delta_dose_pct":0,"distance_mi":0.362,"status_now":"walk","status_rec":"walk","reason":"Shortest route already under threshold (dose 61).","safe_until_hour":null}},{"type":"Feature","geometry":{"type":"Polygon","coordinates":[[[-81.47580299970292,28.537182000043416],[-81.475801999878,28.53702899991414],[-81.4758010000531,28.536757000012575],[-81.47579600003023,28.536569999771576],[-81.47579299965717,28.536418000225886],[-81.47579100000735,28.536086000206378],[-81.47578500015958,28.53509100009142],[-81.47578299961143,28.53475999974642],[-81.47578299961143,28.534719000286962],[-81.4757800001367,28.53459299971175],[-81.47577599993873,28.53432400036597],[-81.47577500011383,28.534095000135327],[-81.47577500011383,28.533928999753478],[-81.47572900008308,28.533932000295163],[-81.47559299964064,28.53394300017615],[-81.4755480003331,28.533946999845554],[-81.47540500021796,28.533952000221376],[-81.47497900024561,28.53396900039234],[-81.4748369999554,28.533974999894976],[-81.47484000032846,28.534617999856668],[-81.47484199997828,28.534849000346675],[-81.47486000041994,28.53654799976785],[-81.47486299989467,28.536826000338387],[-81.4748579998718,28.537107999724917],[-81.47486500044282,28.537190999811983],[-81.47505200004056,28.53718800015224],[-81.47561500028026,28.537181000156767],[-81.47570399996872,28.53718000027012],[-81.47580299970292,28.537182000043416]]]},"properties":{"block_id":"120950147022007","school_id":"sch_sunshine_high_school_greater_orlando_campus","kids_est":3,"class":"green","shortest":{"len_m":382.3,"mean_c":38.3,"peak_c":38.3,"dose":28.2},"coolest":{"len_m":382.3,"mean_c":38.3,"peak_c":38.3,"dose":28.2},"delta_mean_c":0.0,"delta_dose_pct":0,"distance_mi":0.188,"status_now":"walk","status_rec":"walk","reason":"Shortest route already under threshold (dose 28).","safe_until_hour":null}},{"type":"Feature","geometry":{"type":"Polygon","coordinates":[[[-81.4757800001367,28.531596999791912],[-81.4757879996343,28.531524000226863],[-81.47577900031179,28.53149800019661],[-81.47577599993873,28.531304999649937],[-81.47577400028891,28.531294000282823],[-81.4757449999766,28.531015000167702],[-81.47569800012094,28.53068900017799],[-81.47569200027314,28.530646000026568],[-81.475661000311,28.530490000027516],[-81.47563799984647,28.530394999985845],[-81.47562899962564,28.530358000212253],[-81.47560100003656,28.530234999805078],[-81.47558599996793,28.530191000304683],[-81.47555900020376,28.530111000089818],[-81.47551999984569,28.530027999950715],[-81.47527200014858,28.529495999912545],[-81.4752660003008,28.529482999648074],[-81.47503600014703,28.529102000108793],[-81.4749080001005,28.528921000280043],[-81.47471200028194,28.52867699984898],[-81.47448299995308,28.528452999822864],[-81.47425699999727,28.52824700038627],[-81.47415099969206,28.52815599979047],[-81.47388399972836,28.527929000312326],[-81.47374200033646,28.527772000262054],[-81.4737249997197,28.52775599985671],[-81.47351899985537,28.527559999627062],[-81.47333300008255,28.52739999987805],[-81.47301099986726,28.52712299967928],[-81.47281199967563,28.526960000105362],[-81.47257900004712,28.52707799968653],[-81.47238499987837,28.52718400014743],[-81.4723299996268,28.52722200022713],[-81.47223500009055,28.527358999923052],[-81.47220099975534,28.527343000244276],[-81.47215700027274,28.527343000244276],[-81.47210299984606,28.527360999882706],[-81.47183000003459,28.52750600001513],[-81.47163099984296,28.527614000000547],[-81.47142300032881,28.527725999780742],[-81.47134299996286,28.52777600016571],[-81.47133600029018,28.527792999754467],[-81.47130600015295,28.52793800008189],[-81.47122999998496,28.528392000089116],[-81.47119700037301,28.528593000190977],[-81.47117499973338,28.52872499984908],[-81.47115999966476,28.52888100009283],[-81.47114399977124,28.529277999818532],[-81.47115200016715,28.529326000334123],[-81.47115899983984,28.529345000384158],[-81.47131600019868,28.529571999969676],[-81.47133799994,28.52959299989274],[-81.47139200036666,28.52963299980973],[-81.47148400042818,28.529678000290108],[-81.4719010001797,28.52984400026503],[-81.47197999982242,28.529905999903338],[-81.47235599956605,28.53021999972634],[-81.47242099986337,28.53029600005059],[-81.47246600006922,28.530361000066367],[-81.47269000037521,28.53081799973768],[-81.47283199976712,28.530742999737534],[-81.47295399996585,28.530701000345566],[-81.4730560000731,28.53067799995736],[-81.47317200042406,28.530665999787164],[-81.47374700035932,28.530646000026568],[-81.47389600032224,28.530647999923907],[-81.47407700007221,28.53065800019909],[-81.47435499990655,28.530690000126228],[-81.47456800034189,28.53073100036398],[-81.47480599999327,28.53079800000591],[-81.47486600026771,28.530822000314924],[-81.47491999979607,28.53085400019228],[-81.47498799956814,28.530916000025677],[-81.47502399955316,28.530963999795198],[-81.47504700001768,28.53103899963807],[-81.47505799988835,28.531094999696318],[-81.47507799997982,28.531190999839783],[-81.47508800002555,28.531307000323956],[-81.47509999972114,28.532107000131845],[-81.4751890003079,28.532106000197054],[-81.47545799992143,28.532106000197054],[-81.4755480003331,28.532106000197054],[-81.4755759999222,28.532105000262238],[-81.47565999958778,28.532105000262238],[-81.4756889999001,28.532105000262238],[-81.47577000009095,28.532105000262238],[-81.47577199974077,28.532008000226412],[-81.47577799958856,28.531718000310963],[-81.47578099996161,28.53162199985837],[-81.4757800001367,28.531596999791912]]]},"properties":{"block_id":"120950147021002","school_id":"sch_sunshine_high_school_greater_orlando_campus","kids_est":24,"class":"green","shortest":{"len_m":1392.6,"mean_c":38.3,"peak_c":38.3,"dose":102.6},"coolest":{"len_m":1392.6,"mean_c":38.3,"peak_c":38.3,"dose":102.6},"delta_mean_c":0.0,"delta_dose_pct":0,"distance_mi":0.594,"status_now":"walk","status_rec":"walk","reason":"Shortest route already under threshold (dose 103).","safe_until_hour":null}},{"type":"Feature","geometry":{"type":"Polygon","coordinates":[[[-81.47486500044282,28.537190999811983],[-81.4748579998718,28.537107999724917],[-81.47486299989467,28.536826000338387],[-81.47486000041994,28.53654799976785],[-81.47484199997828,28.534849000346675],[-81.47484000032846,28.534617999856668],[-81.4748369999554,28.533974999894976],[-81.47465600020543,28.533967999686052],[-81.47411300005723,28.53395000038673],[-81.47393300013216,28.533944000093513],[-81.47392999975911,28.534249999618705],[-81.47393300013216,28.534593999622956],[-81.47394499982772,28.535764999620778],[-81.47394800020078,28.53654400019711],[-81.4739509996755,28.537195000147292],[-81.47413300014871,28.537194000260783],[-81.4746820001447,28.537190999811983],[-81.47486500044282,28.537190999811983]]]},"properties":{"block_id":"120950147022006","school_id":"sch_sunshine_high_school_greater_orlando_campus","kids_est":4,"class":"green","shortest":{"len_m":382.3,"mean_c":38.3,"peak_c":38.3,"dose":28.2},"coolest":{"len_m":382.3,"mean_c":38.3,"peak_c":38.3,"dose":28.2},"delta_mean_c":0.0,"delta_dose_pct":0,"distance_mi":0.167,"status_now":"walk","status_rec":"walk","reason":"Shortest route already under threshold (dose 28).","safe_until_hour":null}},{"type":"Feature","geometry":{"type":"Polygon","coordinates":[[[-81.46589800020874,28.53325399960553],[-81.46590099968347,28.53299500005181],[-81.46579299972845,28.532991000346275],[-81.46558799968902,28.532966999741987],[-81.46544799994693,28.53293900021396],[-81.46531099967959,28.53290099982787],[-81.4651779996102,28.532853000151306],[-81.46504999956367,28.532796000309702],[-81.46486700016389,28.53269299975621],[-81.46482699998091,28.532667999943826],[-81.4647070003303,28.532593999612107],[-81.46429200022862,28.53233200021679],[-81.46422500028147,28.53229700020001],[-81.46410800010561,28.532237000257037],[-81.46409100038717,28.532228000065327],[-81.46393300020341,28.532158999885468],[-81.4637909999132,28.532112999740495],[-81.46374099968449,28.53210099973364],[-81.46363100007963,28.532074999845737],[-81.46361400036119,28.532072000040397],[-81.463580000026,28.532313999848867],[-81.4635590001096,28.532474999961472],[-81.46356499995738,28.532506000195074],[-81.46358199967582,28.53253399983821],[-81.46360900033832,28.532554000029698],[-81.46375400010326,28.53261599965213],[-81.46385600021053,28.532654000141044],[-81.46393200037852,28.532681999744806],[-81.46400500017344,28.532722999996803],[-81.46402299971679,28.532742000223653],[-81.46403199993763,28.53275999972926],[-81.46403899961032,28.533038999959974],[-81.4642350003272,28.533159999612565],[-81.46435699962764,28.533235000260156],[-81.46440900040449,28.53326900004158],[-81.46460299967494,28.533391000141908],[-81.46471200035319,28.53345900038236],[-81.46495300037762,28.53360699977907],[-81.46499100001245,28.533615999852998],[-81.46533800034207,28.53361400001203],[-81.46537299960387,28.53360799969964],[-81.46543200005343,28.533586999787452],[-81.46551200041935,28.533557999713906],[-81.46556799959754,28.53355400002968],[-81.46573900020007,28.533553000108608],[-81.46581700001788,28.533533000106733],[-81.46589400001076,28.533532000185467],[-81.46589800020874,28.53325399960553]]]},"properties":{"block_id":"120950147023001","school_id":"sch_sunshine_high_school_greater_orlando_campus","kids_est":20,"class":"red","shortest":{"len_m":2681.0,"mean_c":38.36,"peak_c":38.4,"dose":199.0},"coolest":{"len_m":2681.0,"mean_c":38.36,"peak_c":38.4,"dose":199.0},"delta_mean_c":0.0,"delta_dose_pct":0,"distance_mi":0.646,"status_now":"walk","status_rec":"bus_eligible","reason":"Coolest route mean 38.4C exceeds threshold (110 C-min dose, actual 199).","safe_until_hour":"11:00"}}]}