{"type":"FeatureCollection","features":[{"type":"Feature","geometry":{"type":"Polygon","coordinates":[[[-81.4415,28.5722],[-81.43715,28.5722],[-81.43715,28.57665],[-81.4415,28.57665],[-81.4415,28.5722]]]},"properties":{"block_id":"FIXTURE-0800","school_id":"sch_fixture_east","kids_est":12,"class":"yellow","shortest":{"len_m":3898.0,"mean_c":37.16,"peak_c":38.36,"dose":225.2},"coolest":{"len_m":4874.6,"mean_c":34.1,"peak_c":35.1,"dose":74.7},"delta_mean_c":-3.06,"delta_dose_pct":-67,"distance_mi":1.938,"status_now":"walk","status_rec":"reroute","reason":"Shortest route exceeds threshold, but coolest route mean 34.1C stays under it (dose 75).","safe_until_hour":null}},{"type":"Feature","geometry":{"type":"Polygon","coordinates":[[[-81.43715,28.5722],[-81.4328,28.5722],[-81.4328,28.57665],[-81.43715,28.57665],[-81.43715,28.5722]]]},"properties":{"block_id":"FIXTURE-0900","school_id":"sch_fixture_east","kids_est":33,"class":"red","shortest":{"len_m":3810.0,"mean_c":37.65,"peak_c":38.85,"dose":246.1},"coolest":{"len_m":4263.1,"mean_c":36.2,"peak_c":37.2,"dose":189.6},"delta_mean_c":-1.45,"delta_dose_pct":-23,"distance_mi":1.894,"status_now":"walk","status_rec":"bus_eligible","reason":"Coolest route mean 36.2C exceeds threshold (110 C-min dose, actual 190).","safe_until_hour":"11:00"}},{"type":"Feature","geometry":{"type":"Polygon","coordinates":[[[-81.4328,28.5722],[-81.42845,28.5722],[-81.42845,28.57665],[-81.4328,28.57665],[-81.4328,28.5722]]]},"properties":{"block_id":"FIXTURE-1000","school_id":"sch_fixture_east","kids_est":26,"class":"red","shortest":{"len_m":3795.1,"mean_c":37.78,"peak_c":38.98,"dose":252.0},"coolest":{"len_m":4245.8,"mean_c":36.29,"peak_c":37.29,"dose":194.3},"delta_mean_c":-1.49,"delta_dose_pct":-23,"distance_mi":1.887,"status_now":"walk","status_rec":"bus_eligible","reason":"Coolest route mean 36.3C exceeds threshold (110 C-min dose, actual 194).","safe_until_hour":"09:00"}},{"type":"Feature","geometry":{"type":"Polygon","coordinates":[[[-81.42845,28.5722],[-81.4241,28.5722],[-81.4241,28.57665],[-81.42845,28.57665],[-81.42845,28.5722]]]},"properties":{"block_id":"FIXTURE-1100","school_id":"sch_fixture_east","kids_est":44,"class":"red","shortest":{"len_m":3854.2,"mean_c":38.19,"peak_c":39.39,"dose":277.8},"coolest":{"len_m":4301.9,"mean_c":36.62,"peak_c":37.62,"dose":216.5},"delta_mean_c":-1.57,"delta_dose_pct":-22,"distance_mi":1.916,"status_now":"walk","status_rec":"bus_eligible","reason":"Coolest route mean 36.6C exceeds threshold (110 C-min dose, actual 216).","safe_until_hour":"09:00"}},{"type":"Feature","geometry":{"type":"Polygon","coordinates":[[[-81.4415,28.57665],[-81.43715,28.57665],[-81.43715,28.5811],[-81.4415,28.5811],[-81.4415,28.57665]]]},"properties":{"block_id":"FIXTURE-0801","school_id":"sch_fixture_east","kids_est":13,"class":"yellow","shortest":{"len_m":3302.9,"mean_c":37.38,"peak_c":38.58,"dose":200.9},"coolest":{"len_m":4133.8,"mean_c":34.15,"peak_c":35.15,"dose":65.9},"delta_mean_c":-3.23,"delta_dose_pct":-67,"distance_mi":1.642,"status_now":"walk","status_rec":"reroute","reason":"Shortest route exceeds threshold, but coolest route mean 34.1C stays under it (dose 66).","safe_until_hour":null}},{"type":"Feature","geometry":{"type":"Polygon","coordinates":[[[-81.43715,28.57665],[-81.4328,28.57665],[-81.4328,28.5811],[-81.43715,28.5811],[-81.43715,28.57665]]]},"properties":{"block_id":"FIXTURE-0901","school_id":"sch_fixture_east","kids_est":26,"class":"yellow","shortest":{"len_m":3198.6,"mean_c":36.82,"peak_c":38.02,"dose":169.7},"coolest":{"len_m":3966.2,"mean_c":34.13,"peak_c":35.13,"dose":62.2},"delta_mean_c":-2.69,"delta_dose_pct":-63,"distance_mi":1.59,"status_now":"walk","status_rec":"reroute","reason":"Shortest route exceeds threshold, but coolest route mean 34.1C stays under it (dose 62).","safe_until_hour":null}},{"type":"Feature","geometry":{"type":"Polygon","coordinates":[[[-81.4328,28.57665],[-81.42845,28.57665],[-81.42845,28.5811],[-81.4328,28.5811],[-81.4328,28.57665]]]},"properties":{"block_id":"FIXTURE-1001","school_id":"sch_fixture_east","kids_est":15,"class":"red","shortest":{"len_m":3180.9,"mean_c":37.88,"peak_c":39.08,"dose":215.6},"coolest":{"len_m":3531.7,"mean_c":36.51,"peak_c":37.51,"dose":172.3},"delta_mean_c":-1.37,"delta_dose_pct":-20,"distance_mi":1.581,"status_now":"walk","status_rec":"bus_eligible","reason":"Coolest route mean 36.5C exceeds threshold (110 C-min dose, actual 172).","safe_until_hour":"10:00"}},{"type":"Feature","geometry":{"type":"Polygon","coordinates":[[[-81.42845,28.57665],[-81.4241,28.57665],[-81.4241,28.5811],[-81.42845,28.5811],[-81.42845,28.57665]]]},"properties":{"block_id":"FIXTURE-1101","school_id":"sch_fixture_east","kids_est":20,"class":"red","shortest":{"len_m":3251.2,"mean_c":37.67,"peak_c":38.87,"dose":210.9},"coolest":{"len_m":3575.6,"mean_c":36.54,"peak_c":37.54,"dose":175.9},"delta_mean_c":-1.13,"delta_dose_pct":-17,"distance_mi":1.616,"status_now":"walk","status_rec":"bus_eligible","reason":"Coolest route mean 36.5C exceeds threshold (110 C-min dose, actual 176).","safe_until_hour":"09:00"}},{"type":"Feature","geometry":{"type":"Polygon","coordinates":[[[-81.44585,28.5811],[-81.4415,28.5811],[-81.4415,28.58555],[-81.44585,28.58555],[-81.44585,28.5811]]]},"properties":{"block_id":"FIXTURE-0702","school_id":"sch_fixture_east","kids_est":35,"class":"yellow","shortest":{"len_m":2936.5,"mean_c":36.51,"peak_c":37.71,"dose":143.2},"coolest":{"len_m":3642.3,"mean_c":34.04,"peak_c":35.04,"dose":52.4},"delta_mean_c":-2.47,"delta_dose_pct":-63,"distance_mi":1.46,"status_now":"walk","status_rec":"reroute","reason":"Shortest route exceeds threshold, but coolest route mean 34.0C stays under it (dose 52).","safe_until_hour":null}},{"type":"Feature","geometry":{"type":"Polygon","coordinates":[[[-81.4415,28.5811],[-81.43715,28.5811],[-81.43715,28.58555],[-81.4415,28.58555],[-81.4415,28.5811]]]},"properties":{"block_id":"FIXTURE-0802","school_id":"sch_fixture_east","kids_est":44,"class":"yellow","shortest":{"len_m":2716.7,"mean_c":36.57,"peak_c":37.77,"dose":134.7},"coolest":{"len_m":3391.1,"mean_c":33.97,"peak_c":34.97,"dose":45.7},"delta_mean_c":-2.6,"delta_dose_pct":-66,"distance_mi":1.35,"status_now":"walk","status_rec":"reroute","reason":"Shortest route exceeds threshold, but coolest route mean 34.0C stays under it (dose 46).","safe_until_hour":null}},{"type":"Feature","geometry":{"type":"Polygon","coordinates":[[[-81.43715,28.5811],[-81.4328,28.5811],[-81.4328,28.58555],[-81.43715,28.58555],[-81.43715,28.5811]]]},"properties":{"block_id":"FIXTURE-0902","school_id":"sch_fixture_east","kids_est":44,"class":"red","shortest":{"len_m":2588.9,"mean_c":37.03,"peak_c":38.23,"dose":144.9},"coolest":{"len_m":2852.1,"mean_c":36.03,"peak_c":37.03,"dose":119.9},"delta_mean_c":-1.0,"delta_dose_pct":-17,"distance_mi":1.287,"status_now":"walk","status_rec":"bus_eligible","reason":"Coolest route mean 36.0C exceeds threshold (110 C-min dose, actual 120).","safe_until_hour":"12:00"}},{"type":"Feature","geometry":{"type":"Polygon","coordinates":[[[-81.4328,28.5811],[-81.42845,28.5811],[-81.42845,28.58555],[-81.4328,28.58555],[-81.4328,28.5811]]]},"properties":{"block_id":"FIXTURE-1002","school_id":"sch_fixture_east","kids_est":31,"class":"red","shortest":{"len_m":2567.0,"mean_c":37.26,"peak_c":38.46,"dose":151.9},"coolest":{"len_m":2817.7,"mean_c":36.27,"peak_c":37.27,"dose":127.8},"delta_mean_c":-0.99,"delta_dose_pct":-16,"distance_mi":1.276,"status_now":"walk","status_rec":"bus_eligible","reason":"Coolest route mean 36.3C exceeds threshold (110 C-min dose, actual 128).","safe_until_hour":"12:00"}},{"type":"Feature","geometry":{"type":"Polygon","coordinates":[[[-81.42845,28.5811],[-81.4241,28.5811],[-81.4241,28.58555],[-81.42845,28.58555],[-81.42845,28.5811]]]},"properties":{"block_id":"FIXTURE-1102","school_id":"sch_fixture_east","kids_est":15,"class":"red","shortest":{"len_m":2653.6,"mean_c":37.48,"peak_c":38.68,"dose":165.1},"coolest":{"len_m":2959.9,"mean_c":36.14,"peak_c":37.14,"dose":129.1},"delta_mean_c":-1.34,"delta_dose_pct":-22,"distance_mi":1.319,"status_now":"walk","status_rec":"bus_eligible","reason":"Coolest route mean 36.1C exceeds threshold (110 C-min dose, actual 129).","safe_until_hour":"12:00"}},{"type":"Feature","geometry":{"type":"Polygon","coordinates":[[[-81.4502,28.58555],[-81.44585,28.58555],[-81.44585,28.59],[-81.4502,28.59],[-81.4502,28.58555]]]},"properties":{"block_id":"FIXTURE-0603","school_id":"sch_fixture_east","kids_est":12,"class":"yellow","shortest":{"len_m":2767.4,"mean_c":36.83,"peak_c":38.03,"dose":147.2},"coolest":{"len_m":3463.5,"mean_c":34.0,"peak_c":35.0,"dose":48.3},"delta_mean_c":-2.83,"delta_dose_pct":-67,"distance_mi":1.376,"status_now":"walk","status_rec":"reroute","reason":"Shortest route exceeds threshold, but coolest route mean 34.0C stays under it (dose 48).","safe_until_hour":null}},{"type":"Feature","geometry":{"type":"Polygon","coordinates":[[[-81.44585,28.58555],[-81.4415,28.58555],[-81.4415,28.59],[-81.44585,28.59],[-81.44585,28.58555]]]},"properties":{"block_id":"FIXTURE-0703","school_id":"sch_fixture_east","kids_est":23,"class":"green","shortest":{"len_m":2418.8,"mean_c":36.21,"peak_c":37.41,"dose":107.8},"coolest":{"len_m":2997.8,"mean_c":33.96,"peak_c":34.96,"dose":39.8},"delta_mean_c":-2.25,"delta_dose_pct":-63,"distance_mi":1.202,"status_now":"walk","status_rec":"walk","reason":"Shortest route already under threshold (dose 108).","safe_until_hour":null}},{"type":"Feature","geometry":{"type":"Polygon","coordinates":[[[-81.4415,28.58555],[-81.43715,28.58555],[-81.43715,28.59],[-81.4415,28.59],[-81.4415,28.58555]]]},"properties":{"block_id":"FIXTURE-0803","school_id":"sch_fixture_east","kids_est":19,"class":"yellow","shortest":{"len_m":2146.6,"mean_c":36.84,"peak_c":38.04,"dose":114.5},"coolest":{"len_m":2696.4,"mean_c":33.96,"peak_c":34.96,"dose":35.8},"delta_mean_c":-2.88,"delta_dose_pct":-69,"distance_mi":1.067,"status_now":"walk","status_rec":"reroute","reason":"Shortest route exceeds threshold, but coolest route mean 34.0C stays under it (dose 36).","safe_until_hour":null}},{"type":"Feature","geometry":{"type":"Polygon","coordinates":[[[-81.43715,28.58555],[-81.4328,28.58555],[-81.4328,28.59],[-81.43715,28.59],[-81.43715,28.58555]]]},"properties":{"block_id":"FIXTURE-0903","school_id":"sch_fixture_east","kids_est":38,"class":"yellow","shortest":{"len_m":1982.4,"mean_c":37.81,"peak_c":39.01,"dose":132.4},"coolest":{"len_m":2440.5,"mean_c":34.55,"peak_c":35.55,"dose":52.5},"delta_mean_c":-3.26,"delta_dose_pct":-60,"distance_mi":0.985,"status_now":"walk","status_rec":"reroute","reason":"Shortest route exceeds threshold, but coolest route mean 34.5C stays under it (dose 52).","safe_until_hour":null}},{"type":"Feature","geometry":{"type":"Polygon","coordinates":[[[-81.4328,28.58555],[-81.42845,28.58555],[-81.42845,28.59],[-81.4328,28.59],[-81.4328,28.58555]]]},"properties":{"block_id":"FIXTURE-1003","school_id":"sch_fixture_east","kids_est":8,"class":"yellow","shortest":{"len_m":1953.7,"mean_c":37.48,"peak_c":38.68,"dose":121.6},"coolest":{"len_m":2407.2,"mean_c":34.43,"peak_c":35.43,"dose":47.8},"delta_mean_c":-3.05,"delta_dose_pct":-61,"distance_mi":0.971,"status_now":"walk","status_rec":"reroute","reason":"Shortest route exceeds threshold, but coolest route mean 34.4C stays under it (dose 48).","safe_until_hour":null}},{"type":"Feature","geometry":{"type":"Polygon","coordinates":[[[-81.42845,28.58555],[-81.4241,28.58555],[-81.4241,28.59],[-81.42845,28.59],[-81.42845,28.58555]]]},"properties":{"block_id":"FIXTURE-1103","school_id":"sch_fixture_east","kids_est":13,"class":"red","shortest":{"len_m":2066.1,"mean_c":37.98,"peak_c":39.18,"dose":142.9},"coolest":{"len_m":2284.2,"mean_c":36.67,"peak_c":37.67,"dose":116.4},"delta_mean_c":-1.31,"delta_dose_pct":-19,"distance_mi":1.027,"status_now":"walk","status_rec":"bus_eligible","reason":"Coolest route mean 36.7C exceeds threshold (110 C-min dose, actual 116).","safe_until_hour":"13:00"}},{"type":"Feature","geometry":{"type":"Polygon","coordinates":[[[-81.4502,28.59],[-81.44585,28.59],[-81.44585,28.59445],[-81.4502,28.59445],[-81.4502,28.59]]]},"properties":{"block_id":"FIXTURE-0604","school_id":"sch_fixture_east","kids_est":14,"class":"yellow","shortest":{"len_m":2375.2,"mean_c":36.84,"peak_c":38.04,"dose":126.7},"coolest":{"len_m":2928.7,"mean_c":34.21,"peak_c":35.21,"dose":49.4},"delta_mean_c":-2.63,"delta_dose_pct":-61,"distance_mi":1.181,"status_now":"walk","status_rec":"reroute","reason":"Shortest route exceeds threshold, but coolest route mean 34.2C stays under it (dose 49).","safe_until_hour":null}},{"type":"Feature","geometry":{"type":"Polygon","coordinates":[[[-81.44585,28.59],[-81.4415,28.59],[-81.4415,28.59445],[-81.44585,28.59445],[-81.44585,28.59]]]},"properties":{"block_id":"FIXTURE-0704","school_id":"sch_fixture_east","kids_est":32,"class":"yellow","shortest":{"len_m":1958.1,"mean_c":37.17,"peak_c":38.37,"dose":113.4},"coolest":{"len_m":2446.8,"mean_c":34.12,"peak_c":35.12,"dose":38.0},"delta_mean_c":-3.05,"delta_dose_pct":-66,"distance_mi":0.973,"status_now":"walk","status_rec":"reroute","reason":"Shortest route exceeds threshold, but coolest route mean 34.1C stays under it (dose 38).","safe_until_hour":null}},{"type":"Feature","geometry":{"type":"Polygon","coordinates":[[[-81.4415,28.59],[-81.43715,28.59],[-81.43715,28.59445],[-81.4415,28.59445],[-81.4415,28.59]]]},"properties":{"block_id":"FIXTURE-0804","school_id":"sch_fixture_east","kids_est":37,"class":"green","shortest":{"len_m":1609.7,"mean_c":36.71,"peak_c":37.91,"dose":82.9},"coolest":{"len_m":2009.7,"mean_c":34.0,"peak_c":35.0,"dose":28.0},"delta_mean_c":-2.71,"delta_dose_pct":-66,"distance_mi":0.8,"status_now":"walk","status_rec":"walk","reason":"Shortest route already under threshold (dose 83).","safe_until_hour":null}},{"type":"Feature","geometry":{"type":"Polygon","coordinates":[[[-81.43715,28.59],[-81.4328,28.59],[-81.4328,28.59445],[-81.43715,28.59445],[-81.43715,28.59]]]},"properties":{"block_id":"FIXTURE-0904","school_id":"sch_fixture_east","kids_est":22,"class":"green","shortest":{"len_m":1383.2,"mean_c":37.91,"peak_c":39.11,"dose":94.3},"coolest":{"len_m":1527.3,"mean_c":36.64,"peak_c":37.64,"dose":77.3},"delta_mean_c":-1.27,"delta_dose_pct":-18,"distance_mi":0.688,"status_now":"walk","status_rec":"walk","reason":"Shortest route already under threshold (dose 94).","safe_until_hour":null}},{"type":"Feature","geometry":{"type":"Polygon","coordinates":[[[-81.4328,28.59],[-81.42845,28.59],[-81.42845,28.59445],[-81.4328,28.59445],[-81.4328,28.59]]]},"properties":{"block_id":"FIXTURE-1004","school_id":"sch_fixture_east","kids_est":8,"class":"green","shortest":{"len_m":1341.8,"mean_c":37.75,"peak_c":38.95,"dose":88.5},"coolest":{"len_m":1499.2,"mean_c":36.29,"peak_c":37.29,"dose":68.6},"delta_mean_c":-1.46,"delta_dose_pct":-22,"distance_mi":0.667,"status_now":"walk","status_rec":"walk","reason":"Shortest route already under threshold (dose 88).","safe_until_hour":null}},{"type":"Feature","geometry":{"type":"Polygon","coordinates":[[[-81.42845,28.59],[-81.4241,28.59],[-81.4241,28.59445],[-81.42845,28.59445],[-81.42845,28.59]]]},"properties":{"block_id":"FIXTURE-1104","school_id":"sch_fixture_east","kids_est":13,"class":"green","shortest":{"len_m":1500.8,"mean_c":37.83,"peak_c":39.03,"dose":100.7},"coolest":{"len_m":1644.8,"mean_c":36.73,"peak_c":37.73,"dose":85.3},"delta_mean_c":-1.1,"delta_dose_pct":-15,"distance_mi":0.746,"status_now":"walk","status_rec":"walk","reason":"Shortest route already under threshold (dose 101).","safe_until_hour":null}},{"type":"Feature","geometry":{"type":"Polygon","coordinates":[[[-81.45455,28.59445],[-81.4502,28.59445],[-81.4502,28.5989],[-81.45455,28.5989],[-81.45455,28.59445]]]},"properties":{"block_id":"FIXTURE-0505","school_id":"sch_fixture_east","kids_est":8,"class":"green","shortest":{"len_m":2598.8,"mean_c":35.99,"peak_c":37.19,"dose":107.9},"coolest":{"len_m":3274.5,"mean_c":33.71,"peak_c":34.71,"dose":32.4},"delta_mean_c":-2.28,"delta_dose_pct":-70,"distance_mi":1.292,"status_now":"walk","status_rec":"walk","reason":"Shortest route already under threshold (dose 108).","safe_until_hour":null}},{"type":"Feature","geometry":{"type":"Polygon","coordinates":[[[-81.4502,28.59445],[-81.44585,28.59445],[-81.44585,28.5989],[-81.4502,28.5989],[-81.4502,28.59445]]]},"properties":{"block_id":"FIXTURE-0605","school_id":"sch_fixture_east","kids_est":36,"class":"green","shortest":{"len_m":2093.1,"mean_c":36.38,"peak_c":37.58,"dose":98.3},"coolest":{"len_m":2612.3,"mean_c":33.92,"peak_c":34.92,"dose":33.4},"delta_mean_c":-2.46,"delta_dose_pct":-66,"distance_mi":1.04,"status_now":"walk","status_rec":"walk","reason":"Shortest route already under threshold (dose 98).","safe_until_hour":null}},{"type":"Feature","geometry":{"type":"Polygon","coordinates":[[[-81.44585,28.59445],[-81.4415,28.59445],[-81.4415,28.5989],[-81.44585,28.5989],[-81.44585,28.59445]]]},"properties":{"block_id":"FIXTURE-0705","school_id":"sch_fixture_east","kids_est":32,"class":"green","shortest":{"len_m":1604.3,"mean_c":36.68,"peak_c":37.88,"dose":82.0},"coolest":{"len_m":1994.0,"mean_c":34.06,"peak_c":35.06,"dose":29.3},"delta_mean_c":-2.62,"delta_dose_pct":-64,"distance_mi":0.797,"status_now":"walk","status_rec":"walk","reason":"Shortest route already under threshold (dose 82).","safe_until_hour":null}},{"type":"Feature","geometry":{"type":"Polygon","coordinates":[[[-81.4415,28.59445],[-81.43715,28.59445],[-81.43715,28.5989],[-81.4415,28.5989],[-81.4415,28.59445]]]},"properties":{"block_id":"FIXTURE-0805","school_id":"sch_fixture_east","kids_est":22,"class":"green","shortest":{"len_m":1153.7,"mean_c":37.22,"peak_c":38.42,"dose":67.6},"coolest":{"len_m":1451.2,"mean_c":34.03,"peak_c":35.03,"dose":20.7},"delta_mean_c":-3.19,"delta_dose_pct":-69,"distance_mi":0.573,"status_now":"walk","status_rec":"walk","reason":"Shortest route already under threshold (dose 68).","safe_until_hour":null}},{"type":"Feature","geometry":{"type":"Polygon","coordinates":[[[-81.43715,28.59445],[-81.4328,28.59445],[-81.4328,28.5989],[-81.43715,28.5989],[-81.43715,28.59445]]]},"properties":{"block_id":"FIXTURE-0905","school_id":"sch_fixture_east","kids_est":32,"class":"green","shortest":{"len_m":808.1,"mean_c":37.16,"peak_c":38.36,"dose":46.7},"coolest":{"len_m":892.0,"mean_c":36.09,"peak_c":37.09,"dose":38.3},"delta_mean_c":-1.07,"delta_dose_pct":-18,"distance_mi":0.402,"status_now":"walk","status_rec":"walk","reason":"Shortest route already under threshold (dose 47).","safe_until_hour":null}},{"type":"Feature","geometry":{"type":"Polygon","coordinates":[[[-81.4328,28.59445],[-81.42845,28.59445],[-81.42845,28.5989],[-81.4328,28.5989],[-81.4328,28.59445]]]},"properties":{"block_id":"FIXTURE-1005","school_id":"sch_fixture_east","kids_est":40,"class":"green","shortest":{"len_m":734.9,"mean_c":38.06,"peak_c":39.26,"dose":51.6},"coolest":{"len_m":824.3,"mean_c":36.43,"peak_c":37.43,"dose":39.3},"delta_mean_c":-1.63,"delta_dose_pct":-24,"distance_mi":0.365,"status_now":"walk","status_rec":"walk","reason":"Shortest route already under threshold (dose 52).","safe_until_hour":null}},{"type":"Feature","geometry":{"type":"Polygon","coordinates":[[[-81.42845,28.59445],[-81.4241,28.59445],[-81.4241,28.5989],[-81.42845,28.5989],[-81.42845,28.59445]]]},"properties":{"block_id":"FIXTURE-1105","school_id":"sch_fixture_east","kids_est":7,"class":"green","shortest":{"len_m":996.0,"mean_c":37.45,"peak_c":38.65,"dose":61.6},"coolest":{"len_m":1097.4,"mean_c":36.35,"peak_c":37.35,"dose":51.0},"delta_mean_c":-1.1,"delta_dose_pct":-17,"distance_mi":0.495,"status_now":"walk","status_rec":"walk","reason":"Shortest route already under threshold (dose 62).","safe_until_hour":null}},{"type":"Feature","geometry":{"type":"Polygon","coordinates":[[[-81.45455,28.5989],[-81.4502,28.5989],[-81.4502,28.60335],[-81.45455,28.60335],[-81.45455,28.5989]]]},"properties":{"block_id":"FIXTURE-0506","school_id":"sch_fixture_east","kids_est":11,"class":"yellow","shortest":{"len_m":2499.9,"mean_c":36.24,"peak_c":37.44,"dose":112.5},"coolest":{"len_m":3114.0,"mean_c":33.9,"peak_c":34.9,"dose":39.1},"delta_mean_c":-2.34,"delta_dose_pct":-65,"distance_mi":1.243,"status_now":"walk","status_rec":"reroute","reason":"Shortest route exceeds threshold, but coolest route mean 33.9C stays under it (dose 39).","safe_until_hour":null}},{"type":"Feature","geometry":{"type":"Polygon","coordinates":[[[-81.4502,28.5989],[-81.44585,28.5989],[-81.44585,28.60335],[-81.4502,28.60335],[-81.4502,28.5989]]]},"properties":{"block_id":"FIXTURE-0606","school_id":"sch_fixture_east","kids_est":44,"class":"green","shortest":{"len_m":1969.0,"mean_c":36.99,"peak_c":38.19,"dose":109.1},"coolest":{"len_m":2444.6,"mean_c":34.16,"peak_c":35.16,"dose":39.4},"delta_mean_c":-2.83,"delta_dose_pct":-64,"distance_mi":0.979,"status_now":"walk","status_rec":"walk","reason":"Shortest route already under threshold (dose 109).","safe_until_hour":null}},{"type":"Feature","geometry":{"type":"Polygon","coordinates":[[[-81.44585,28.5989],[-81.4415,28.5989],[-81.4415,28.60335],[-81.44585,28.60335],[-81.44585,28.5989]]]},"properties":{"block_id":"FIXTURE-0706","school_id":"sch_fixture_east","kids_est":25,"class":"green","shortest":{"len_m":1438.5,"mean_c":36.56,"peak_c":37.76,"dose":71.1},"coolest":{"len_m":1787.4,"mean_c":34.03,"peak_c":35.03,"dose":25.5},"delta_mean_c":-2.53,"delta_dose_pct":-64,"distance_mi":0.715,"status_now":"walk","status_rec":"walk","reason":"Shortest route already under threshold (dose 71).","safe_until_hour":null}},{"type":"Feature","geometry":{"type":"Polygon","coordinates":[[[-81.4415,28.5989],[-81.43715,28.5989],[-81.43715,28.60335],[-81.4415,28.60335],[-81.4415,28.5989]]]},"properties":{"block_id":"FIXTURE-0806","school_id":"sch_fixture_east","kids_est":28,"class":"green","shortest":{"len_m":909.2,"mean_c":36.55,"peak_c":37.75,"dose":44.8},"coolest":{"len_m":1130.5,"mean_c":34.01,"peak_c":35.01,"dose":15.9},"delta_mean_c":-2.54,"delta_dose_pct":-65,"distance_mi":0.452,"status_now":"walk","status_rec":"walk","reason":"Shortest route already under threshold (dose 45).","safe_until_hour":null}},{"type":"Feature","geometry":{"type":"Polygon","coordinates":[[[-81.43715,28.5989],[-81.4328,28.5989],[-81.4328,28.60335],[-81.43715,28.60335],[-81.43715,28.5989]]]},"properties":{"block_id":"FIXTURE-0906","school_id":"sch_fixture_east","kids_est":30,"class":"green","shortest":{"len_m":385.9,"mean_c":38.08,"peak_c":39.28,"dose":27.2},"coolest":{"len_m":427.1,"mean_c":36.73,"peak_c":37.73,"dose":22.1},"delta_mean_c":-1.35,"delta_dose_pct":-19,"distance_mi":0.192,"status_now":"walk","status_rec":"walk","reason":"Shortest route already under threshold (dose 27).","safe_until_hour":null}},{"type":"Feature","geometry":{"type":"Polygon","coordinates":[[[-81.4328,28.5989],[-81.42845,28.5989],[-81.42845,28.60335],[-81.4328,28.60335],[-81.4328,28.5989]]]},"properties":{"block_id":"FIXTURE-1006","school_id":"sch_fixture_east","kids_est":36,"class":"green","shortest":{"len_m":189.6,"mean_c":37.87,"peak_c":39.07,"dose":12.8},"coolest":{"len_m":209.5,"mean_c":36.57,"peak_c":37.57,"dose":10.4},"delta_mean_c":-1.3,"delta_dose_pct":-19,"distance_mi":0.094,"status_now":"walk","status_rec":"walk","reason":"Shortest route already under threshold (dose 13).","safe_until_hour":null}},{"type":"Feature","geometry":{"type":"Polygon","coordinates":[[[-81.42845,28.5989],[-81.4241,28.5989],[-81.4241,28.60335],[-81.42845,28.60335],[-81.42845,28.5989]]]},"properties":{"block_id":"FIXTURE-1106","school_id":"sch_fixture_east","kids_est":32,"class":"green","shortest":{"len_m":698.4,"mean_c":37.54,"peak_c":38.74,"dose":44.0},"coolest":{"len_m":771.6,"mean_c":36.36,"peak_c":37.36,"dose":36.0},"delta_mean_c":-1.18,"delta_dose_pct":-18,"distance_mi":0.347,"status_now":"walk","status_rec":"walk","reason":"Shortest route already under threshold (dose 44).","safe_until_hour":null}},{"type":"Feature","geometry":{"type":"Polygon","coordinates":[[[-81.4589,28.60335],[-81.45455,28.60335],[-81.45455,28.6078],[-81.4589,28.6078],[-81.4589,28.60335]]]},"properties":{"block_id":"FIXTURE-0407","school_id":"sch_fixture_east","kids_est":34,"class":"green","shortest":{"len_m":3072.2,"mean_c":35.53,"peak_c":36.73,"dose":108.0},"coolest":{"len_m":3864.9,"mean_c":33.62,"peak_c":34.62,"dose":33.1},"delta_mean_c":-1.91,"delta_dose_pct":-69,"distance_mi":1.527,"status_now":"walk","status_rec":"walk","reason":"Shortest route already under threshold (dose 108).","safe_until_hour":null}},{"type":"Feature","geometry":{"type":"Polygon","coordinates":[[[-81.45455,28.60335],[-81.4502,28.60335],[-81.4502,28.6078],[-81.45455,28.6078],[-81.45455,28.60335]]]},"properties":{"block_id":"FIXTURE-0507","school_id":"sch_fixture_east","kids_est":15,"class":"green","shortest":{"len_m":2549.7,"mean_c":35.51,"peak_c":36.71,"dose":88.9},"coolest":{"len_m":3149.4,"mean_c":33.78,"peak_c":34.78,"dose":34.0},"delta_mean_c":-1.73,"delta_dose_pct":-62,"distance_mi":1.267,"status_now":"walk","status_rec":"walk","reason":"Shortest route already under threshold (dose 89).","safe_until_hour":null}},{"type":"Feature","geometry":{"type":"Polygon","coordinates":[[[-81.4502,28.60335],[-81.44585,28.60335],[-81.44585,28.6078],[-81.4502,28.6078],[-81.4502,28.60335]]]},"properties":{"block_id":"FIXTURE-0607","school_id":"sch_fixture_east","kids_est":34,"class":"green","shortest":{"len_m":2031.9,"mean_c":36.47,"peak_c":37.67,"dose":97.9},"coolest":{"len_m":2534.4,"mean_c":33.95,"peak_c":34.95,"dose":33.5},"delta_mean_c":-2.52,"delta_dose_pct":-66,"distance_mi":1.01,"status_now":"walk","status_rec":"walk","reason":"Shortest route already under threshold (dose 98).","safe_until_hour":null}},{"type":"Feature","geometry":{"type":"Polygon","coordinates":[[[-81.44585,28.60335],[-81.4415,28.60335],[-81.4415,28.6078],[-81.44585,28.6078],[-81.44585,28.60335]]]},"properties":{"block_id":"FIXTURE-0707","school_id":"sch_fixture_east","kids_est":26,"class":"green","shortest":{"len_m":1523.6,"mean_c":37.36,"peak_c":38.56,"dose":92.3},"coolest":{"len_m":1876.9,"mean_c":34.39,"peak_c":35.39,"dose":36.3},"delta_mean_c":-2.97,"delta_dose_pct":-61,"distance_mi":0.757,"status_now":"walk","status_rec":"walk","reason":"Shortest route already under threshold (dose 92).","safe_until_hour":null}},{"type":"Feature","geometry":{"type":"Polygon","coordinates":[[[-81.4415,28.60335],[-81.43715,28.60335],[-81.43715,28.6078],[-81.4415,28.6078],[-81.4415,28.60335]]]},"properties":{"block_id":"FIXTURE-0807","school_id":"sch_fixture_east","kids_est":38,"class":"green","shortest":{"len_m":1038.6,"mean_c":37.49,"peak_c":38.69,"dose":64.8},"coolest":{"len_m":1278.9,"mean_c":34.44,"peak_c":35.44,"dose":25.6},"delta_mean_c":-3.05,"delta_dose_pct":-60,"distance_mi":0.516,"status_now":"walk","status_rec":"walk","reason":"Shortest route already under threshold (dose 65).","safe_until_hour":null}},{"type":"Feature","geometry":{"type":"Polygon","coordinates":[[[-81.43715,28.60335],[-81.4328,28.60335],[-81.4328,28.6078],[-81.43715,28.6078],[-81.43715,28.60335]]]},"properties":{"block_id":"FIXTURE-0907","school_id":"sch_fixture_east","kids_est":35,"class":"green","shortest":{"len_m":633.2,"mean_c":37.15,"peak_c":38.35,"dose":36.5},"coolest":{"len_m":795.5,"mean_c":34.03,"peak_c":35.03,"dose":11.4},"delta_mean_c":-3.12,"delta_dose_pct":-69,"distance_mi":0.315,"status_now":"walk","status_rec":"walk","reason":"Shortest route already under threshold (dose 36).","safe_until_hour":null}},{"type":"Feature","geometry":{"type":"Polygon","coordinates":[[[-81.4328,28.60335],[-81.42845,28.60335],[-81.42845,28.6078],[-81.4328,28.6078],[-81.4328,28.60335]]]},"properties":{"block_id":"FIXTURE-1007","school_id":"sch_fixture_east","kids_est":9,"class":"green","shortest":{"len_m":536.6,"mean_c":37.83,"peak_c":39.03,"dose":36.0},"coolest":{"len_m":597.3,"mean_c":36.42,"peak_c":37.42,"dose":28.4},"delta_mean_c":-1.41,"delta_dose_pct":-21,"distance_mi":0.267,"status_now":"walk","status_rec":"walk","reason":"Shortest route already under threshold (dose 36).","safe_until_hour":null}},{"type":"Feature","geometry":{"type":"Polygon","coordinates":[[[-81.42845,28.60335],[-81.4241,28.60335],[-81.4241,28.6078],[-81.42845,28.6078],[-81.42845,28.60335]]]},"properties":{"block_id":"FIXTURE-1107","school_id":"sch_fixture_east","kids_est":44,"class":"green","shortest":{"len_m":860.1,"mean_c":38.15,"peak_c":39.35,"dose":61.5},"coolest":{"len_m":948.3,"mean_c":36.85,"peak_c":37.85,"dose":50.7},"delta_mean_c":-1.3,"delta_dose_pct":-18,"distance_mi":0.428,"status_now":"walk","status_rec":"walk","reason":"Shortest route already under threshold (dose 62).","safe_until_hour":null}},{"type":"Feature","geometry":{"type":"Polygon","coordinates":[[[-81.4589,28.6078],[-81.45455,28.6078],[-81.45455,28.61225],[-81.4589,28.61225],[-81.4589,28.6078]]]},"properties":{"block_id":"FIXTURE-0408","school_id":"sch_fixture_east","kids_est":32,"class":"green","shortest":{"len_m":3232.0,"mean_c":35.09,"peak_c":36.29,"dose":93.8},"coolest":{"len_m":3571.3,"mean_c":34.54,"peak_c":35.54,"dose":76.6},"delta_mean_c":-0.55,"delta_dose_pct":-18,"distance_mi":1.607,"status_now":"walk","status_rec":"walk","reason":"Shortest route already under threshold (dose 94).","safe_until_hour":null}},{"type":"Feature","geometry":{"type":"Polygon","coordinates":[[[-81.45455,28.6078],[-81.4502,28.6078],[-81.4502,28.61225],[-81.45455,28.61225],[-81.45455,28.6078]]]},"properties":{"block_id":"FIXTURE-0508","school_id":"sch_fixture_east","kids_est":30,"class":"yellow","shortest":{"len_m":2740.2,"mean_c":36.7,"peak_c":37.9,"dose":140.8},"coolest":{"len_m":3434.1,"mean_c":33.95,"peak_c":34.95,"dose":45.4},"delta_mean_c":-2.75,"delta_dose_pct":-68,"distance_mi":1.362,"status_now":"walk","status_rec":"reroute","reason":"Shortest route exceeds threshold, but coolest route mean 34.0C stays under it (dose 45).","safe_until_hour":null}},{"type":"Feature","geometry":{"type":"Polygon","coordinates":[[[-81.4502,28.6078],[-81.44585,28.6078],[-81.44585,28.61225],[-81.4502,28.61225],[-81.4502,28.6078]]]},"properties":{"block_id":"FIXTURE-0608","school_id":"sch_fixture_east","kids_est":6,"class":"green","shortest":{"len_m":2266.4,"mean_c":36.34,"peak_c":37.54,"dose":105.1},"coolest":{"len_m":2829.6,"mean_c":33.91,"peak_c":34.91,"dose":35.6},"delta_mean_c":-2.43,"delta_dose_pct":-66,"distance_mi":1.127,"status_now":"walk","status_rec":"walk","reason":"Shortest route already under threshold (dose 105).","safe_until_hour":null}},{"type":"Feature","geometry":{"type":"Polygon","coordinates":[[[-81.44585,28.6078],[-81.4415,28.6078],[-81.4415,28.61225],[-81.44585,28.61225],[-81.44585,28.6078]]]},"properties":{"block_id":"FIXTURE-0708","school_id":"sch_fixture_east","kids_est":12,"class":"green","shortest":{"len_m":1824.7,"mean_c":36.23,"peak_c":37.43,"dose":81.9},"coolest":{"len_m":2297.9,"mean_c":33.77,"peak_c":34.77,"dose":24.7},"delta_mean_c":-2.46,"delta_dose_pct":-70,"distance_mi":0.907,"status_now":"walk","status_rec":"walk","reason":"Shortest route already under threshold (dose 82).","safe_until_hour":null}},{"type":"Feature","geometry":{"type":"Polygon","coordinates":[[[-81.4415,28.6078],[-81.43715,28.6078],[-81.43715,28.61225],[-81.4415,28.61225],[-81.4415,28.6078]]]},"properties":{"block_id":"FIXTURE-0808","school_id":"sch_fixture_east","kids_est":42,"class":"green","shortest":{"len_m":1444.6,"mean_c":36.65,"peak_c":37.85,"dose":73.2},"coolest":{"len_m":1794.7,"mean_c":34.06,"peak_c":35.06,"dose":26.3},"delta_mean_c":-2.59,"delta_dose_pct":-64,"distance_mi":0.718,"status_now":"walk","status_rec":"walk","reason":"Shortest route already under threshold (dose 73).","safe_until_hour":null}},{"type":"Feature","geometry":{"type":"Polygon","coordinates":[[[-81.43715,28.6078],[-81.4328,28.6078],[-81.4328,28.61225],[-81.43715,28.61225],[-81.43715,28.6078]]]},"properties":{"block_id":"FIXTURE-0908","school_id":"sch_fixture_east","kids_est":8,"class":"green","shortest":{"len_m":1187.0,"mean_c":38.03,"peak_c":39.23,"dose":82.9},"coolest":{"len_m":1307.3,"mean_c":36.78,"peak_c":37.78,"dose":68.7},"delta_mean_c":-1.25,"delta_dose_pct":-17,"distance_mi":0.59,"status_now":"walk","status_rec":"walk","reason":"Shortest route already under threshold (dose 83).","safe_until_hour":null}},{"type":"Feature","geometry":{"type":"Polygon","coordinates":[[[-81.4328,28.6078],[-81.42845,28.6078],[-81.42845,28.61225],[-81.4328,28.61225],[-81.4328,28.6078]]]},"properties":{"block_id":"FIXTURE-1008","school_id":"sch_fixture_east","kids_est":29,"class":"green","shortest":{"len_m":1138.4,"mean_c":37.88,"peak_c":39.08,"dose":77.2},"coolest":{"len_m":1279.2,"mean_c":36.28,"peak_c":37.28,"dose":58.2},"delta_mean_c":-1.6,"delta_dose_pct":-25,"distance_mi":0.566,"status_now":"walk","status_rec":"walk","reason":"Shortest route already under threshold (dose 77).","safe_until_hour":null}},{"type":"Feature","geometry":{"type":"Polygon","coordinates":[[[-81.42845,28.6078],[-81.4241,28.6078],[-81.4241,28.61225],[-81.42845,28.61225],[-81.42845,28.6078]]]},"properties":{"block_id":"FIXTURE-1108","school_id":"sch_fixture_east","kids_est":12,"class":"green","shortest":{"len_m":1322.1,"mean_c":37.74,"peak_c":38.94,"dose":87.0},"coolest":{"len_m":1480.9,"mean_c":36.24,"peak_c":37.24,"dose":66.7},"delta_mean_c":-1.5,"delta_dose_pct":-23,"distance_mi":0.657,"status_now":"walk","status_rec":"walk","reason":"Shortest route already under threshold (dose 87).","safe_until_hour":null}},{"type":"Feature","geometry":{"type":"Polygon","coordinates":[[[-81.46325,28.61225],[-81.4589,28.61225],[-81.4589,28.6167],[-81.46325,28.6167],[-81.46325,28.61225]]]},"properties":{"block_id":"FIXTURE-0309","school_id":"sch_fixture_east","kids_est":22,"class":"red","shortest":{"len_m":3963.8,"mean_c":35.52,"peak_c":36.72,"dose":138.7},"coolest":{"len_m":4335.0,"mean_c":34.97,"peak_c":35.97,"dose":118.5},"delta_mean_c":-0.55,"delta_dose_pct":-15,"distance_mi":1.97,"status_now":"walk","status_rec":"bus_eligible","reason":"Coolest route mean 35.0C exceeds threshold (110 C-min dose, actual 118).","safe_until_hour":"14:00"}},{"type":"Feature","geometry":{"type":"Polygon","coordinates":[[[-81.4589,28.61225],[-81.45455,28.61225],[-81.45455,28.6167],[-81.4589,28.6167],[-81.4589,28.61225]]]},"properties":{"block_id":"FIXTURE-0409","school_id":"sch_fixture_east","kids_est":17,"class":"yellow","shortest":{"len_m":3494.3,"mean_c":35.64,"peak_c":36.84,"dose":128.1},"coolest":{"len_m":4365.2,"mean_c":33.71,"peak_c":34.71,"dose":43.0},"delta_mean_c":-1.93,"delta_dose_pct":-66,"distance_mi":1.737,"status_now":"walk","status_rec":"reroute","reason":"Shortest route exceeds threshold, but coolest route mean 33.7C stays under it (dose 43).","safe_until_hour":null}},{"type":"Feature","geometry":{"type":"Polygon","coordinates":[[[-81.45455,28.61225],[-81.4502,28.61225],[-81.4502,28.6167],[-81.45455,28.6167],[-81.45455,28.61225]]]},"properties":{"block_id":"FIXTURE-0509","school_id":"sch_fixture_east","kids_est":17,"class":"yellow","shortest":{"len_m":3045.2,"mean_c":35.86,"peak_c":37.06,"dose":121.0},"coolest":{"len_m":3788.7,"mean_c":33.81,"peak_c":34.81,"dose":42.7},"delta_mean_c":-2.05,"delta_dose_pct":-65,"distance_mi":1.514,"status_now":"walk","status_rec":"reroute","reason":"Shortest route exceeds threshold, but coolest route mean 33.8C stays under it (dose 43).","safe_until_hour":null}},{"type":"Feature","geometry":{"type":"Polygon","coordinates":[[[-81.4502,28.61225],[-81.44585,28.61225],[-81.44585,28.6167],[-81.4502,28.6167],[-81.4502,28.61225]]]},"properties":{"block_id":"FIXTURE-0609","school_id":"sch_fixture_east","kids_est":19,"class":"yellow","shortest":{"len_m":2627.0,"mean_c":36.02,"peak_c":37.22,"dose":110.2},"coolest":{"len_m":3271.9,"mean_c":33.85,"peak_c":34.85,"dose":38.4},"delta_mean_c":-2.17,"delta_dose_pct":-65,"distance_mi":1.306,"status_now":"walk","status_rec":"reroute","reason":"Shortest route exceeds threshold, but coolest route mean 33.9C stays under it (dose 38).","safe_until_hour":null}},{"type":"Feature","geometry":{"type":"Polygon","coordinates":[[[-81.44585,28.61225],[-81.4415,28.61225],[-81.4415,28.6167],[-81.44585,28.6167],[-81.44585,28.61225]]]},"properties":{"block_id":"FIXTURE-0709","school_id":"sch_fixture_east","kids_est":35,"class":"yellow","shortest":{"len_m":2256.9,"mean_c":37.0,"peak_c":38.2,"dose":125.4},"coolest":{"len_m":2779.3,"mean_c":34.28,"peak_c":35.28,"dose":49.5},"delta_mean_c":-2.72,"delta_dose_pct":-61,"distance_mi":1.122,"status_now":"walk","status_rec":"reroute","reason":"Shortest route exceeds threshold, but coolest route mean 34.3C stays under it (dose 50).","safe_until_hour":null}},{"type":"Feature","geometry":{"type":"Polygon","coordinates":[[[-81.4415,28.61225],[-81.43715,28.61225],[-81.43715,28.6167],[-81.4415,28.6167],[-81.4415,28.61225]]]},"properties":{"block_id":"FIXTURE-0809","school_id":"sch_fixture_east","kids_est":25,"class":"green","shortest":{"len_m":1962.4,"mean_c":36.97,"peak_c":38.17,"dose":108.2},"coolest":{"len_m":2414.0,"mean_c":34.29,"peak_c":35.29,"dose":43.2},"delta_mean_c":-2.68,"delta_dose_pct":-60,"distance_mi":0.976,"status_now":"walk","status_rec":"walk","reason":"Shortest route already under threshold (dose 108).","safe_until_hour":null}},{"type":"Feature","geometry":{"type":"Polygon","coordinates":[[[-81.43715,28.61225],[-81.4328,28.61225],[-81.4328,28.6167],[-81.43715,28.6167],[-81.43715,28.61225]]]},"properties":{"block_id":"FIXTURE-0909","school_id":"sch_fixture_east","kids_est":33,"class":"yellow","shortest":{"len_m":1781.4,"mean_c":37.62,"peak_c":38.82,"dose":114.3},"coolest":{"len_m":2001.1,"mean_c":36.11,"peak_c":37.11,"dose":86.4},"delta_mean_c":-1.51,"delta_dose_pct":-24,"distance_mi":0.886,"status_now":"walk","status_rec":"reroute","reason":"Shortest route exceeds threshold, but coolest route mean 36.1C stays under it (dose 86).","safe_until_hour":null}},{"type":"Feature","geometry":{"type":"Polygon","coordinates":[[[-81.4328,28.61225],[-81.42845,28.61225],[-81.42845,28.6167],[-81.4328,28.6167],[-81.4328,28.61225]]]},"properties":{"block_id":"FIXTURE-1009","school_id":"sch_fixture_east","kids_est":12,"class":"yellow","shortest":{"len_m":1749.4,"mean_c":38.07,"peak_c":39.27,"dose":123.2},"coolest":{"len_m":1954.6,"mean_c":36.52,"peak_c":37.52,"dose":95.6},"delta_mean_c":-1.55,"delta_dose_pct":-22,"distance_mi":0.87,"status_now":"walk","status_rec":"reroute","reason":"Shortest route exceeds threshold, but coolest route mean 36.5C stays under it (dose 96).","safe_until_hour":null}},{"type":"Feature","geometry":{"type":"Polygon","coordinates":[[[-81.42845,28.61225],[-81.4241,28.61225],[-81.4241,28.6167],[-81.42845,28.6167],[-81.42845,28.61225]]]},"properties":{"block_id":"FIXTURE-1109","school_id":"sch_fixture_east","kids_est":7,"class":"red","shortest":{"len_m":1874.1,"mean_c":38.37,"peak_c":39.57,"dose":139.8},"coolest":{"len_m":2063.8,"mean_c":37.04,"peak_c":38.04,"dose":115.9},"delta_mean_c":-1.33,"delta_dose_pct":-17,"distance_mi":0.932,"status_now":"walk","status_rec":"bus_eligible","reason":"Coolest route mean 37.0C exceeds threshold (110 C-min dose, actual 116).","safe_until_hour":"14:00"}}]}