{"type":"FeatureCollection","features":[{"type":"Feature","geometry":{"type":"Polygon","coordinates":[[[-81.4763,28.56775],[-81.4676,28.56775],[-81.4676,28.5811],[-81.4763,28.5811],[-81.4763,28.56775]]]},"properties":{"block_id":"120951230001003","school_id":"sch_hiawassee_elementary","kids_est":37,"class":"green","shortest":{"len_m":964.9,"mean_c":34.99,"peak_c":36.19,"dose":26.7},"coolest":{"len_m":1067.1,"mean_c":34.46,"peak_c":35.46,"dose":21.7},"delta_mean_c":-0.53,"delta_dose_pct":-19,"distance_mi":0.48,"status_now":"walk","status_rec":"walk","reason":"Shortest route already under threshold (dose 27).","safe_until_hour":null}}]}