{"type":"FeatureCollection","features":[{"type":"Feature","geometry":{"type":"Polygon","coordinates":[[[-81.468,28.5548],[-81.454,28.5548],[-81.454,28.5744],[-81.468,28.5744],[-81.468,28.5548]]]},"properties":{"block_id":"120951233001003","school_id":"sch_pine_hills_elementary","kids_est":43,"class":"green","shortest":{"len_m":636.6,"mean_c":34.9,"peak_c":36.1,"dose":16.8},"coolest":{"len_m":700.7,"mean_c":34.44,"peak_c":35.44,"dose":14.0},"delta_mean_c":-0.46,"delta_dose_pct":-17,"distance_mi":0.316,"status_now":"walk","status_rec":"walk","reason":"Shortest route already under threshold (dose 17).","safe_until_hour":null}}]}