{"type":"FeatureCollection","features":[{"type":"Feature","geometry":{"type":"Polygon","coordinates":[[[-81.3893,28.5277],[-81.3806,28.5277],[-81.3806,28.54105],[-81.3893,28.54105],[-81.3893,28.5277]]]},"properties":{"block_id":"120951240001000","school_id":"sch_lake_eola_charter","kids_est":26,"class":"yellow","shortest":{"len_m":1670.9,"mean_c":37.78,"peak_c":38.98,"dose":110.9},"coolest":{"len_m":1869.4,"mean_c":36.29,"peak_c":37.29,"dose":85.5},"delta_mean_c":-1.49,"delta_dose_pct":-23,"distance_mi":0.831,"status_now":"walk","status_rec":"reroute","reason":"Shortest route exceeds threshold, but coolest route mean 36.3C stays under it (dose 86).","safe_until_hour":null}},{"type":"Feature","geometry":{"type":"Polygon","coordinates":[[[-81.3806,28.5277],[-81.3719,28.5277],[-81.3719,28.54105],[-81.3806,28.54105],[-81.3806,28.5277]]]},"properties":{"block_id":"120951241001000","school_id":"sch_lake_eola_charter","kids_est":44,"class":"green","shortest":{"len_m":1374.3,"mean_c":38.19,"peak_c":39.39,"dose":99.1},"coolest":{"len_m":1534.0,"mean_c":36.62,"peak_c":37.62,"dose":77.2},"delta_mean_c":-1.57,"delta_dose_pct":-22,"distance_mi":0.683,"status_now":"walk","status_rec":"walk","reason":"Shortest route already under threshold (dose 99).","safe_until_hour":null}},{"type":"Feature","geometry":{"type":"Polygon","coordinates":[[[-81.3806,28.54105],[-81.3719,28.54105],[-81.3719,28.5544],[-81.3806,28.5544],[-81.3806,28.54105]]]},"properties":{"block_id":"120951241001001","school_id":"sch_lake_eola_charter","kids_est":20,"class":"green","shortest":{"len_m":486.4,"mean_c":37.67,"peak_c":38.87,"dose":31.6},"coolest":{"len_m":535.0,"mean_c":36.55,"peak_c":37.55,"dose":26.4},"delta_mean_c":-1.12,"delta_dose_pct":-16,"distance_mi":0.242,"status_now":"walk","status_rec":"walk","reason":"Shortest route already under threshold (dose 32).","safe_until_hour":null}}]}