{"type":"FeatureCollection","features":[{"type":"Feature","geometry":{"type":"Polygon","coordinates":[[[-81.398,28.5744],[-81.384,28.5744],[-81.384,28.594],[-81.398,28.594],[-81.398,28.5744]]]},"properties":{"block_id":"120951238001004","school_id":"sch_edgewater_high","kids_est":37,"class":"green","shortest":{"len_m":316.1,"mean_c":36.71,"peak_c":37.91,"dose":16.3},"coolest":{"len_m":394.6,"mean_c":34.0,"peak_c":35.0,"dose":5.5},"delta_mean_c":-2.71,"delta_dose_pct":-66,"distance_mi":0.157,"status_now":"walk","status_rec":"walk","reason":"Shortest route already under threshold (dose 16).","safe_until_hour":null}}]}