{"type":"FeatureCollection","features":[{"type":"Feature","geometry":{"type":"Polygon","coordinates":[[[-81.4676,28.5277],[-81.4589,28.5277],[-81.4589,28.54105],[-81.4676,28.54105],[-81.4676,28.5277]]]},"properties":{"block_id":"120951231001000","school_id":"sch_orlo_vista_elementary","kids_est":7,"class":"green","shortest":{"len_m":1131.5,"mean_c":35.32,"peak_c":36.52,"dose":36.5},"coolest":{"len_m":1241.6,"mean_c":34.78,"peak_c":35.78,"dose":30.7},"delta_mean_c":-0.54,"delta_dose_pct":-16,"distance_mi":0.562,"status_now":"walk","status_rec":"walk","reason":"Shortest route already under threshold (dose 36).","safe_until_hour":null}},{"type":"Feature","geometry":{"type":"Polygon","coordinates":[[[-81.4589,28.5277],[-81.4502,28.5277],[-81.4502,28.54105],[-81.4589,28.54105],[-81.4589,28.5277]]]},"properties":{"block_id":"120951232001000","school_id":"sch_orlo_vista_elementary","kids_est":10,"class":"green","shortest":{"len_m":1109.8,"mean_c":34.81,"peak_c":36.01,"dose":27.9},"coolest":{"len_m":1199.1,"mean_c":34.51,"peak_c":35.51,"dose":25.1},"delta_mean_c":-0.3,"delta_dose_pct":-10,"distance_mi":0.552,"status_now":"walk","status_rec":"walk","reason":"Shortest route already under threshold (dose 28).","safe_until_hour":null}},{"type":"Feature","geometry":{"type":"Polygon","coordinates":[[[-81.4676,28.54105],[-81.4589,28.54105],[-81.4589,28.5544],[-81.4676,28.5544],[-81.4676,28.54105]]]},"properties":{"block_id":"120951231001001","school_id":"sch_orlo_vista_elementary","kids_est":28,"class":"green","shortest":{"len_m":1021.9,"mean_c":34.5,"peak_c":35.7,"dose":21.3},"coolest":{"len_m":1121.0,"mean_c":34.16,"peak_c":35.16,"dose":18.0},"delta_mean_c":-0.34,"delta_dose_pct":-15,"distance_mi":0.508,"status_now":"walk","status_rec":"walk","reason":"Shortest route already under threshold (dose 21).","safe_until_hour":null}},{"type":"Feature","geometry":{"type":"Polygon","coordinates":[[[-81.4589,28.54105],[-81.4502,28.54105],[-81.4502,28.5544],[-81.4589,28.5544],[-81.4589,28.54105]]]},"properties":{"block_id":"120951232001001","school_id":"sch_orlo_vista_elementary","kids_est":24,"class":"green","shortest":{"len_m":997.8,"mean_c":35.49,"peak_c":36.69,"dose":34.5},"coolest":{"len_m":1103.6,"mean_c":34.83,"peak_c":35.83,"dose":28.1},"delta_mean_c":-0.66,"delta_dose_pct":-19,"distance_mi":0.496,"status_now":"walk","status_rec":"walk","reason":"Shortest route already under threshold (dose 34).","safe_until_hour":null}}]}