{"type":"FeatureCollection","features":[{"type":"Feature","geometry":{"type":"Polygon","coordinates":[[[-81.3893,28.56775],[-81.3806,28.56775],[-81.3806,28.5811],[-81.3893,28.5811],[-81.3893,28.56775]]]},"properties":{"block_id":"120951240001003","school_id":"sch_princeton_elementary","kids_est":8,"class":"green","shortest":{"len_m":318.8,"mean_c":37.48,"peak_c":38.68,"dose":19.8},"coolest":{"len_m":392.9,"mean_c":34.43,"peak_c":35.43,"dose":7.8},"delta_mean_c":-3.05,"delta_dose_pct":-61,"distance_mi":0.158,"status_now":"walk","status_rec":"walk","reason":"Shortest route already under threshold (dose 20).","safe_until_hour":null}},{"type":"Feature","geometry":{"type":"Polygon","coordinates":[[[-81.3806,28.56775],[-81.3719,28.56775],[-81.3719,28.5811],[-81.3806,28.5811],[-81.3806,28.56775]]]},"properties":{"block_id":"120951241001003","school_id":"sch_princeton_elementary","kids_est":13,"class":"green","shortest":{"len_m":1012.7,"mean_c":37.98,"peak_c":39.18,"dose":70.0},"coolest":{"len_m":1119.6,"mean_c":36.67,"peak_c":37.67,"dose":57.0},"delta_mean_c":-1.31,"delta_dose_pct":-19,"distance_mi":0.503,"status_now":"walk","status_rec":"walk","reason":"Shortest route already under threshold (dose 70).","safe_until_hour":null}}]}