{"type":"FeatureCollection","features":[{"type":"Feature","geometry":{"type":"Polygon","coordinates":[[[-81.4154,28.5277],[-81.4067,28.5277],[-81.4067,28.54105],[-81.4154,28.54105],[-81.4154,28.5277]]]},"properties":{"block_id":"120951237001000","school_id":"sch_orange_center_elementary","kids_est":34,"class":"green","shortest":{"len_m":272.5,"mean_c":37.15,"peak_c":38.35,"dose":15.7},"coolest":{"len_m":336.1,"mean_c":34.31,"peak_c":35.31,"dose":6.1},"delta_mean_c":-2.84,"delta_dose_pct":-61,"distance_mi":0.135,"status_now":"walk","status_rec":"walk","reason":"Shortest route already under threshold (dose 16).","safe_until_hour":null}}]}