{"type":"FeatureCollection","features":[{"type":"Feature","geometry":{"type":"Polygon","coordinates":[[[-81.3893,28.5811],[-81.3806,28.5811],[-81.3806,28.59445],[-81.3893,28.59445],[-81.3893,28.5811]]]},"properties":{"block_id":"120951240001004","school_id":"sch_killarney_elementary","kids_est":8,"class":"green","shortest":{"len_m":1075.1,"mean_c":37.75,"peak_c":38.95,"dose":70.9},"coolest":{"len_m":1201.3,"mean_c":36.3,"peak_c":37.3,"dose":55.0},"delta_mean_c":-1.45,"delta_dose_pct":-22,"distance_mi":0.534,"status_now":"walk","status_rec":"walk","reason":"Shortest route already under threshold (dose 71).","safe_until_hour":null}},{"type":"Feature","geometry":{"type":"Polygon","coordinates":[[[-81.3806,28.5811],[-81.3719,28.5811],[-81.3719,28.59445],[-81.3806,28.59445],[-81.3806,28.5811]]]},"properties":{"block_id":"120951241001004","school_id":"sch_killarney_elementary","kids_est":13,"class":"green","shortest":{"len_m":1316.9,"mean_c":37.83,"peak_c":39.03,"dose":88.3},"coolest":{"len_m":1443.2,"mean_c":36.73,"peak_c":37.73,"dose":74.8},"delta_mean_c":-1.1,"delta_dose_pct":-15,"distance_mi":0.655,"status_now":"walk","status_rec":"walk","reason":"Shortest route already under threshold (dose 88).","safe_until_hour":null}},{"type":"Feature","geometry":{"type":"Polygon","coordinates":[[[-81.3806,28.59445],[-81.3719,28.59445],[-81.3719,28.6078],[-81.3806,28.6078],[-81.3806,28.59445]]]},"properties":{"block_id":"120951241001005","school_id":"sch_killarney_elementary","kids_est":7,"class":"green","shortest":{"len_m":1134.7,"mean_c":37.45,"peak_c":38.65,"dose":70.1},"coolest":{"len_m":1250.2,"mean_c":36.34,"peak_c":37.34,"dose":58.0},"delta_mean_c":-1.11,"delta_dose_pct":-17,"distance_mi":0.564,"status_now":"walk","status_rec":"walk","reason":"Shortest route already under threshold (dose 70).","safe_until_hour":null}}]}