{"type":"FeatureCollection","features":[{"type":"Feature","geometry":{"type":"Polygon","coordinates":[[[-81.426,28.5744],[-81.412,28.5744],[-81.412,28.594],[-81.426,28.594],[-81.426,28.5744]]]},"properties":{"block_id":"120951236001004","school_id":"sch_orlando_science_middle_high_charter","kids_est":14,"class":"green","shortest":{"len_m":1636.7,"mean_c":36.84,"peak_c":38.04,"dose":87.3},"coolest":{"len_m":2018.1,"mean_c":34.21,"peak_c":35.21,"dose":34.0},"delta_mean_c":-2.63,"delta_dose_pct":-61,"distance_mi":0.814,"status_now":"walk","status_rec":"walk","reason":"Shortest route already under threshold (dose 87).","safe_until_hour":null}}]}