{"type":"FeatureCollection","features":[{"type":"Feature","geometry":{"type":"Polygon","coordinates":[[[-81.412,28.5744],[-81.398,28.5744],[-81.398,28.594],[-81.412,28.594],[-81.412,28.5744]]]},"properties":{"block_id":"120951237001004","school_id":"sch_college_park_middle","kids_est":32,"class":"green","shortest":{"len_m":969.5,"mean_c":37.17,"peak_c":38.37,"dose":56.1},"coolest":{"len_m":1211.5,"mean_c":34.12,"peak_c":35.12,"dose":18.8},"delta_mean_c":-3.05,"delta_dose_pct":-66,"distance_mi":0.482,"status_now":"walk","status_rec":"walk","reason":"Shortest route already under threshold (dose 56).","safe_until_hour":null}}]}