{"type":"FeatureCollection","features":[{"type":"Feature","geometry":{"type":"Polygon","coordinates":[[[-81.4763,28.5722],[-81.47195,28.5722],[-81.47195,28.57665],[-81.4763,28.57665],[-81.4763,28.5722]]]},"properties":{"block_id":"FIXTURE-0000","school_id":"sch_fixture_west","kids_est":19,"class":"green","shortest":{"len_m":1449.1,"mean_c":35.01,"peak_c":36.21,"dose":40.5},"coolest":{"len_m":1606.6,"mean_c":34.46,"peak_c":35.46,"dose":32.6},"delta_mean_c":-0.55,"delta_dose_pct":-20,"distance_mi":0.72,"status_now":"walk","status_rec":"walk","reason":"Shortest route already under threshold (dose 40).","safe_until_hour":null}},{"type":"Feature","geometry":{"type":"Polygon","coordinates":[[[-81.47195,28.5722],[-81.4676,28.5722],[-81.4676,28.57665],[-81.47195,28.57665],[-81.47195,28.5722]]]},"properties":{"block_id":"FIXTURE-0100","school_id":"sch_fixture_west","kids_est":7,"class":"green","shortest":{"len_m":1409.6,"mean_c":35.32,"peak_c":36.52,"dose":45.4},"coolest":{"len_m":1546.7,"mean_c":34.78,"peak_c":35.78,"dose":38.2},"delta_mean_c":-0.54,"delta_dose_pct":-16,"distance_mi":0.701,"status_now":"walk","status_rec":"walk","reason":"Shortest route already under threshold (dose 45).","safe_until_hour":null}},{"type":"Feature","geometry":{"type":"Polygon","coordinates":[[[-81.4676,28.5722],[-81.46325,28.5722],[-81.46325,28.57665],[-81.4676,28.57665],[-81.4676,28.5722]]]},"properties":{"block_id":"FIXTURE-0200","school_id":"sch_fixture_west","kids_est":10,"class":"green","shortest":{"len_m":1561.7,"mean_c":34.81,"peak_c":36.01,"dose":39.3},"coolest":{"len_m":1687.3,"mean_c":34.51,"peak_c":35.51,"dose":35.3},"delta_mean_c":-0.3,"delta_dose_pct":-10,"distance_mi":0.776,"status_now":"walk","status_rec":"walk","reason":"Shortest route already under threshold (dose 39).","safe_until_hour":null}},{"type":"Feature","geometry":{"type":"Polygon","coordinates":[[[-81.46325,28.5722],[-81.4589,28.5722],[-81.4589,28.57665],[-81.46325,28.57665],[-81.46325,28.5722]]]},"properties":{"block_id":"FIXTURE-0300","school_id":"sch_fixture_west","kids_est":12,"class":"green","shortest":{"len_m":1859.1,"mean_c":35.4,"peak_c":36.6,"dose":62.0},"coolest":{"len_m":2041.9,"mean_c":34.83,"peak_c":35.83,"dose":52.0},"delta_mean_c":-0.57,"delta_dose_pct":-16,"distance_mi":0.924,"status_now":"walk","status_rec":"walk","reason":"Shortest route already under threshold (dose 62).","safe_until_hour":null}},{"type":"Feature","geometry":{"type":"Polygon","coordinates":[[[-81.4589,28.5722],[-81.45455,28.5722],[-81.45455,28.57665],[-81.4589,28.57665],[-81.4589,28.5722]]]},"properties":{"block_id":"FIXTURE-0400","school_id":"sch_fixture_west","kids_est":15,"class":"green","shortest":{"len_m":2244.6,"mean_c":35.66,"peak_c":36.86,"dose":82.9},"coolest":{"len_m":2788.9,"mean_c":33.77,"peak_c":34.77,"dose":29.7},"delta_mean_c":-1.89,"delta_dose_pct":-64,"distance_mi":1.116,"status_now":"walk","status_rec":"walk","reason":"Shortest route already under threshold (dose 83).","safe_until_hour":null}},{"type":"Feature","geometry":{"type":"Polygon","coordinates":[[[-81.45455,28.5722],[-81.4502,28.5722],[-81.4502,28.57665],[-81.45455,28.57665],[-81.45455,28.5722]]]},"properties":{"block_id":"FIXTURE-0500","school_id":"sch_fixture_west","kids_est":27,"class":"green","shortest":{"len_m":2680.6,"mean_c":35.89,"peak_c":37.09,"dose":107.6},"coolest":{"len_m":3355.7,"mean_c":33.76,"peak_c":34.76,"dose":35.2},"delta_mean_c":-2.13,"delta_dose_pct":-67,"distance_mi":1.333,"status_now":"walk","status_rec":"walk","reason":"Shortest route already under threshold (dose 108).","safe_until_hour":null}},{"type":"Feature","geometry":{"type":"Polygon","coordinates":[[[-81.4502,28.5722],[-81.44585,28.5722],[-81.44585,28.57665],[-81.4502,28.57665],[-81.4502,28.5722]]]},"properties":{"block_id":"FIXTURE-0600","school_id":"sch_fixture_west","kids_est":44,"class":"yellow","shortest":{"len_m":3146.1,"mean_c":36.45,"peak_c":37.65,"dose":150.8},"coolest":{"len_m":3943.4,"mean_c":33.89,"peak_c":34.89,"dose":48.6},"delta_mean_c":-2.56,"delta_dose_pct":-68,"distance_mi":1.564,"status_now":"walk","status_rec":"reroute","reason":"Shortest route exceeds threshold, but coolest route mean 33.9C stays under it (dose 49).","safe_until_hour":null}},{"type":"Feature","geometry":{"type":"Polygon","coordinates":[[[-81.44585,28.5722],[-81.4415,28.5722],[-81.4415,28.57665],[-81.44585,28.57665],[-81.44585,28.5722]]]},"properties":{"block_id":"FIXTURE-0700","school_id":"sch_fixture_west","kids_est":34,"class":"yellow","shortest":{"len_m":3629.8,"mean_c":37.15,"peak_c":38.35,"dose":209.2},"coolest":{"len_m":4477.5,"mean_c":34.31,"peak_c":35.31,"dose":81.2},"delta_mean_c":-2.84,"delta_dose_pct":-61,"distance_mi":1.804,"status_now":"walk","status_rec":"reroute","reason":"Shortest route exceeds threshold, but coolest route mean 34.3C stays under it (dose 81).","safe_until_hour":null}},{"type":"Feature","geometry":{"type":"Polygon","coordinates":[[[-81.4763,28.57665],[-81.47195,28.57665],[-81.47195,28.5811],[-81.4763,28.5811],[-81.4763,28.57665]]]},"properties":{"block_id":"FIXTURE-0001","school_id":"sch_fixture_west","kids_est":6,"class":"green","shortest":{"len_m":869.3,"mean_c":34.63,"peak_c":35.83,"dose":19.7},"coolest":{"len_m":944.7,"mean_c":34.32,"peak_c":35.32,"dose":17.3},"delta_mean_c":-0.31,"delta_dose_pct":-12,"distance_mi":0.432,"status_now":"walk","status_rec":"walk","reason":"Shortest route already under threshold (dose 20).","safe_until_hour":null}},{"type":"Feature","geometry":{"type":"Polygon","coordinates":[[[-81.47195,28.57665],[-81.4676,28.57665],[-81.4676,28.5811],[-81.47195,28.5811],[-81.47195,28.57665]]]},"properties":{"block_id":"FIXTURE-0101","school_id":"sch_fixture_west","kids_est":28,"class":"green","shortest":{"len_m":801.7,"mean_c":34.5,"peak_c":35.7,"dose":16.7},"coolest":{"len_m":879.4,"mean_c":34.15,"peak_c":35.15,"dose":14.1},"delta_mean_c":-0.35,"delta_dose_pct":-16,"distance_mi":0.399,"status_now":"walk","status_rec":"walk","reason":"Shortest route already under threshold (dose 17).","safe_until_hour":null}},{"type":"Feature","geometry":{"type":"Polygon","coordinates":[[[-81.4676,28.57665],[-81.46325,28.57665],[-81.46325,28.5811],[-81.4676,28.5811],[-81.4676,28.57665]]]},"properties":{"block_id":"FIXTURE-0201","school_id":"sch_fixture_west","kids_est":24,"class":"green","shortest":{"len_m":1046.3,"mean_c":35.49,"peak_c":36.69,"dose":36.2},"coolest":{"len_m":1157.1,"mean_c":34.84,"peak_c":35.84,"dose":29.5},"delta_mean_c":-0.65,"delta_dose_pct":-19,"distance_mi":0.52,"status_now":"walk","status_rec":"walk","reason":"Shortest route already under threshold (dose 36).","safe_until_hour":null}},{"type":"Feature","geometry":{"type":"Polygon","coordinates":[[[-81.46325,28.57665],[-81.4589,28.57665],[-81.4589,28.5811],[-81.46325,28.5811],[-81.46325,28.57665]]]},"properties":{"block_id":"FIXTURE-0301","school_id":"sch_fixture_west","kids_est":11,"class":"green","shortest":{"len_m":1453.2,"mean_c":35.54,"peak_c":36.74,"dose":51.3},"coolest":{"len_m":1570.8,"mean_c":35.11,"peak_c":36.11,"dose":46.0},"delta_mean_c":-0.43,"delta_dose_pct":-10,"distance_mi":0.722,"status_now":"walk","status_rec":"walk","reason":"Shortest route already under threshold (dose 51).","safe_until_hour":null}},{"type":"Feature","geometry":{"type":"Polygon","coordinates":[[[-81.4589,28.57665],[-81.45455,28.57665],[-81.45455,28.5811],[-81.4589,28.5811],[-81.4589,28.57665]]]},"properties":{"block_id":"FIXTURE-0401","school_id":"sch_fixture_west","kids_est":32,"class":"green","shortest":{"len_m":1922.0,"mean_c":36.03,"peak_c":37.23,"dose":80.9},"coolest":{"len_m":2094.0,"mean_c":35.42,"peak_c":36.42,"dose":70.3},"delta_mean_c":-0.61,"delta_dose_pct":-13,"distance_mi":0.955,"status_now":"walk","status_rec":"walk","reason":"Shortest route already under threshold (dose 81).","safe_until_hour":null}},{"type":"Feature","geometry":{"type":"Polygon","coordinates":[[[-81.45455,28.57665],[-81.4502,28.57665],[-81.4502,28.5811],[-81.45455,28.5811],[-81.45455,28.57665]]]},"properties":{"block_id":"FIXTURE-0501","school_id":"sch_fixture_west","kids_est":29,"class":"green","shortest":{"len_m":2416.9,"mean_c":36.01,"peak_c":37.21,"dose":101.0},"coolest":{"len_m":3008.4,"mean_c":33.85,"peak_c":34.85,"dose":35.4},"delta_mean_c":-2.16,"delta_dose_pct":-65,"distance_mi":1.201,"status_now":"walk","status_rec":"walk","reason":"Shortest route already under threshold (dose 101).","safe_until_hour":null}},{"type":"Feature","geometry":{"type":"Polygon","coordinates":[[[-81.4502,28.57665],[-81.44585,28.57665],[-81.44585,28.5811],[-81.4502,28.5811],[-81.4502,28.57665]]]},"properties":{"block_id":"FIXTURE-0601","school_id":"sch_fixture_west","kids_est":17,"class":"yellow","shortest":{"len_m":2924.7,"mean_c":36.48,"peak_c":37.68,"dose":141.4},"coolest":{"len_m":3632.7,"mean_c":34.01,"peak_c":35.01,"dose":50.9},"delta_mean_c":-2.47,"delta_dose_pct":-64,"distance_mi":1.454,"status_now":"walk","status_rec":"reroute","reason":"Shortest route exceeds threshold, but coolest route mean 34.0C stays under it (dose 51).","safe_until_hour":null}},{"type":"Feature","geometry":{"type":"Polygon","coordinates":[[[-81.44585,28.57665],[-81.4415,28.57665],[-81.4415,28.5811],[-81.44585,28.5811],[-81.44585,28.57665]]]},"properties":{"block_id":"FIXTURE-0701","school_id":"sch_fixture_west","kids_est":36,"class":"yellow","shortest":{"len_m":3439.6,"mean_c":36.69,"peak_c":37.89,"dose":176.3},"coolest":{"len_m":4287.1,"mean_c":34.02,"peak_c":35.02,"dose":60.9},"delta_mean_c":-2.67,"delta_dose_pct":-65,"distance_mi":1.71,"status_now":"walk","status_rec":"reroute","reason":"Shortest route exceeds threshold, but coolest route mean 34.0C stays under it (dose 61).","safe_until_hour":null}},{"type":"Feature","geometry":{"type":"Polygon","coordinates":[[[-81.4763,28.5811],[-81.47195,28.5811],[-81.47195,28.58555],[-81.4763,28.58555],[-81.4763,28.5811]]]},"properties":{"block_id":"FIXTURE-0002","school_id":"sch_fixture_west","kids_est":7,"class":"green","shortest":{"len_m":409.4,"mean_c":34.31,"peak_c":35.51,"dose":7.4},"coolest":{"len_m":445.3,"mean_c":34.05,"peak_c":35.05,"dose":6.5},"delta_mean_c":-0.26,"delta_dose_pct":-12,"distance_mi":0.204,"status_now":"walk","status_rec":"walk","reason":"Shortest route already under threshold (dose 7).","safe_until_hour":null}},{"type":"Feature","geometry":{"type":"Polygon","coordinates":[[[-81.47195,28.5811],[-81.4676,28.5811],[-81.4676,28.58555],[-81.47195,28.58555],[-81.47195,28.5811]]]},"properties":{"block_id":"FIXTURE-0102","school_id":"sch_fixture_west","kids_est":14,"class":"green","shortest":{"len_m":233.7,"mean_c":34.61,"peak_c":35.81,"dose":5.2},"coolest":{"len_m":257.4,"mean_c":34.2,"peak_c":35.2,"dose":4.3},"delta_mean_c":-0.41,"delta_dose_pct":-17,"distance_mi":0.116,"status_now":"walk","status_rec":"walk","reason":"Shortest route already under threshold (dose 5).","safe_until_hour":null}},{"type":"Feature","geometry":{"type":"Polygon","coordinates":[[[-81.4676,28.5811],[-81.46325,28.5811],[-81.46325,28.58555],[-81.4676,28.58555],[-81.4676,28.5811]]]},"properties":{"block_id":"FIXTURE-0202","school_id":"sch_fixture_west","kids_est":35,"class":"green","shortest":{"len_m":711.8,"mean_c":35.13,"peak_c":36.33,"dose":21.1},"coolest":{"len_m":782.3,"mean_c":34.62,"peak_c":35.62,"dose":17.6},"delta_mean_c":-0.51,"delta_dose_pct":-17,"distance_mi":0.354,"status_now":"walk","status_rec":"walk","reason":"Shortest route already under threshold (dose 21).","safe_until_hour":null}},{"type":"Feature","geometry":{"type":"Polygon","coordinates":[[[-81.46325,28.5811],[-81.4589,28.5811],[-81.4589,28.58555],[-81.46325,28.58555],[-81.46325,28.5811]]]},"properties":{"block_id":"FIXTURE-0302","school_id":"sch_fixture_west","kids_est":5,"class":"green","shortest":{"len_m":1234.4,"mean_c":35.53,"peak_c":36.73,"dose":43.4},"coolest":{"len_m":1351.3,"mean_c":34.97,"peak_c":35.97,"dose":36.9},"delta_mean_c":-0.56,"delta_dose_pct":-15,"distance_mi":0.614,"status_now":"walk","status_rec":"walk","reason":"Shortest route already under threshold (dose 43).","safe_until_hour":null}},{"type":"Feature","geometry":{"type":"Polygon","coordinates":[[[-81.4589,28.5811],[-81.45455,28.5811],[-81.45455,28.58555],[-81.4589,28.58555],[-81.4589,28.5811]]]},"properties":{"block_id":"FIXTURE-0402","school_id":"sch_fixture_west","kids_est":42,"class":"green","shortest":{"len_m":1762.3,"mean_c":35.82,"peak_c":37.02,"dose":69.0},"coolest":{"len_m":2197.8,"mean_c":33.78,"peak_c":34.78,"dose":23.7},"delta_mean_c":-2.04,"delta_dose_pct":-66,"distance_mi":0.876,"status_now":"walk","status_rec":"walk","reason":"Shortest route already under threshold (dose 69).","safe_until_hour":null}},{"type":"Feature","geometry":{"type":"Polygon","coordinates":[[[-81.45455,28.5811],[-81.4502,28.5811],[-81.4502,28.58555],[-81.45455,28.58555],[-81.45455,28.5811]]]},"properties":{"block_id":"FIXTURE-0502","school_id":"sch_fixture_west","kids_est":21,"class":"yellow","shortest":{"len_m":2291.9,"mean_c":36.54,"peak_c":37.74,"dose":112.7},"coolest":{"len_m":2850.8,"mean_c":34.01,"peak_c":35.01,"dose":39.9},"delta_mean_c":-2.53,"delta_dose_pct":-65,"distance_mi":1.139,"status_now":"walk","status_rec":"reroute","reason":"Shortest route exceeds threshold, but coolest route mean 34.0C stays under it (dose 40).","safe_until_hour":null}},{"type":"Feature","geometry":{"type":"Polygon","coordinates":[[[-81.4502,28.5811],[-81.44585,28.5811],[-81.44585,28.58555],[-81.4502,28.58555],[-81.4502,28.5811]]]},"properties":{"block_id":"FIXTURE-0602","school_id":"sch_fixture_west","kids_est":35,"class":"yellow","shortest":{"len_m":2822.3,"mean_c":36.73,"peak_c":37.93,"dose":146.2},"coolest":{"len_m":3538.1,"mean_c":33.96,"peak_c":34.96,"dose":47.0},"delta_mean_c":-2.77,"delta_dose_pct":-68,"distance_mi":1.403,"status_now":"walk","status_rec":"reroute","reason":"Shortest route exceeds threshold, but coolest route mean 34.0C stays under it (dose 47).","safe_until_hour":null}},{"type":"Feature","geometry":{"type":"Polygon","coordinates":[[[-81.4763,28.58555],[-81.47195,28.58555],[-81.47195,28.59],[-81.4763,28.59],[-81.4763,28.58555]]]},"properties":{"block_id":"FIXTURE-0003","school_id":"sch_fixture_west","kids_est":37,"class":"green","shortest":{"len_m":579.4,"mean_c":34.99,"peak_c":36.19,"dose":16.0},"coolest":{"len_m":640.7,"mean_c":34.46,"peak_c":35.46,"dose":13.0},"delta_mean_c":-0.53,"delta_dose_pct":-19,"distance_mi":0.288,"status_now":"walk","status_rec":"walk","reason":"Shortest route already under threshold (dose 16).","safe_until_hour":null}},{"type":"Feature","geometry":{"type":"Polygon","coordinates":[[[-81.47195,28.58555],[-81.4676,28.58555],[-81.4676,28.59],[-81.47195,28.59],[-81.47195,28.58555]]]},"properties":{"block_id":"FIXTURE-0103","school_id":"sch_fixture_west","kids_est":36,"class":"green","shortest":{"len_m":471.9,"mean_c":34.67,"peak_c":35.87,"dose":10.9},"coolest":{"len_m":517.7,"mean_c":34.28,"peak_c":35.28,"dose":9.2},"delta_mean_c":-0.39,"delta_dose_pct":-16,"distance_mi":0.235,"status_now":"walk","status_rec":"walk","reason":"Shortest route already under threshold (dose 11).","safe_until_hour":null}},{"type":"Feature","geometry":{"type":"Polygon","coordinates":[[[-81.4676,28.58555],[-81.46325,28.58555],[-81.46325,28.59],[-81.4676,28.59],[-81.4676,28.58555]]]},"properties":{"block_id":"FIXTURE-0203","school_id":"sch_fixture_west","kids_est":21,"class":"green","shortest":{"len_m":821.4,"mean_c":34.86,"peak_c":36.06,"dose":21.2},"coolest":{"len_m":911.5,"mean_c":34.34,"peak_c":35.34,"dose":17.0},"delta_mean_c":-0.52,"delta_dose_pct":-20,"distance_mi":0.408,"status_now":"walk","status_rec":"walk","reason":"Shortest route already under threshold (dose 21).","safe_until_hour":null}},{"type":"Feature","geometry":{"type":"Polygon","coordinates":[[[-81.46325,28.58555],[-81.4589,28.58555],[-81.4589,28.59],[-81.46325,28.59],[-81.46325,28.58555]]]},"properties":{"block_id":"FIXTURE-0303","school_id":"sch_fixture_west","kids_est":43,"class":"green","shortest":{"len_m":1300.6,"mean_c":34.9,"peak_c":36.1,"dose":34.3},"coolest":{"len_m":1431.5,"mean_c":34.43,"peak_c":35.43,"dose":28.5},"delta_mean_c":-0.47,"delta_dose_pct":-17,"distance_mi":0.647,"status_now":"walk","status_rec":"walk","reason":"Shortest route already under threshold (dose 34).","safe_until_hour":null}},{"type":"Feature","geometry":{"type":"Polygon","coordinates":[[[-81.4589,28.58555],[-81.45455,28.58555],[-81.45455,28.59],[-81.4589,28.59],[-81.4589,28.58555]]]},"properties":{"block_id":"FIXTURE-0403","school_id":"sch_fixture_west","kids_est":6,"class":"green","shortest":{"len_m":1809.3,"mean_c":36.21,"peak_c":37.41,"dose":80.7},"coolest":{"len_m":2277.2,"mean_c":33.78,"peak_c":34.78,"dose":24.6},"delta_mean_c":-2.43,"delta_dose_pct":-70,"distance_mi":0.899,"status_now":"walk","status_rec":"walk","reason":"Shortest route already under threshold (dose 81).","safe_until_hour":null}},{"type":"Feature","geometry":{"type":"Polygon","coordinates":[[[-81.45455,28.58555],[-81.4502,28.58555],[-81.4502,28.59],[-81.45455,28.59],[-81.45455,28.58555]]]},"properties":{"block_id":"FIXTURE-0503","school_id":"sch_fixture_west","kids_est":5,"class":"green","shortest":{"len_m":2328.3,"mean_c":35.75,"peak_c":36.95,"dose":88.9},"coolest":{"len_m":2888.5,"mean_c":33.81,"peak_c":34.81,"dose":32.4},"delta_mean_c":-1.94,"delta_dose_pct":-64,"distance_mi":1.157,"status_now":"walk","status_rec":"walk","reason":"Shortest route already under threshold (dose 89).","safe_until_hour":null}},{"type":"Feature","geometry":{"type":"Polygon","coordinates":[[[-81.4763,28.59],[-81.47195,28.59],[-81.47195,28.59445],[-81.4763,28.59445],[-81.4763,28.59]]]},"properties":{"block_id":"FIXTURE-0004","school_id":"sch_fixture_west","kids_est":26,"class":"green","shortest":{"len_m":1122.4,"mean_c":34.07,"peak_c":35.27,"dose":16.7},"coolest":{"len_m":1216.4,"mean_c":33.88,"peak_c":34.88,"dose":14.8},"delta_mean_c":-0.19,"delta_dose_pct":-11,"distance_mi":0.558,"status_now":"walk","status_rec":"walk","reason":"Shortest route already under threshold (dose 17).","safe_until_hour":null}},{"type":"Feature","geometry":{"type":"Polygon","coordinates":[[[-81.47195,28.59],[-81.4676,28.59],[-81.4676,28.59445],[-81.47195,28.59445],[-81.47195,28.59]]]},"properties":{"block_id":"FIXTURE-0104","school_id":"sch_fixture_west","kids_est":17,"class":"green","shortest":{"len_m":1070.9,"mean_c":35.15,"peak_c":36.35,"dose":32.0},"coolest":{"len_m":1172.7,"mean_c":34.67,"peak_c":35.67,"dose":27.2},"delta_mean_c":-0.48,"delta_dose_pct":-15,"distance_mi":0.532,"status_now":"walk","status_rec":"walk","reason":"Shortest route already under threshold (dose 32).","safe_until_hour":null}},{"type":"Feature","geometry":{"type":"Polygon","coordinates":[[[-81.4676,28.59],[-81.46325,28.59],[-81.46325,28.59445],[-81.4676,28.59445],[-81.4676,28.59]]]},"properties":{"block_id":"FIXTURE-0204","school_id":"sch_fixture_west","kids_est":18,"class":"green","shortest":{"len_m":1264.5,"mean_c":34.61,"peak_c":35.81,"dose":28.3},"coolest":{"len_m":1370.9,"mean_c":34.32,"peak_c":35.32,"dose":25.1},"delta_mean_c":-0.29,"delta_dose_pct":-11,"distance_mi":0.629,"status_now":"walk","status_rec":"walk","reason":"Shortest route already under threshold (dose 28).","safe_until_hour":null}},{"type":"Feature","geometry":{"type":"Polygon","coordinates":[[[-81.46325,28.59],[-81.4589,28.59],[-81.4589,28.59445],[-81.46325,28.59445],[-81.46325,28.59]]]},"properties":{"block_id":"FIXTURE-0304","school_id":"sch_fixture_west","kids_est":31,"class":"green","shortest":{"len_m":1617.4,"mean_c":35.27,"peak_c":36.47,"dose":51.0},"coolest":{"len_m":1793.0,"mean_c":34.65,"peak_c":35.65,"dose":41.0},"delta_mean_c":-0.62,"delta_dose_pct":-20,"distance_mi":0.804,"status_now":"walk","status_rec":"walk","reason":"Shortest route already under threshold (dose 51).","safe_until_hour":null}},{"type":"Feature","geometry":{"type":"Polygon","coordinates":[[[-81.4589,28.59],[-81.45455,28.59],[-81.45455,28.59445],[-81.4589,28.59445],[-81.4589,28.59]]]},"properties":{"block_id":"FIXTURE-0404","school_id":"sch_fixture_west","kids_est":28,"class":"green","shortest":{"len_m":2048.9,"mean_c":35.62,"peak_c":36.82,"dose":74.6},"coolest":{"len_m":2558.6,"mean_c":33.71,"peak_c":34.71,"dose":25.2},"delta_mean_c":-1.91,"delta_dose_pct":-66,"distance_mi":1.018,"status_now":"walk","status_rec":"walk","reason":"Shortest route already under threshold (dose 75).","safe_until_hour":null}},{"type":"Feature","geometry":{"type":"Polygon","coordinates":[[[-81.45455,28.59],[-81.4502,28.59],[-81.4502,28.59445],[-81.45455,28.59445],[-81.45455,28.59]]]},"properties":{"block_id":"FIXTURE-0504","school_id":"sch_fixture_west","kids_est":14,"class":"green","shortest":{"len_m":2518.9,"mean_c":35.97,"peak_c":37.17,"dose":103.9},"coolest":{"len_m":3107.2,"mean_c":33.93,"peak_c":34.93,"dose":40.3},"delta_mean_c":-2.04,"delta_dose_pct":-61,"distance_mi":1.252,"status_now":"walk","status_rec":"walk","reason":"Shortest route already under threshold (dose 104).","safe_until_hour":null}},{"type":"Feature","geometry":{"type":"Polygon","coordinates":[[[-81.4763,28.59445],[-81.47195,28.59445],[-81.47195,28.5989],[-81.4763,28.5989],[-81.4763,28.59445]]]},"properties":{"block_id":"FIXTURE-0005","school_id":"sch_fixture_west","kids_est":36,"class":"green","shortest":{"len_m":1714.7,"mean_c":34.17,"peak_c":35.37,"dose":27.9},"coolest":{"len_m":1858.7,"mean_c":33.96,"peak_c":34.96,"dose":24.7},"delta_mean_c":-0.21,"delta_dose_pct":-11,"distance_mi":0.852,"status_now":"walk","status_rec":"walk","reason":"Shortest route already under threshold (dose 28).","safe_until_hour":null}},{"type":"Feature","geometry":{"type":"Polygon","coordinates":[[[-81.47195,28.59445],[-81.4676,28.59445],[-81.4676,28.5989],[-81.47195,28.5989],[-81.47195,28.59445]]]},"properties":{"block_id":"FIXTURE-0105","school_id":"sch_fixture_west","kids_est":14,"class":"green","shortest":{"len_m":1681.4,"mean_c":34.58,"peak_c":35.78,"dose":36.9},"coolest":{"len_m":1844.0,"mean_c":34.22,"peak_c":35.22,"dose":31.2},"delta_mean_c":-0.36,"delta_dose_pct":-15,"distance_mi":0.836,"status_now":"walk","status_rec":"walk","reason":"Shortest route already under threshold (dose 37).","safe_until_hour":null}},{"type":"Feature","geometry":{"type":"Polygon","coordinates":[[[-81.4676,28.59445],[-81.46325,28.59445],[-81.46325,28.5989],[-81.4676,28.5989],[-81.4676,28.59445]]]},"properties":{"block_id":"FIXTURE-0205","school_id":"sch_fixture_west","kids_est":39,"class":"green","shortest":{"len_m":1810.9,"mean_c":34.72,"peak_c":35.92,"dose":43.3},"coolest":{"len_m":1967.6,"mean_c":34.39,"peak_c":35.39,"dose":38.0},"delta_mean_c":-0.33,"delta_dose_pct":-12,"distance_mi":0.9,"status_now":"walk","status_rec":"walk","reason":"Shortest route already under threshold (dose 43).","safe_until_hour":null}},{"type":"Feature","geometry":{"type":"Polygon","coordinates":[[[-81.46325,28.59445],[-81.4589,28.59445],[-81.4589,28.5989],[-81.46325,28.5989],[-81.46325,28.59445]]]},"properties":{"block_id":"FIXTURE-0305","school_id":"sch_fixture_west","kids_est":29,"class":"green","shortest":{"len_m":2072.7,"mean_c":35.53,"peak_c":36.73,"dose":72.8},"coolest":{"len_m":2276.8,"mean_c":34.93,"peak_c":35.93,"dose":61.0},"delta_mean_c":-0.6,"delta_dose_pct":-16,"distance_mi":1.03,"status_now":"walk","status_rec":"walk","reason":"Shortest route already under threshold (dose 73).","safe_until_hour":null}},{"type":"Feature","geometry":{"type":"Polygon","coordinates":[[[-81.4589,28.59445],[-81.45455,28.59445],[-81.45455,28.5989],[-81.4589,28.5989],[-81.4589,28.59445]]]},"properties":{"block_id":"FIXTURE-0405","school_id":"sch_fixture_west","kids_est":36,"class":"green","shortest":{"len_m":2424.5,"mean_c":35.58,"peak_c":36.78,"dose":86.9},"coolest":{"len_m":3050.2,"mean_c":33.63,"peak_c":34.63,"dose":26.6},"delta_mean_c":-1.95,"delta_dose_pct":-69,"distance_mi":1.205,"status_now":"walk","status_rec":"walk","reason":"Shortest route already under threshold (dose 87).","safe_until_hour":null}},{"type":"Feature","geometry":{"type":"Polygon","coordinates":[[[-81.4763,28.5989],[-81.47195,28.5989],[-81.47195,28.60335],[-81.4763,28.60335],[-81.4763,28.5989]]]},"properties":{"block_id":"FIXTURE-0006","school_id":"sch_fixture_west","kids_est":12,"class":"green","shortest":{"len_m":2318.8,"mean_c":34.51,"peak_c":35.71,"dose":48.6},"coolest":{"len_m":2532.4,"mean_c":34.19,"peak_c":35.19,"dose":41.8},"delta_mean_c":-0.32,"delta_dose_pct":-14,"distance_mi":1.153,"status_now":"walk","status_rec":"walk","reason":"Shortest route already under threshold (dose 49).","safe_until_hour":null}},{"type":"Feature","geometry":{"type":"Polygon","coordinates":[[[-81.47195,28.5989],[-81.4676,28.5989],[-81.4676,28.60335],[-81.47195,28.60335],[-81.47195,28.5989]]]},"properties":{"block_id":"FIXTURE-0106","school_id":"sch_fixture_west","kids_est":9,"class":"green","shortest":{"len_m":2294.3,"mean_c":34.48,"peak_c":35.68,"dose":47.2},"coolest":{"len_m":2482.5,"mean_c":34.22,"peak_c":35.22,"dose":42.2},"delta_mean_c":-0.26,"delta_dose_pct":-11,"distance_mi":1.14,"status_now":"walk","status_rec":"walk","reason":"Shortest route already under threshold (dose 47).","safe_until_hour":null}},{"type":"Feature","geometry":{"type":"Polygon","coordinates":[[[-81.4676,28.5989],[-81.46325,28.5989],[-81.46325,28.60335],[-81.4676,28.60335],[-81.4676,28.5989]]]},"properties":{"block_id":"FIXTURE-0206","school_id":"sch_fixture_west","kids_est":20,"class":"green","shortest":{"len_m":2390.7,"mean_c":34.92,"peak_c":36.12,"dose":63.8},"coolest":{"len_m":2585.6,"mean_c":34.59,"peak_c":35.59,"dose":57.1},"delta_mean_c":-0.33,"delta_dose_pct":-11,"distance_mi":1.188,"status_now":"walk","status_rec":"walk","reason":"Shortest route already under threshold (dose 64).","safe_until_hour":null}},{"type":"Feature","geometry":{"type":"Polygon","coordinates":[[[-81.46325,28.5989],[-81.4589,28.5989],[-81.4589,28.60335],[-81.46325,28.60335],[-81.46325,28.5989]]]},"properties":{"block_id":"FIXTURE-0306","school_id":"sch_fixture_west","kids_est":30,"class":"green","shortest":{"len_m":2594.7,"mean_c":35.67,"peak_c":36.87,"dose":96.2},"coolest":{"len_m":2840.7,"mean_c":35.07,"peak_c":36.07,"dose":81.8},"delta_mean_c":-0.6,"delta_dose_pct":-15,"distance_mi":1.29,"status_now":"walk","status_rec":"walk","reason":"Shortest route already under threshold (dose 96).","safe_until_hour":null}},{"type":"Feature","geometry":{"type":"Polygon","coordinates":[[[-81.4589,28.5989],[-81.45455,28.5989],[-81.45455,28.60335],[-81.4589,28.60335],[-81.4589,28.5989]]]},"properties":{"block_id":"FIXTURE-0406","school_id":"sch_fixture_west","kids_est":5,"class":"yellow","shortest":{"len_m":2883.5,"mean_c":35.75,"peak_c":36.95,"dose":110.1},"coolest":{"len_m":3617.4,"mean_c":33.7,"peak_c":34.7,"dose":35.0},"delta_mean_c":-2.05,"delta_dose_pct":-68,"distance_mi":1.433,"status_now":"walk","status_rec":"reroute","reason":"Shortest route exceeds threshold, but coolest route mean 33.7C stays under it (dose 35).","safe_until_hour":null}},{"type":"Feature","geometry":{"type":"Polygon","coordinates":[[[-81.4763,28.60335],[-81.47195,28.60335],[-81.47195,28.6078],[-81.4763,28.6078],[-81.4763,28.60335]]]},"properties":{"block_id":"FIXTURE-0007","school_id":"sch_fixture_west","kids_est":9,"class":"green","shortest":{"len_m":2927.3,"mean_c":34.87,"peak_c":36.07,"dose":76.0},"coolest":{"len_m":3200.1,"mean_c":34.46,"peak_c":35.46,"dose":65.1},"delta_mean_c":-0.41,"delta_dose_pct":-14,"distance_mi":1.455,"status_now":"walk","status_rec":"walk","reason":"Shortest route already under threshold (dose 76).","safe_until_hour":null}},{"type":"Feature","geometry":{"type":"Polygon","coordinates":[[[-81.47195,28.60335],[-81.4676,28.60335],[-81.4676,28.6078],[-81.47195,28.6078],[-81.47195,28.60335]]]},"properties":{"block_id":"FIXTURE-0107","school_id":"sch_fixture_west","kids_est":7,"class":"green","shortest":{"len_m":2908.0,"mean_c":34.75,"peak_c":35.95,"dose":70.7},"coolest":{"len_m":3144.0,"mean_c":34.45,"peak_c":35.45,"dose":63.4},"delta_mean_c":-0.3,"delta_dose_pct":-10,"distance_mi":1.446,"status_now":"walk","status_rec":"walk","reason":"Shortest route already under threshold (dose 71).","safe_until_hour":null}},{"type":"Feature","geometry":{"type":"Polygon","coordinates":[[[-81.4676,28.60335],[-81.46325,28.60335],[-81.46325,28.6078],[-81.4676,28.6078],[-81.4676,28.60335]]]},"properties":{"block_id":"FIXTURE-0207","school_id":"sch_fixture_west","kids_est":12,"class":"green","shortest":{"len_m":2984.7,"mean_c":35.12,"peak_c":36.32,"dose":87.9},"coolest":{"len_m":3300.2,"mean_c":34.56,"peak_c":35.56,"dose":71.6},"delta_mean_c":-0.56,"delta_dose_pct":-19,"distance_mi":1.484,"status_now":"walk","status_rec":"walk","reason":"Shortest route already under threshold (dose 88).","safe_until_hour":null}},{"type":"Feature","geometry":{"type":"Polygon","coordinates":[[[-81.46325,28.60335],[-81.4589,28.60335],[-81.4589,28.6078],[-81.46325,28.6078],[-81.46325,28.60335]]]},"properties":{"block_id":"FIXTURE-0307","school_id":"sch_fixture_west","kids_est":29,"class":"yellow","shortest":{"len_m":3150.4,"mean_c":35.65,"peak_c":36.85,"dose":116.0},"coolest":{"len_m":3433.6,"mean_c":35.11,"peak_c":36.11,"dose":100.6},"delta_mean_c":-0.54,"delta_dose_pct":-13,"distance_mi":1.566,"status_now":"walk","status_rec":"reroute","reason":"Shortest route exceeds threshold, but coolest route mean 35.1C stays under it (dose 101).","safe_until_hour":null}},{"type":"Feature","geometry":{"type":"Polygon","coordinates":[[[-81.4763,28.6078],[-81.47195,28.6078],[-81.47195,28.61225],[-81.4763,28.61225],[-81.4763,28.6078]]]},"properties":{"block_id":"FIXTURE-0008","school_id":"sch_fixture_west","kids_est":7,"class":"green","shortest":{"len_m":3538.1,"mean_c":34.14,"peak_c":35.34,"dose":56.0},"coolest":{"len_m":3924.9,"mean_c":33.82,"peak_c":34.82,"dose":44.9},"delta_mean_c":-0.32,"delta_dose_pct":-20,"distance_mi":1.759,"status_now":"walk","status_rec":"walk","reason":"Shortest route already under threshold (dose 56).","safe_until_hour":null}},{"type":"Feature","geometry":{"type":"Polygon","coordinates":[[[-81.47195,28.6078],[-81.4676,28.6078],[-81.4676,28.61225],[-81.47195,28.61225],[-81.47195,28.6078]]]},"properties":{"block_id":"FIXTURE-0108","school_id":"sch_fixture_west","kids_est":15,"class":"green","shortest":{"len_m":3522.1,"mean_c":34.96,"peak_c":36.16,"dose":95.9},"coolest":{"len_m":3839.6,"mean_c":34.56,"peak_c":35.56,"dose":83.1},"delta_mean_c":-0.4,"delta_dose_pct":-13,"distance_mi":1.751,"status_now":"walk","status_rec":"walk","reason":"Shortest route already under threshold (dose 96).","safe_until_hour":null}},{"type":"Feature","geometry":{"type":"Polygon","coordinates":[[[-81.4676,28.6078],[-81.46325,28.6078],[-81.46325,28.61225],[-81.4676,28.61225],[-81.4676,28.6078]]]},"properties":{"block_id":"FIXTURE-0208","school_id":"sch_fixture_west","kids_est":30,"class":"green","shortest":{"len_m":3585.7,"mean_c":34.57,"peak_c":35.77,"dose":78.2},"coolest":{"len_m":3973.3,"mean_c":34.14,"peak_c":35.14,"dose":63.1},"delta_mean_c":-0.43,"delta_dose_pct":-19,"distance_mi":1.782,"status_now":"walk","status_rec":"walk","reason":"Shortest route already under threshold (dose 78).","safe_until_hour":null}},{"type":"Feature","geometry":{"type":"Polygon","coordinates":[[[-81.46325,28.6078],[-81.4589,28.6078],[-81.4589,28.61225],[-81.46325,28.61225],[-81.46325,28.6078]]]},"properties":{"block_id":"FIXTURE-0308","school_id":"sch_fixture_west","kids_est":22,"class":"yellow","shortest":{"len_m":3724.8,"mean_c":35.3,"peak_c":36.5,"dose":119.0},"coolest":{"len_m":4077.3,"mean_c":34.79,"peak_c":35.79,"dose":101.3},"delta_mean_c":-0.51,"delta_dose_pct":-15,"distance_mi":1.852,"status_now":"walk","status_rec":"reroute","reason":"Shortest route exceeds threshold, but coolest route mean 34.8C stays under it (dose 101).","safe_until_hour":null}},{"type":"Feature","geometry":{"type":"Polygon","coordinates":[[[-81.4763,28.61225],[-81.47195,28.61225],[-81.47195,28.6167],[-81.4763,28.6167],[-81.4763,28.61225]]]},"properties":{"block_id":"FIXTURE-0009","school_id":"sch_fixture_west","kids_est":11,"class":"green","shortest":{"len_m":4150.1,"mean_c":34.13,"peak_c":35.33,"dose":65.1},"coolest":{"len_m":4503.1,"mean_c":33.92,"peak_c":34.92,"dose":57.5},"delta_mean_c":-0.21,"delta_dose_pct":-12,"distance_mi":2.063,"status_now":"bus","status_rec":"walk","reason":"Shortest route already under threshold (dose 65).","safe_until_hour":null}},{"type":"Feature","geometry":{"type":"Polygon","coordinates":[[[-81.47195,28.61225],[-81.4676,28.61225],[-81.4676,28.6167],[-81.47195,28.6167],[-81.47195,28.61225]]]},"properties":{"block_id":"FIXTURE-0109","school_id":"sch_fixture_west","kids_est":8,"class":"yellow","shortest":{"len_m":4136.4,"mean_c":35.02,"peak_c":36.22,"dose":116.1},"coolest":{"len_m":4554.2,"mean_c":34.52,"peak_c":35.52,"dose":96.4},"delta_mean_c":-0.5,"delta_dose_pct":-17,"distance_mi":2.056,"status_now":"bus","status_rec":"reroute","reason":"Shortest route exceeds threshold, but coolest route mean 34.5C stays under it (dose 96).","safe_until_hour":null}},{"type":"Feature","geometry":{"type":"Polygon","coordinates":[[[-81.4676,28.61225],[-81.46325,28.61225],[-81.46325,28.6167],[-81.4676,28.6167],[-81.4676,28.61225]]]},"properties":{"block_id":"FIXTURE-0209","school_id":"sch_fixture_west","kids_est":26,"class":"yellow","shortest":{"len_m":4190.7,"mean_c":35.07,"peak_c":36.27,"dose":120.5},"coolest":{"len_m":4549.7,"mean_c":34.68,"peak_c":35.68,"dose":106.2},"delta_mean_c":-0.39,"delta_dose_pct":-12,"distance_mi":2.083,"status_now":"bus","status_rec":"reroute","reason":"Shortest route exceeds threshold, but coolest route mean 34.7C stays under it (dose 106).","safe_until_hour":null}}]}