{"type":"FeatureCollection","features":[{"type":"Feature","geometry":{"type":"Polygon","coordinates":[[[-81.47195,28.5722],[-81.4676,28.5722],[-81.4676,28.57665],[-81.47195,28.57665],[-81.47195,28.5722]]]},"properties":{"block_id":"FIXTURE-0100","school_id":"sch_ucp_pine_hills_charter","kids_est":7,"class":"green","shortest":{"len_m":1618.9,"mean_c":35.32,"peak_c":36.52,"dose":52.2},"coolest":{"len_m":1776.3,"mean_c":34.78,"peak_c":35.78,"dose":44.0},"delta_mean_c":-0.54,"delta_dose_pct":-16,"distance_mi":0.805,"status_now":"walk","status_rec":"walk","reason":"Shortest route already under threshold (dose 52).","safe_until_hour":null}},{"type":"Feature","geometry":{"type":"Polygon","coordinates":[[[-81.4676,28.5722],[-81.46325,28.5722],[-81.46325,28.57665],[-81.4676,28.57665],[-81.4676,28.5722]]]},"properties":{"block_id":"FIXTURE-0200","school_id":"sch_ucp_pine_hills_charter","kids_est":10,"class":"green","shortest":{"len_m":1107.2,"mean_c":34.81,"peak_c":36.01,"dose":27.8},"coolest":{"len_m":1196.3,"mean_c":34.5,"peak_c":35.5,"dose":25.0},"delta_mean_c":-0.31,"delta_dose_pct":-10,"distance_mi":0.55,"status_now":"walk","status_rec":"walk","reason":"Shortest route already under threshold (dose 28).","safe_until_hour":null}},{"type":"Feature","geometry":{"type":"Polygon","coordinates":[[[-81.46325,28.5722],[-81.4589,28.5722],[-81.4589,28.57665],[-81.46325,28.57665],[-81.46325,28.5722]]]},"properties":{"block_id":"FIXTURE-0300","school_id":"sch_ucp_pine_hills_charter","kids_est":12,"class":"green","shortest":{"len_m":629.6,"mean_c":35.4,"peak_c":36.6,"dose":21.0},"coolest":{"len_m":691.5,"mean_c":34.83,"peak_c":35.83,"dose":17.6},"delta_mean_c":-0.57,"delta_dose_pct":-16,"distance_mi":0.313,"status_now":"walk","status_rec":"walk","reason":"Shortest route already under threshold (dose 21).","safe_until_hour":null}},{"type":"Feature","geometry":{"type":"Polygon","coordinates":[[[-81.4589,28.5722],[-81.45455,28.5722],[-81.45455,28.57665],[-81.4589,28.57665],[-81.4589,28.5722]]]},"properties":{"block_id":"FIXTURE-0400","school_id":"sch_ucp_pine_hills_charter","kids_est":15,"class":"green","shortest":{"len_m":363.1,"mean_c":35.66,"peak_c":36.86,"dose":13.4},"coolest":{"len_m":451.1,"mean_c":33.77,"peak_c":34.77,"dose":4.8},"delta_mean_c":-1.89,"delta_dose_pct":-64,"distance_mi":0.18,"status_now":"walk","status_rec":"walk","reason":"Shortest route already under threshold (dose 13).","safe_until_hour":null}},{"type":"Feature","geometry":{"type":"Polygon","coordinates":[[[-81.45455,28.5722],[-81.4502,28.5722],[-81.4502,28.57665],[-81.45455,28.57665],[-81.45455,28.5722]]]},"properties":{"block_id":"FIXTURE-0500","school_id":"sch_ucp_pine_hills_charter","kids_est":27,"class":"green","shortest":{"len_m":657.6,"mean_c":35.89,"peak_c":37.09,"dose":26.4},"coolest":{"len_m":823.2,"mean_c":33.75,"peak_c":34.75,"dose":8.6},"delta_mean_c":-2.14,"delta_dose_pct":-67,"distance_mi":0.327,"status_now":"walk","status_rec":"walk","reason":"Shortest route already under threshold (dose 26).","safe_until_hour":null}},{"type":"Feature","geometry":{"type":"Polygon","coordinates":[[[-81.46325,28.57665],[-81.4589,28.57665],[-81.4589,28.5811],[-81.46325,28.5811],[-81.46325,28.57665]]]},"properties":{"block_id":"FIXTURE-0301","school_id":"sch_ucp_pine_hills_charter","kids_est":11,"class":"green","shortest":{"len_m":573.0,"mean_c":35.54,"peak_c":36.74,"dose":20.2},"coolest":{"len_m":619.4,"mean_c":35.1,"peak_c":36.1,"dose":18.1},"delta_mean_c":-0.44,"delta_dose_pct":-10,"distance_mi":0.285,"status_now":"walk","status_rec":"walk","reason":"Shortest route already under threshold (dose 20).","safe_until_hour":null}},{"type":"Feature","geometry":{"type":"Polygon","coordinates":[[[-81.4589,28.57665],[-81.45455,28.57665],[-81.45455,28.5811],[-81.4589,28.5811],[-81.4589,28.57665]]]},"properties":{"block_id":"FIXTURE-0401","school_id":"sch_ucp_pine_hills_charter","kids_est":32,"class":"green","shortest":{"len_m":252.7,"mean_c":36.03,"peak_c":37.23,"dose":10.6},"coolest":{"len_m":275.4,"mean_c":35.41,"peak_c":36.41,"dose":9.2},"delta_mean_c":-0.62,"delta_dose_pct":-13,"distance_mi":0.126,"status_now":"walk","status_rec":"walk","reason":"Shortest route already under threshold (dose 11).","safe_until_hour":null}}]}