{"type":"FeatureCollection","features":[{"type":"Feature","geometry":{"type":"Polygon","coordinates":[[[-81.426,28.594],[-81.412,28.594],[-81.412,28.6136],[-81.426,28.6136],[-81.426,28.594]]]},"properties":{"block_id":"120951236001005","school_id":"sch_lake_weston_elementary","kids_est":36,"class":"green","shortest":{"len_m":1458.5,"mean_c":36.38,"peak_c":37.58,"dose":68.5},"coolest":{"len_m":1820.2,"mean_c":33.92,"peak_c":34.92,"dose":23.3},"delta_mean_c":-2.46,"delta_dose_pct":-66,"distance_mi":0.725,"status_now":"walk","status_rec":"walk","reason":"Shortest route already under threshold (dose 68).","safe_until_hour":null}},{"type":"Feature","geometry":{"type":"Polygon","coordinates":[[[-81.412,28.6136],[-81.398,28.6136],[-81.398,28.6332],[-81.412,28.6332],[-81.412,28.6136]]]},"properties":{"block_id":"120951237001006","school_id":"sch_lake_weston_elementary","kids_est":25,"class":"green","shortest":{"len_m":1757.0,"mean_c":36.56,"peak_c":37.76,"dose":86.9},"coolest":{"len_m":2183.1,"mean_c":34.03,"peak_c":35.03,"dose":31.1},"delta_mean_c":-2.53,"delta_dose_pct":-64,"distance_mi":0.873,"status_now":"walk","status_rec":"walk","reason":"Shortest route already under threshold (dose 87).","safe_until_hour":null}}]}