{"type":"FeatureCollection","features":[{"type":"Feature","geometry":{"type":"Polygon","coordinates":[[[-81.51,28.594],[-81.496,28.594],[-81.496,28.6136],[-81.51,28.6136],[-81.51,28.594]]]},"properties":{"block_id":"120951230001005","school_id":"sch_meadowbrook_middle","kids_est":36,"class":"green","shortest":{"len_m":5003.1,"mean_c":34.17,"peak_c":35.37,"dose":81.3},"coolest":{"len_m":5423.4,"mean_c":33.96,"peak_c":34.96,"dose":72.1},"delta_mean_c":-0.21,"delta_dose_pct":-11,"distance_mi":2.487,"status_now":"bus","status_rec":"walk","reason":"Shortest route already under threshold (dose 81).","safe_until_hour":null}},{"type":"Feature","geometry":{"type":"Polygon","coordinates":[[[-81.496,28.594],[-81.482,28.594],[-81.482,28.6136],[-81.496,28.6136],[-81.496,28.594]]]},"properties":{"block_id":"120951231001005","school_id":"sch_meadowbrook_middle","kids_est":14,"class":"green","shortest":{"len_m":3375.2,"mean_c":34.58,"peak_c":35.78,"dose":74.1},"coolest":{"len_m":3701.6,"mean_c":34.22,"peak_c":35.22,"dose":62.6},"delta_mean_c":-0.36,"delta_dose_pct":-16,"distance_mi":1.678,"status_now":"walk","status_rec":"walk","reason":"Shortest route already under threshold (dose 74).","safe_until_hour":null}},{"type":"Feature","geometry":{"type":"Polygon","coordinates":[[[-81.482,28.594],[-81.468,28.594],[-81.468,28.6136],[-81.482,28.6136],[-81.482,28.594]]]},"properties":{"block_id":"120951232001005","school_id":"sch_meadowbrook_middle","kids_est":39,"class":"green","shortest":{"len_m":1898.3,"mean_c":34.72,"peak_c":35.92,"dose":45.3},"coolest":{"len_m":2062.5,"mean_c":34.39,"peak_c":35.39,"dose":39.8},"delta_mean_c":-0.33,"delta_dose_pct":-12,"distance_mi":0.944,"status_now":"walk","status_rec":"walk","reason":"Shortest route already under threshold (dose 45).","safe_until_hour":null}},{"type":"Feature","geometry":{"type":"Polygon","coordinates":[[[-81.468,28.594],[-81.454,28.594],[-81.454,28.6136],[-81.468,28.6136],[-81.468,28.594]]]},"properties":{"block_id":"120951233001005","school_id":"sch_meadowbrook_middle","kids_est":29,"class":"green","shortest":{"len_m":1290.7,"mean_c":35.53,"peak_c":36.73,"dose":45.4},"coolest":{"len_m":1417.8,"mean_c":34.93,"peak_c":35.93,"dose":38.1},"delta_mean_c":-0.6,"delta_dose_pct":-16,"distance_mi":0.642,"status_now":"walk","status_rec":"walk","reason":"Shortest route already under threshold (dose 45).","safe_until_hour":null}}]}