{"type":"FeatureCollection","features":[{"type":"Feature","geometry":{"type":"Polygon","coordinates":[[[-81.454,28.496],[-81.44,28.496],[-81.44,28.5156],[-81.454,28.5156],[-81.454,28.496]]]},"properties":{"block_id":"120951234001000","school_id":"sch_washington_shores_elementary","kids_est":15,"class":"yellow","shortest":{"len_m":4426.9,"mean_c":35.66,"peak_c":36.86,"dose":163.5},"coolest":{"len_m":5500.2,"mean_c":33.77,"peak_c":34.77,"dose":58.6},"delta_mean_c":-1.89,"delta_dose_pct":-64,"distance_mi":2.201,"status_now":"bus","status_rec":"reroute","reason":"Shortest route exceeds threshold, but coolest route mean 33.8C stays under it (dose 59).","safe_until_hour":null}},{"type":"Feature","geometry":{"type":"Polygon","coordinates":[[[-81.44,28.496],[-81.426,28.496],[-81.426,28.5156],[-81.44,28.5156],[-81.44,28.496]]]},"properties":{"block_id":"120951235001000","school_id":"sch_washington_shores_elementary","kids_est":27,"class":"yellow","shortest":{"len_m":3506.4,"mean_c":35.89,"peak_c":37.09,"dose":140.7},"coolest":{"len_m":4389.3,"mean_c":33.75,"peak_c":34.75,"dose":46.0},"delta_mean_c":-2.14,"delta_dose_pct":-67,"distance_mi":1.743,"status_now":"walk","status_rec":"reroute","reason":"Shortest route exceeds threshold, but coolest route mean 33.8C stays under it (dose 46).","safe_until_hour":null}},{"type":"Feature","geometry":{"type":"Polygon","coordinates":[[[-81.44,28.5156],[-81.426,28.5156],[-81.426,28.5352],[-81.44,28.5352],[-81.44,28.5156]]]},"properties":{"block_id":"120951235001001","school_id":"sch_washington_shores_elementary","kids_est":29,"class":"green","shortest":{"len_m":1393.4,"mean_c":36.01,"peak_c":37.21,"dose":58.3},"coolest":{"len_m":1734.4,"mean_c":33.85,"peak_c":34.85,"dose":20.5},"delta_mean_c":-2.16,"delta_dose_pct":-65,"distance_mi":0.693,"status_now":"walk","status_rec":"walk","reason":"Shortest route already under threshold (dose 58).","safe_until_hour":null}}]}