{"type":"FeatureCollection","features":[{"type":"Feature","geometry":{"type":"Polygon","coordinates":[[[-81.51,28.6528],[-81.496,28.6528],[-81.496,28.6724],[-81.51,28.6724],[-81.51,28.6528]]]},"properties":{"block_id":"120951230001008","school_id":"sch_amikids_orlando","kids_est":7,"class":"green","shortest":{"len_m":3438.3,"mean_c":34.14,"peak_c":35.34,"dose":54.4},"coolest":{"len_m":3814.2,"mean_c":33.82,"peak_c":34.82,"dose":43.6},"delta_mean_c":-0.32,"delta_dose_pct":-20,"distance_mi":1.709,"status_now":"walk","status_rec":"walk","reason":"Shortest route already under threshold (dose 54).","safe_until_hour":null}},{"type":"Feature","geometry":{"type":"Polygon","coordinates":[[[-81.496,28.6528],[-81.482,28.6528],[-81.482,28.6724],[-81.496,28.6724],[-81.496,28.6528]]]},"properties":{"block_id":"120951231001008","school_id":"sch_amikids_orlando","kids_est":15,"class":"green","shortest":{"len_m":1829.7,"mean_c":34.96,"peak_c":36.16,"dose":49.8},"coolest":{"len_m":1994.6,"mean_c":34.56,"peak_c":35.56,"dose":43.1},"delta_mean_c":-0.4,"delta_dose_pct":-13,"distance_mi":0.91,"status_now":"walk","status_rec":"walk","reason":"Shortest route already under threshold (dose 50).","safe_until_hour":null}},{"type":"Feature","geometry":{"type":"Polygon","coordinates":[[[-81.482,28.6528],[-81.468,28.6528],[-81.468,28.6724],[-81.482,28.6724],[-81.482,28.6528]]]},"properties":{"block_id":"120951232001008","school_id":"sch_amikids_orlando","kids_est":30,"class":"green","shortest":{"len_m":847.2,"mean_c":34.57,"peak_c":35.77,"dose":18.5},"coolest":{"len_m":938.8,"mean_c":34.14,"peak_c":35.14,"dose":14.9},"delta_mean_c":-0.43,"delta_dose_pct":-19,"distance_mi":0.421,"status_now":"walk","status_rec":"walk","reason":"Shortest route already under threshold (dose 18).","safe_until_hour":null}},{"type":"Feature","geometry":{"type":"Polygon","coordinates":[[[-81.468,28.6528],[-81.454,28.6528],[-81.454,28.6724],[-81.468,28.6724],[-81.468,28.6528]]]},"properties":{"block_id":"120951233001008","school_id":"sch_amikids_orlando","kids_est":22,"class":"green","shortest":{"len_m":1983.0,"mean_c":35.3,"peak_c":36.5,"dose":63.3},"coolest":{"len_m":2170.6,"mean_c":34.79,"peak_c":35.79,"dose":53.9},"delta_mean_c":-0.51,"delta_dose_pct":-15,"distance_mi":0.986,"status_now":"walk","status_rec":"walk","reason":"Shortest route already under threshold (dose 63).","safe_until_hour":null}},{"type":"Feature","geometry":{"type":"Polygon","coordinates":[[[-81.51,28.6724],[-81.496,28.6724],[-81.496,28.692],[-81.51,28.692],[-81.51,28.6724]]]},"properties":{"block_id":"120951230001009","school_id":"sch_amikids_orlando","kids_est":11,"class":"green","shortest":{"len_m":4870.3,"mean_c":34.13,"peak_c":35.33,"dose":76.4},"coolest":{"len_m":5284.6,"mean_c":33.92,"peak_c":34.92,"dose":67.5},"delta_mean_c":-0.21,"delta_dose_pct":-12,"distance_mi":2.421,"status_now":"bus","status_rec":"walk","reason":"Shortest route already under threshold (dose 76).","safe_until_hour":null}},{"type":"Feature","geometry":{"type":"Polygon","coordinates":[[[-81.496,28.6724],[-81.482,28.6724],[-81.482,28.692],[-81.496,28.692],[-81.496,28.6724]]]},"properties":{"block_id":"120951231001009","school_id":"sch_amikids_orlando","kids_est":8,"class":"green","shortest":{"len_m":3904.7,"mean_c":35.02,"peak_c":36.22,"dose":109.5},"coolest":{"len_m":4299.1,"mean_c":34.52,"peak_c":35.52,"dose":90.9},"delta_mean_c":-0.5,"delta_dose_pct":-17,"distance_mi":1.941,"status_now":"walk","status_rec":"walk","reason":"Shortest route already under threshold (dose 110).","safe_until_hour":null}},{"type":"Feature","geometry":{"type":"Polygon","coordinates":[[[-81.482,28.6724],[-81.468,28.6724],[-81.468,28.692],[-81.482,28.692],[-81.482,28.6724]]]},"properties":{"block_id":"120951232001009","school_id":"sch_amikids_orlando","kids_est":26,"class":"green","shortest":{"len_m":3552.1,"mean_c":35.07,"peak_c":36.27,"dose":102.1},"coolest":{"len_m":3856.4,"mean_c":34.68,"peak_c":35.68,"dose":90.0},"delta_mean_c":-0.39,"delta_dose_pct":-12,"distance_mi":1.766,"status_now":"walk","status_rec":"walk","reason":"Shortest route already under threshold (dose 102).","safe_until_hour":null}},{"type":"Feature","geometry":{"type":"Polygon","coordinates":[[[-81.468,28.6724],[-81.454,28.6724],[-81.454,28.692],[-81.468,28.692],[-81.468,28.6724]]]},"properties":{"block_id":"120951233001009","school_id":"sch_amikids_orlando","kids_est":22,"class":"red","shortest":{"len_m":3978.9,"mean_c":35.52,"peak_c":36.72,"dose":139.3},"coolest":{"len_m":4351.5,"mean_c":34.97,"peak_c":35.97,"dose":119.0},"delta_mean_c":-0.55,"delta_dose_pct":-15,"distance_mi":1.978,"status_now":"walk","status_rec":"bus_eligible","reason":"Coolest route mean 35.0C exceeds threshold (110 C-min dose, actual 119).","safe_until_hour":"14:00"}}]}