{"type":"FeatureCollection","features":[{"type":"Feature","geometry":{"type":"Polygon","coordinates":[[[-81.412,28.594],[-81.398,28.594],[-81.398,28.6136],[-81.412,28.6136],[-81.412,28.594]]]},"properties":{"block_id":"120951237001005","school_id":"sch_pinecrest_creek_charter","kids_est":32,"class":"green","shortest":{"len_m":816.6,"mean_c":36.68,"peak_c":37.88,"dose":41.7},"coolest":{"len_m":1014.9,"mean_c":34.06,"peak_c":35.06,"dose":14.9},"delta_mean_c":-2.62,"delta_dose_pct":-64,"distance_mi":0.406,"status_now":"walk","status_rec":"walk","reason":"Shortest route already under threshold (dose 42).","safe_until_hour":null}}]}