{"type":"FeatureCollection","features":[{"type":"Feature","geometry":{"type":"Polygon","coordinates":[[[-81.51,28.6528],[-81.496,28.6528],[-81.496,28.6724],[-81.51,28.6724],[-81.51,28.6528]]]},"properties":{"block_id":"120951230001008","school_id":"sch_amikids_orlando","kids_est":7,"class":"green","shortest":{"len_m":3438.3,"mean_c":34.14,"peak_c":35.34,"dose":54.4},"coolest":{"len_m":3814.2,"mean_c":33.82,"peak_c":34.82,"dose":43.6},"delta_mean_c":-0.32,"delta_dose_pct":-20,"distance_mi":1.709,"status_now":"walk","status_rec":"walk","reason":"Shortest route already under threshold (dose 54).","safe_until_hour":null}},{"type":"Feature","geometry":{"type":"Polygon","coordinates":[[[-81.496,28.6528],[-81.482,28.6528],[-81.482,28.6724],[-81.496,28.6724],[-81.496,28.6528]]]},"properties":{"block_id":"120951231001008","school_id":"sch_amikids_orlando","kids_est":15,"class":"green","shortest":{"len_m":1829.7,"mean_c":34.96,"peak_c":36.16,"dose":49.8},"coolest":{"len_m":1994.6,"mean_c":34.56,"peak_c":35.56,"dose":43.1},"delta_mean_c":-0.4,"delta_dose_pct":-13,"distance_mi":0.91,"status_now":"walk","status_rec":"walk","reason":"Shortest route already under threshold (dose 50).","safe_until_hour":null}},{"type":"Feature","geometry":{"type":"Polygon","coordinates":[[[-81.482,28.6528],[-81.468,28.6528],[-81.468,28.6724],[-81.482,28.6724],[-81.482,28.6528]]]},"properties":{"block_id":"120951232001008","school_id":"sch_amikids_orlando","kids_est":30,"class":"green","shortest":{"len_m":847.2,"mean_c":34.57,"peak_c":35.77,"dose":18.5},"coolest":{"len_m":938.8,"mean_c":34.14,"peak_c":35.14,"dose":14.9},"delta_mean_c":-0.43,"delta_dose_pct":-19,"distance_mi":0.421,"status_now":"walk","status_rec":"walk","reason":"Shortest route already under threshold (dose 18).","safe_until_hour":null}},{"type":"Feature","geometry":{"type":"Polygon","coordinates":[[[-81.468,28.6528],[-81.454,28.6528],[-81.454,28.6724],[-81.468,28.6724],[-81.468,28.6528]]]},"properties":{"block_id":"120951233001008","school_id":"sch_amikids_orlando","kids_est":22,"class":"green","shortest":{"len_m":1983.0,"mean_c":35.3,"peak_c":36.5,"dose":63.3},"coolest":{"len_m":2170.6,"mean_c":34.79,"peak_c":35.79,"dose":53.9},"delta_mean_c":-0.51,"delta_dose_pct":-15,"distance_mi":0.986,"status_now":"walk","status_rec":"walk","reason":"Shortest route already under threshold (dose 63).","safe_until_hour":null}},{"type":"Feature","geometry":{"type":"Polygon","coordinates":[[[-81.51,28.6724],[-81.496,28.6724],[-81.496,28.692],[-81.51,28.692],[-81.51,28.6724]]]},"properties":{"block_id":"120951230001009","school_id":"sch_amikids_orlando","kids_est":11,"class":"green","shortest":{"len_m":4870.3,"mean_c":34.13,"peak_c":35.33,"dose":76.4},"coolest":{"len_m":5284.6,"mean_c":33.92,"peak_c":34.92,"dose":67.5},"delta_mean_c":-0.21,"delta_dose_pct":-12,"distance_mi":2.421,"status_now":"bus","status_rec":"walk","reason":"Shortest route already under threshold (dose 76).","safe_until_hour":null}},{"type":"Feature","geometry":{"type":"Polygon","coordinates":[[[-81.496,28.6724],[-81.482,28.6724],[-81.482,28.692],[-81.496,28.692],[-81.496,28.6724]]]},"properties":{"block_id":"120951231001009","school_id":"sch_amikids_orlando","kids_est":8,"class":"green","shortest":{"len_m":3904.7,"mean_c":35.02,"peak_c":36.22,"dose":109.5},"coolest":{"len_m":4299.1,"mean_c":34.52,"peak_c":35.52,"dose":90.9},"delta_mean_c":-0.5,"delta_dose_pct":-17,"distance_mi":1.941,"status_now":"walk","status_rec":"walk","reason":"Shortest route already under threshold (dose 110).","safe_until_hour":null}},{"type":"Feature","geometry":{"type":"Polygon","coordinates":[[[-81.482,28.6724],[-81.468,28.6724],[-81.468,28.692],[-81.482,28.692],[-81.482,28.6724]]]},"properties":{"block_id":"120951232001009","school_id":"sch_amikids_orlando","kids_est":26,"class":"green","shortest":{"len_m":3552.1,"mean_c":35.07,"peak_c":36.27,"dose":102.1},"coolest":{"len_m":3856.4,"mean_c":34.68,"peak_c":35.68,"dose":90.0},"delta_mean_c":-0.39,"delta_dose_pct":-12,"distance_mi":1.766,"status_now":"walk","status_rec":"walk","reason":"Shortest route already under threshold (dose 102).","safe_until_hour":null}},{"type":"Feature","geometry":{"type":"Polygon","coordinates":[[[-81.468,28.6724],[-81.454,28.6724],[-81.454,28.692],[-81.468,28.692],[-81.468,28.6724]]]},"properties":{"block_id":"120951233001009","school_id":"sch_amikids_orlando","kids_est":22,"class":"red","shortest":{"len_m":3978.9,"mean_c":35.52,"peak_c":36.72,"dose":139.3},"coolest":{"len_m":4351.5,"mean_c":34.97,"peak_c":35.97,"dose":119.0},"delta_mean_c":-0.55,"delta_dose_pct":-15,"distance_mi":1.978,"status_now":"walk","status_rec":"bus_eligible","reason":"Coolest route mean 35.0C exceeds threshold (110 C-min dose, actual 119).","safe_until_hour":"14:00"}},{"type":"Feature","geometry":{"type":"Polygon","coordinates":[[[-81.412,28.5744],[-81.398,28.5744],[-81.398,28.594],[-81.412,28.594],[-81.412,28.5744]]]},"properties":{"block_id":"120951237001004","school_id":"sch_college_park_middle","kids_est":32,"class":"green","shortest":{"len_m":969.5,"mean_c":37.17,"peak_c":38.37,"dose":56.1},"coolest":{"len_m":1211.5,"mean_c":34.12,"peak_c":35.12,"dose":18.8},"delta_mean_c":-3.05,"delta_dose_pct":-66,"distance_mi":0.482,"status_now":"walk","status_rec":"walk","reason":"Shortest route already under threshold (dose 56).","safe_until_hour":null}},{"type":"Feature","geometry":{"type":"Polygon","coordinates":[[[-81.398,28.5744],[-81.384,28.5744],[-81.384,28.594],[-81.398,28.594],[-81.398,28.5744]]]},"properties":{"block_id":"120951238001004","school_id":"sch_edgewater_high","kids_est":37,"class":"green","shortest":{"len_m":316.1,"mean_c":36.71,"peak_c":37.91,"dose":16.3},"coolest":{"len_m":394.6,"mean_c":34.0,"peak_c":35.0,"dose":5.5},"delta_mean_c":-2.71,"delta_dose_pct":-66,"distance_mi":0.157,"status_now":"walk","status_rec":"walk","reason":"Shortest route already under threshold (dose 16).","safe_until_hour":null}},{"type":"Feature","geometry":{"type":"Polygon","coordinates":[[[-81.51,28.5548],[-81.496,28.5548],[-81.496,28.5744],[-81.51,28.5744],[-81.51,28.5548]]]},"properties":{"block_id":"120951230001003","school_id":"sch_hiawassee_elementary","kids_est":37,"class":"green","shortest":{"len_m":3749.4,"mean_c":34.99,"peak_c":36.19,"dose":103.6},"coolest":{"len_m":4146.2,"mean_c":34.46,"peak_c":35.46,"dose":84.3},"delta_mean_c":-0.53,"delta_dose_pct":-19,"distance_mi":1.864,"status_now":"walk","status_rec":"walk","reason":"Shortest route already under threshold (dose 104).","safe_until_hour":null}},{"type":"Feature","geometry":{"type":"Polygon","coordinates":[[[-81.496,28.5548],[-81.482,28.5548],[-81.482,28.5744],[-81.496,28.5744],[-81.496,28.5548]]]},"properties":{"block_id":"120951231001003","school_id":"sch_hiawassee_elementary","kids_est":36,"class":"green","shortest":{"len_m":2055.9,"mean_c":34.67,"peak_c":35.87,"dose":47.7},"coolest":{"len_m":2255.7,"mean_c":34.28,"peak_c":35.28,"dose":40.2},"delta_mean_c":-0.39,"delta_dose_pct":-16,"distance_mi":1.022,"status_now":"walk","status_rec":"walk","reason":"Shortest route already under threshold (dose 48).","safe_until_hour":null}},{"type":"Feature","geometry":{"type":"Polygon","coordinates":[[[-81.482,28.5548],[-81.468,28.5548],[-81.468,28.5744],[-81.482,28.5744],[-81.482,28.5548]]]},"properties":{"block_id":"120951232001003","school_id":"sch_hiawassee_elementary","kids_est":21,"class":"green","shortest":{"len_m":500.0,"mean_c":34.86,"peak_c":36.06,"dose":12.9},"coolest":{"len_m":554.8,"mean_c":34.34,"peak_c":35.34,"dose":10.3},"delta_mean_c":-0.52,"delta_dose_pct":-20,"distance_mi":0.249,"status_now":"walk","status_rec":"walk","reason":"Shortest route already under threshold (dose 13).","safe_until_hour":null}},{"type":"Feature","geometry":{"type":"Polygon","coordinates":[[[-81.51,28.5744],[-81.496,28.5744],[-81.496,28.594],[-81.51,28.594],[-81.51,28.5744]]]},"properties":{"block_id":"120951230001004","school_id":"sch_hiawassee_elementary","kids_est":26,"class":"green","shortest":{"len_m":4387.6,"mean_c":34.07,"peak_c":35.27,"dose":65.2},"coolest":{"len_m":4755.0,"mean_c":33.88,"peak_c":34.88,"dose":57.9},"delta_mean_c":-0.19,"delta_dose_pct":-11,"distance_mi":2.181,"status_now":"bus","status_rec":"walk","reason":"Shortest route already under threshold (dose 65).","safe_until_hour":null}},{"type":"Feature","geometry":{"type":"Polygon","coordinates":[[[-81.496,28.5744],[-81.482,28.5744],[-81.482,28.594],[-81.496,28.594],[-81.496,28.5744]]]},"properties":{"block_id":"120951231001004","school_id":"sch_hiawassee_elementary","kids_est":17,"class":"green","shortest":{"len_m":3069.4,"mean_c":35.15,"peak_c":36.35,"dose":91.7},"coolest":{"len_m":3361.3,"mean_c":34.67,"peak_c":35.67,"dose":77.9},"delta_mean_c":-0.48,"delta_dose_pct":-15,"distance_mi":1.526,"status_now":"walk","status_rec":"walk","reason":"Shortest route already under threshold (dose 92).","safe_until_hour":null}},{"type":"Feature","geometry":{"type":"Polygon","coordinates":[[[-81.37,28.594],[-81.356,28.594],[-81.356,28.6136],[-81.37,28.6136],[-81.37,28.594]]]},"properties":{"block_id":"120951240001005","school_id":"sch_hungerford_elementary","kids_est":40,"class":"red","shortest":{"len_m":2635.3,"mean_c":38.06,"peak_c":39.26,"dose":185.2},"coolest":{"len_m":2955.8,"mean_c":36.43,"peak_c":37.43,"dose":141.0},"delta_mean_c":-1.63,"delta_dose_pct":-24,"distance_mi":1.31,"status_now":"walk","status_rec":"bus_eligible","reason":"Coolest route mean 36.4C exceeds threshold (110 C-min dose, actual 141).","safe_until_hour":"11:00"}},{"type":"Feature","geometry":{"type":"Polygon","coordinates":[[[-81.356,28.594],[-81.342,28.594],[-81.342,28.6136],[-81.356,28.6136],[-81.356,28.594]]]},"properties":{"block_id":"120951241001005","school_id":"sch_hungerford_elementary","kids_est":7,"class":"red","shortest":{"len_m":4164.9,"mean_c":37.45,"peak_c":38.65,"dose":257.4},"coolest":{"len_m":4589.0,"mean_c":36.34,"peak_c":37.34,"dose":212.9},"delta_mean_c":-1.11,"delta_dose_pct":-17,"distance_mi":2.07,"status_now":"bus","status_rec":"bus_eligible","reason":"Coolest route mean 36.3C exceeds threshold (110 C-min dose, actual 213).","safe_until_hour":"10:00"}},{"type":"Feature","geometry":{"type":"Polygon","coordinates":[[[-81.398,28.6136],[-81.384,28.6136],[-81.384,28.6332],[-81.398,28.6332],[-81.398,28.6136]]]},"properties":{"block_id":"120951238001006","school_id":"sch_hungerford_elementary","kids_est":28,"class":"green","shortest":{"len_m":1747.1,"mean_c":36.55,"peak_c":37.75,"dose":86.1},"coolest":{"len_m":2172.4,"mean_c":34.01,"peak_c":35.01,"dose":30.6},"delta_mean_c":-2.54,"delta_dose_pct":-64,"distance_mi":0.868,"status_now":"walk","status_rec":"walk","reason":"Shortest route already under threshold (dose 86).","safe_until_hour":null}},{"type":"Feature","geometry":{"type":"Polygon","coordinates":[[[-81.384,28.6136],[-81.37,28.6136],[-81.37,28.6332],[-81.384,28.6332],[-81.384,28.6136]]]},"properties":{"block_id":"120951239001006","school_id":"sch_hungerford_elementary","kids_est":30,"class":"green","shortest":{"len_m":1324.7,"mean_c":38.08,"peak_c":39.28,"dose":93.5},"coolest":{"len_m":1466.2,"mean_c":36.72,"peak_c":37.72,"dose":75.8},"delta_mean_c":-1.36,"delta_dose_pct":-19,"distance_mi":0.659,"status_now":"walk","status_rec":"walk","reason":"Shortest route already under threshold (dose 94).","safe_until_hour":null}},{"type":"Feature","geometry":{"type":"Polygon","coordinates":[[[-81.37,28.6136],[-81.356,28.6136],[-81.356,28.6332],[-81.37,28.6332],[-81.37,28.6136]]]},"properties":{"block_id":"120951240001006","school_id":"sch_hungerford_elementary","kids_est":36,"class":"red","shortest":{"len_m":2511.2,"mean_c":37.87,"peak_c":39.07,"dose":169.9},"coolest":{"len_m":2775.3,"mean_c":36.6,"peak_c":37.6,"dose":138.7},"delta_mean_c":-1.27,"delta_dose_pct":-18,"distance_mi":1.248,"status_now":"walk","status_rec":"bus_eligible","reason":"Coolest route mean 36.6C exceeds threshold (110 C-min dose, actual 139).","safe_until_hour":"12:00"}},{"type":"Feature","geometry":{"type":"Polygon","coordinates":[[[-81.356,28.6136],[-81.342,28.6136],[-81.342,28.6332],[-81.356,28.6332],[-81.356,28.6136]]]},"properties":{"block_id":"120951241001006","school_id":"sch_hungerford_elementary","kids_est":32,"class":"red","shortest":{"len_m":4087.3,"mean_c":37.54,"peak_c":38.74,"dose":257.7},"coolest":{"len_m":4515.7,"mean_c":36.36,"peak_c":37.36,"dose":210.6},"delta_mean_c":-1.18,"delta_dose_pct":-18,"distance_mi":2.032,"status_now":"bus","status_rec":"bus_eligible","reason":"Coolest route mean 36.4C exceeds threshold (110 C-min dose, actual 211).","safe_until_hour":"09:00"}},{"type":"Feature","geometry":{"type":"Polygon","coordinates":[[[-81.384,28.6332],[-81.37,28.6332],[-81.37,28.6528],[-81.384,28.6528],[-81.384,28.6332]]]},"properties":{"block_id":"120951239001007","school_id":"sch_hungerford_elementary","kids_est":35,"class":"yellow","shortest":{"len_m":3973.2,"mean_c":37.15,"peak_c":38.35,"dose":229.0},"coolest":{"len_m":4991.6,"mean_c":34.03,"peak_c":35.03,"dose":71.5},"delta_mean_c":-3.12,"delta_dose_pct":-69,"distance_mi":1.975,"status_now":"walk","status_rec":"reroute","reason":"Shortest route exceeds threshold, but coolest route mean 34.0C stays under it (dose 72).","safe_until_hour":null}},{"type":"Feature","geometry":{"type":"Polygon","coordinates":[[[-81.37,28.6332],[-81.356,28.6332],[-81.356,28.6528],[-81.37,28.6528],[-81.37,28.6332]]]},"properties":{"block_id":"120951240001007","school_id":"sch_hungerford_elementary","kids_est":9,"class":"red","shortest":{"len_m":4509.6,"mean_c":37.83,"peak_c":39.03,"dose":302.5},"coolest":{"len_m":5019.7,"mean_c":36.43,"peak_c":37.43,"dose":238.9},"delta_mean_c":-1.4,"delta_dose_pct":-21,"distance_mi":2.242,"status_now":"bus","status_rec":"bus_eligible","reason":"Coolest route mean 36.4C exceeds threshold (110 C-min dose, actual 239).","safe_until_hour":"09:00"}},{"type":"Feature","geometry":{"type":"Polygon","coordinates":[[[-81.356,28.6332],[-81.342,28.6332],[-81.342,28.6528],[-81.356,28.6528],[-81.356,28.6332]]]},"properties":{"block_id":"120951241001007","school_id":"sch_hungerford_elementary","kids_est":44,"class":"red","shortest":{"len_m":5543.9,"mean_c":38.15,"peak_c":39.35,"dose":396.5},"coolest":{"len_m":6112.4,"mean_c":36.85,"peak_c":37.85,"dose":327.1},"delta_mean_c":-1.3,"delta_dose_pct":-18,"distance_mi":2.756,"status_now":"bus","status_rec":"bus_eligible","reason":"Coolest route mean 36.9C exceeds threshold (110 C-min dose, actual 327).","safe_until_hour":"08:00"}},{"type":"Feature","geometry":{"type":"Polygon","coordinates":[[[-81.454,28.5352],[-81.44,28.5352],[-81.44,28.5548],[-81.454,28.5548],[-81.454,28.5352]]]},"properties":{"block_id":"120951234001002","school_id":"sch_ivey_lane_elementary","kids_est":42,"class":"green","shortest":{"len_m":1197.5,"mean_c":35.82,"peak_c":37.02,"dose":46.9},"coolest":{"len_m":1493.5,"mean_c":33.78,"peak_c":34.78,"dose":16.1},"delta_mean_c":-2.04,"delta_dose_pct":-66,"distance_mi":0.595,"status_now":"walk","status_rec":"walk","reason":"Shortest route already under threshold (dose 47).","safe_until_hour":null}},{"type":"Feature","geometry":{"type":"Polygon","coordinates":[[[-81.44,28.5352],[-81.426,28.5352],[-81.426,28.5548],[-81.44,28.5548],[-81.44,28.5352]]]},"properties":{"block_id":"120951235001002","school_id":"sch_ivey_lane_elementary","kids_est":21,"class":"green","shortest":{"len_m":522.2,"mean_c":36.54,"peak_c":37.74,"dose":25.7},"coolest":{"len_m":649.6,"mean_c":34.01,"peak_c":35.01,"dose":9.1},"delta_mean_c":-2.53,"delta_dose_pct":-65,"distance_mi":0.26,"status_now":"walk","status_rec":"walk","reason":"Shortest route already under threshold (dose 26).","safe_until_hour":null}},{"type":"Feature","geometry":{"type":"Polygon","coordinates":[[[-81.398,28.496],[-81.384,28.496],[-81.384,28.5156],[-81.398,28.5156],[-81.398,28.496]]]},"properties":{"block_id":"120951238001000","school_id":"sch_jones_high","kids_est":12,"class":"yellow","shortest":{"len_m":3958.6,"mean_c":37.16,"peak_c":38.36,"dose":228.7},"coolest":{"len_m":4950.4,"mean_c":34.1,"peak_c":35.1,"dose":75.8},"delta_mean_c":-3.06,"delta_dose_pct":-67,"distance_mi":1.968,"status_now":"walk","status_rec":"reroute","reason":"Shortest route exceeds threshold, but coolest route mean 34.1C stays under it (dose 76).","safe_until_hour":null}},{"type":"Feature","geometry":{"type":"Polygon","coordinates":[[[-81.384,28.496],[-81.37,28.496],[-81.37,28.5156],[-81.384,28.5156],[-81.384,28.496]]]},"properties":{"block_id":"120951239001000","school_id":"sch_jones_high","kids_est":33,"class":"red","shortest":{"len_m":4727.3,"mean_c":37.65,"peak_c":38.85,"dose":305.3},"coolest":{"len_m":5289.5,"mean_c":36.2,"peak_c":37.2,"dose":235.2},"delta_mean_c":-1.45,"delta_dose_pct":-23,"distance_mi":2.35,"status_now":"bus","status_rec":"bus_eligible","reason":"Coolest route mean 36.2C exceeds threshold (110 C-min dose, actual 235).","safe_until_hour":"10:00"}},{"type":"Feature","geometry":{"type":"Polygon","coordinates":[[[-81.412,28.5156],[-81.398,28.5156],[-81.398,28.5352],[-81.412,28.5352],[-81.412,28.5156]]]},"properties":{"block_id":"120951237001001","school_id":"sch_jones_high","kids_est":36,"class":"green","shortest":{"len_m":1257.8,"mean_c":36.69,"peak_c":37.89,"dose":64.5},"coolest":{"len_m":1567.7,"mean_c":34.02,"peak_c":35.02,"dose":22.3},"delta_mean_c":-2.67,"delta_dose_pct":-65,"distance_mi":0.625,"status_now":"walk","status_rec":"walk","reason":"Shortest route already under threshold (dose 64).","safe_until_hour":null}},{"type":"Feature","geometry":{"type":"Polygon","coordinates":[[[-81.398,28.5156],[-81.384,28.5156],[-81.384,28.5352],[-81.398,28.5352],[-81.398,28.5156]]]},"properties":{"block_id":"120951238001001","school_id":"sch_jones_high","kids_est":13,"class":"green","shortest":{"len_m":1548.9,"mean_c":37.38,"peak_c":38.58,"dose":94.2},"coolest":{"len_m":1938.5,"mean_c":34.15,"peak_c":35.15,"dose":30.9},"delta_mean_c":-3.23,"delta_dose_pct":-67,"distance_mi":0.77,"status_now":"walk","status_rec":"walk","reason":"Shortest route already under threshold (dose 94).","safe_until_hour":null}},{"type":"Feature","geometry":{"type":"Polygon","coordinates":[[[-81.384,28.5744],[-81.37,28.5744],[-81.37,28.594],[-81.384,28.594],[-81.384,28.5744]]]},"properties":{"block_id":"120951239001004","school_id":"sch_killarney_elementary","kids_est":22,"class":"yellow","shortest":{"len_m":1694.1,"mean_c":37.91,"peak_c":39.11,"dose":115.5},"coolest":{"len_m":1870.6,"mean_c":36.65,"peak_c":37.65,"dose":94.7},"delta_mean_c":-1.26,"delta_dose_pct":-18,"distance_mi":0.842,"status_now":"walk","status_rec":"reroute","reason":"Shortest route exceeds threshold, but coolest route mean 36.6C stays under it (dose 95).","safe_until_hour":null}},{"type":"Feature","geometry":{"type":"Polygon","coordinates":[[[-81.37,28.5744],[-81.356,28.5744],[-81.356,28.594],[-81.37,28.594],[-81.37,28.5744]]]},"properties":{"block_id":"120951240001004","school_id":"sch_killarney_elementary","kids_est":8,"class":"red","shortest":{"len_m":2869.0,"mean_c":37.75,"peak_c":38.95,"dose":189.3},"coolest":{"len_m":3205.6,"mean_c":36.3,"peak_c":37.3,"dose":146.8},"delta_mean_c":-1.45,"delta_dose_pct":-22,"distance_mi":1.426,"status_now":"walk","status_rec":"bus_eligible","reason":"Coolest route mean 36.3C exceeds threshold (110 C-min dose, actual 147).","safe_until_hour":"12:00"}},{"type":"Feature","geometry":{"type":"Polygon","coordinates":[[[-81.356,28.5744],[-81.342,28.5744],[-81.342,28.594],[-81.356,28.594],[-81.356,28.5744]]]},"properties":{"block_id":"120951241001004","school_id":"sch_killarney_elementary","kids_est":13,"class":"red","shortest":{"len_m":4409.6,"mean_c":37.83,"peak_c":39.03,"dose":295.8},"coolest":{"len_m":4832.7,"mean_c":36.73,"peak_c":37.73,"dose":250.5},"delta_mean_c":-1.1,"delta_dose_pct":-15,"distance_mi":2.192,"status_now":"bus","status_rec":"bus_eligible","reason":"Coolest route mean 36.7C exceeds threshold (110 C-min dose, actual 250).","safe_until_hour":"08:00"}},{"type":"Feature","geometry":{"type":"Polygon","coordinates":[[[-81.37,28.496],[-81.356,28.496],[-81.356,28.5156],[-81.37,28.5156],[-81.37,28.496]]]},"properties":{"block_id":"120951240001000","school_id":"sch_lake_eola_charter","kids_est":26,"class":"red","shortest":{"len_m":5591.9,"mean_c":37.78,"peak_c":38.98,"dose":371.2},"coolest":{"len_m":6255.9,"mean_c":36.29,"peak_c":37.29,"dose":286.1},"delta_mean_c":-1.49,"delta_dose_pct":-23,"distance_mi":2.78,"status_now":"bus","status_rec":"bus_eligible","reason":"Coolest route mean 36.3C exceeds threshold (110 C-min dose, actual 286).","safe_until_hour":"09:00"}},{"type":"Feature","geometry":{"type":"Polygon","coordinates":[[[-81.356,28.496],[-81.342,28.496],[-81.342,28.5156],[-81.356,28.5156],[-81.356,28.496]]]},"properties":{"block_id":"120951241001000","school_id":"sch_lake_eola_charter","kids_est":44,"class":"red","shortest":{"len_m":6333.3,"mean_c":38.19,"peak_c":39.39,"dose":456.5},"coolest":{"len_m":7068.9,"mean_c":36.62,"peak_c":37.62,"dose":355.8},"delta_mean_c":-1.57,"delta_dose_pct":-22,"distance_mi":3.148,"status_now":"bus","status_rec":"bus_eligible","reason":"Coolest route mean 36.6C exceeds threshold (110 C-min dose, actual 356).","safe_until_hour":"08:00"}},{"type":"Feature","geometry":{"type":"Polygon","coordinates":[[[-81.384,28.5156],[-81.37,28.5156],[-81.37,28.5352],[-81.384,28.5352],[-81.384,28.5156]]]},"properties":{"block_id":"120951239001001","school_id":"sch_lake_eola_charter","kids_est":26,"class":"yellow","shortest":{"len_m":2610.3,"mean_c":36.82,"peak_c":38.02,"dose":138.5},"coolest":{"len_m":3236.7,"mean_c":34.13,"peak_c":35.13,"dose":50.8},"delta_mean_c":-2.69,"delta_dose_pct":-63,"distance_mi":1.298,"status_now":"walk","status_rec":"reroute","reason":"Shortest route exceeds threshold, but coolest route mean 34.1C stays under it (dose 51).","safe_until_hour":null}},{"type":"Feature","geometry":{"type":"Polygon","coordinates":[[[-81.37,28.5156],[-81.356,28.5156],[-81.356,28.5352],[-81.37,28.5352],[-81.37,28.5156]]]},"properties":{"block_id":"120951240001001","school_id":"sch_lake_eola_charter","kids_est":15,"class":"red","shortest":{"len_m":3129.8,"mean_c":37.88,"peak_c":39.08,"dose":212.1},"coolest":{"len_m":3474.9,"mean_c":36.51,"peak_c":37.51,"dose":169.5},"delta_mean_c":-1.37,"delta_dose_pct":-20,"distance_mi":1.556,"status_now":"walk","status_rec":"bus_eligible","reason":"Coolest route mean 36.5C exceeds threshold (110 C-min dose, actual 170).","safe_until_hour":"12:00"}},{"type":"Feature","geometry":{"type":"Polygon","coordinates":[[[-81.356,28.5156],[-81.342,28.5156],[-81.342,28.5352],[-81.356,28.5352],[-81.356,28.5156]]]},"properties":{"block_id":"120951241001001","school_id":"sch_lake_eola_charter","kids_est":20,"class":"red","shortest":{"len_m":4316.9,"mean_c":37.67,"peak_c":38.87,"dose":280.0},"coolest":{"len_m":4747.6,"mean_c":36.54,"peak_c":37.54,"dose":233.5},"delta_mean_c":-1.13,"delta_dose_pct":-17,"distance_mi":2.146,"status_now":"bus","status_rec":"bus_eligible","reason":"Coolest route mean 36.5C exceeds threshold (110 C-min dose, actual 234).","safe_until_hour":"09:00"}},{"type":"Feature","geometry":{"type":"Polygon","coordinates":[[[-81.384,28.5352],[-81.37,28.5352],[-81.37,28.5548],[-81.384,28.5548],[-81.384,28.5352]]]},"properties":{"block_id":"120951239001002","school_id":"sch_lake_eola_charter","kids_est":44,"class":"green","shortest":{"len_m":99.2,"mean_c":37.03,"peak_c":38.23,"dose":5.6},"coolest":{"len_m":109.3,"mean_c":36.03,"peak_c":37.03,"dose":4.6},"delta_mean_c":-1.0,"delta_dose_pct":-18,"distance_mi":0.049,"status_now":"walk","status_rec":"walk","reason":"Shortest route already under threshold (dose 6).","safe_until_hour":null}},{"type":"Feature","geometry":{"type":"Polygon","coordinates":[[[-81.37,28.5352],[-81.356,28.5352],[-81.356,28.5548],[-81.37,28.5548],[-81.37,28.5352]]]},"properties":{"block_id":"120951240001002","school_id":"sch_lake_eola_charter","kids_est":31,"class":"green","shortest":{"len_m":1729.5,"mean_c":37.26,"peak_c":38.46,"dose":102.3},"coolest":{"len_m":1898.4,"mean_c":36.26,"peak_c":37.26,"dose":86.0},"delta_mean_c":-1.0,"delta_dose_pct":-16,"distance_mi":0.86,"status_now":"walk","status_rec":"walk","reason":"Shortest route already under threshold (dose 102).","safe_until_hour":null}},{"type":"Feature","geometry":{"type":"Polygon","coordinates":[[[-81.356,28.5352],[-81.342,28.5352],[-81.342,28.5548],[-81.356,28.5548],[-81.356,28.5352]]]},"properties":{"block_id":"120951241001002","school_id":"sch_lake_eola_charter","kids_est":15,"class":"red","shortest":{"len_m":3439.4,"mean_c":37.48,"peak_c":38.68,"dose":214.0},"coolest":{"len_m":3836.4,"mean_c":36.14,"peak_c":37.14,"dose":167.3},"delta_mean_c":-1.34,"delta_dose_pct":-22,"distance_mi":1.71,"status_now":"walk","status_rec":"bus_eligible","reason":"Coolest route mean 36.1C exceeds threshold (110 C-min dose, actual 167).","safe_until_hour":"11:00"}},{"type":"Feature","geometry":{"type":"Polygon","coordinates":[[[-81.412,28.5548],[-81.398,28.5548],[-81.398,28.5744],[-81.412,28.5744],[-81.412,28.5548]]]},"properties":{"block_id":"120951237001003","school_id":"sch_lake_silver_elementary","kids_est":23,"class":"green","shortest":{"len_m":1330.3,"mean_c":36.21,"peak_c":37.41,"dose":59.3},"coolest":{"len_m":1648.7,"mean_c":33.96,"peak_c":34.96,"dose":21.9},"delta_mean_c":-2.25,"delta_dose_pct":-63,"distance_mi":0.661,"status_now":"walk","status_rec":"walk","reason":"Shortest route already under threshold (dose 59).","safe_until_hour":null}},{"type":"Feature","geometry":{"type":"Polygon","coordinates":[[[-81.426,28.594],[-81.412,28.594],[-81.412,28.6136],[-81.426,28.6136],[-81.426,28.594]]]},"properties":{"block_id":"120951236001005","school_id":"sch_lake_weston_elementary","kids_est":36,"class":"green","shortest":{"len_m":1458.5,"mean_c":36.38,"peak_c":37.58,"dose":68.5},"coolest":{"len_m":1820.2,"mean_c":33.92,"peak_c":34.92,"dose":23.3},"delta_mean_c":-2.46,"delta_dose_pct":-66,"distance_mi":0.725,"status_now":"walk","status_rec":"walk","reason":"Shortest route already under threshold (dose 68).","safe_until_hour":null}},{"type":"Feature","geometry":{"type":"Polygon","coordinates":[[[-81.412,28.6136],[-81.398,28.6136],[-81.398,28.6332],[-81.412,28.6332],[-81.412,28.6136]]]},"properties":{"block_id":"120951237001006","school_id":"sch_lake_weston_elementary","kids_est":25,"class":"green","shortest":{"len_m":1757.0,"mean_c":36.56,"peak_c":37.76,"dose":86.9},"coolest":{"len_m":2183.1,"mean_c":34.03,"peak_c":35.03,"dose":31.1},"delta_mean_c":-2.53,"delta_dose_pct":-64,"distance_mi":0.873,"status_now":"walk","status_rec":"walk","reason":"Shortest route already under threshold (dose 87).","safe_until_hour":null}},{"type":"Feature","geometry":{"type":"Polygon","coordinates":[[[-81.426,28.496],[-81.412,28.496],[-81.412,28.5156],[-81.426,28.5156],[-81.426,28.496]]]},"properties":{"block_id":"120951236001000","school_id":"sch_legends_academy_charter","kids_est":44,"class":"yellow","shortest":{"len_m":3138.7,"mean_c":36.45,"peak_c":37.65,"dose":150.4},"coolest":{"len_m":3934.1,"mean_c":33.89,"peak_c":34.89,"dose":48.4},"delta_mean_c":-2.56,"delta_dose_pct":-68,"distance_mi":1.56,"status_now":"walk","status_rec":"reroute","reason":"Shortest route exceeds threshold, but coolest route mean 33.9C stays under it (dose 48).","safe_until_hour":null}},{"type":"Feature","geometry":{"type":"Polygon","coordinates":[[[-81.412,28.496],[-81.398,28.496],[-81.398,28.5156],[-81.412,28.5156],[-81.412,28.496]]]},"properties":{"block_id":"120951237001000","school_id":"sch_legends_academy_charter","kids_est":34,"class":"yellow","shortest":{"len_m":3348.6,"mean_c":37.15,"peak_c":38.35,"dose":193.0},"coolest":{"len_m":4130.5,"mean_c":34.31,"peak_c":35.31,"dose":74.9},"delta_mean_c":-2.84,"delta_dose_pct":-61,"distance_mi":1.665,"status_now":"walk","status_rec":"reroute","reason":"Shortest route exceeds threshold, but coolest route mean 34.3C stays under it (dose 75).","safe_until_hour":null}},{"type":"Feature","geometry":{"type":"Polygon","coordinates":[[[-81.426,28.5156],[-81.412,28.5156],[-81.412,28.5352],[-81.426,28.5352],[-81.426,28.5156]]]},"properties":{"block_id":"120951236001001","school_id":"sch_legends_academy_charter","kids_est":17,"class":"green","shortest":{"len_m":606.1,"mean_c":36.48,"peak_c":37.68,"dose":29.3},"coolest":{"len_m":752.8,"mean_c":34.0,"peak_c":35.0,"dose":10.5},"delta_mean_c":-2.48,"delta_dose_pct":-64,"distance_mi":0.301,"status_now":"walk","status_rec":"walk","reason":"Shortest route already under threshold (dose 29).","safe_until_hour":null}},{"type":"Feature","geometry":{"type":"Polygon","coordinates":[[[-81.468,28.6136],[-81.454,28.6136],[-81.454,28.6332],[-81.468,28.6332],[-81.468,28.6136]]]},"properties":{"block_id":"120951233001006","school_id":"sch_lockhart_elementary","kids_est":30,"class":"green","shortest":{"len_m":2277.8,"mean_c":35.67,"peak_c":36.87,"dose":84.5},"coolest":{"len_m":2493.8,"mean_c":35.08,"peak_c":36.08,"dose":71.9},"delta_mean_c":-0.59,"delta_dose_pct":-15,"distance_mi":1.132,"status_now":"walk","status_rec":"walk","reason":"Shortest route already under threshold (dose 84).","safe_until_hour":null}},{"type":"Feature","geometry":{"type":"Polygon","coordinates":[[[-81.454,28.6136],[-81.44,28.6136],[-81.44,28.6332],[-81.454,28.6332],[-81.454,28.6136]]]},"properties":{"block_id":"120951234001006","school_id":"sch_lockhart_elementary","kids_est":5,"class":"green","shortest":{"len_m":572.5,"mean_c":35.75,"peak_c":36.95,"dose":21.9},"coolest":{"len_m":718.2,"mean_c":33.7,"peak_c":34.7,"dose":7.0},"delta_mean_c":-2.05,"delta_dose_pct":-68,"distance_mi":0.285,"status_now":"walk","status_rec":"walk","reason":"Shortest route already under threshold (dose 22).","safe_until_hour":null}},{"type":"Feature","geometry":{"type":"Polygon","coordinates":[[[-81.44,28.6136],[-81.426,28.6136],[-81.426,28.6332],[-81.44,28.6332],[-81.44,28.6136]]]},"properties":{"block_id":"120951235001006","school_id":"sch_lockhart_elementary","kids_est":11,"class":"green","shortest":{"len_m":1146.9,"mean_c":36.24,"peak_c":37.44,"dose":51.6},"coolest":{"len_m":1428.6,"mean_c":33.9,"peak_c":34.9,"dose":17.9},"delta_mean_c":-2.34,"delta_dose_pct":-65,"distance_mi":0.57,"status_now":"walk","status_rec":"walk","reason":"Shortest route already under threshold (dose 52).","safe_until_hour":null}},{"type":"Feature","geometry":{"type":"Polygon","coordinates":[[[-81.426,28.6136],[-81.412,28.6136],[-81.412,28.6332],[-81.426,28.6332],[-81.426,28.6136]]]},"properties":{"block_id":"120951236001006","school_id":"sch_lockhart_middle","kids_est":44,"class":"green","shortest":{"len_m":497.0,"mean_c":36.99,"peak_c":38.19,"dose":27.5},"coolest":{"len_m":617.0,"mean_c":34.16,"peak_c":35.16,"dose":9.9},"delta_mean_c":-2.83,"delta_dose_pct":-64,"distance_mi":0.247,"status_now":"walk","status_rec":"walk","reason":"Shortest route already under threshold (dose 28).","safe_until_hour":null}},{"type":"Feature","geometry":{"type":"Polygon","coordinates":[[[-81.44,28.5548],[-81.426,28.5548],[-81.426,28.5744],[-81.44,28.5744],[-81.44,28.5548]]]},"properties":{"block_id":"120951235001003","school_id":"sch_lucious_and_emma_nixon_academy_charter","kids_est":5,"class":"green","shortest":{"len_m":342.5,"mean_c":35.75,"peak_c":36.95,"dose":13.1},"coolest":{"len_m":425.0,"mean_c":33.81,"peak_c":34.81,"dose":4.8},"delta_mean_c":-1.94,"delta_dose_pct":-63,"distance_mi":0.17,"status_now":"walk","status_rec":"walk","reason":"Shortest route already under threshold (dose 13).","safe_until_hour":null}},{"type":"Feature","geometry":{"type":"Polygon","coordinates":[[[-81.454,28.5744],[-81.44,28.5744],[-81.44,28.594],[-81.454,28.594],[-81.454,28.5744]]]},"properties":{"block_id":"120951234001004","school_id":"sch_maynard_evans_high","kids_est":28,"class":"green","shortest":{"len_m":690.8,"mean_c":35.62,"peak_c":36.82,"dose":25.1},"coolest":{"len_m":862.7,"mean_c":33.71,"peak_c":34.71,"dose":8.5},"delta_mean_c":-1.91,"delta_dose_pct":-66,"distance_mi":0.343,"status_now":"walk","status_rec":"walk","reason":"Shortest route already under threshold (dose 25).","safe_until_hour":null}},{"type":"Feature","geometry":{"type":"Polygon","coordinates":[[[-81.51,28.594],[-81.496,28.594],[-81.496,28.6136],[-81.51,28.6136],[-81.51,28.594]]]},"properties":{"block_id":"120951230001005","school_id":"sch_meadowbrook_middle","kids_est":36,"class":"green","shortest":{"len_m":5003.1,"mean_c":34.17,"peak_c":35.37,"dose":81.3},"coolest":{"len_m":5423.4,"mean_c":33.96,"peak_c":34.96,"dose":72.1},"delta_mean_c":-0.21,"delta_dose_pct":-11,"distance_mi":2.487,"status_now":"bus","status_rec":"walk","reason":"Shortest route already under threshold (dose 81).","safe_until_hour":null}},{"type":"Feature","geometry":{"type":"Polygon","coordinates":[[[-81.496,28.594],[-81.482,28.594],[-81.482,28.6136],[-81.496,28.6136],[-81.496,28.594]]]},"properties":{"block_id":"120951231001005","school_id":"sch_meadowbrook_middle","kids_est":14,"class":"green","shortest":{"len_m":3375.2,"mean_c":34.58,"peak_c":35.78,"dose":74.1},"coolest":{"len_m":3701.6,"mean_c":34.22,"peak_c":35.22,"dose":62.6},"delta_mean_c":-0.36,"delta_dose_pct":-16,"distance_mi":1.678,"status_now":"walk","status_rec":"walk","reason":"Shortest route already under threshold (dose 74).","safe_until_hour":null}},{"type":"Feature","geometry":{"type":"Polygon","coordinates":[[[-81.482,28.594],[-81.468,28.594],[-81.468,28.6136],[-81.482,28.6136],[-81.482,28.594]]]},"properties":{"block_id":"120951232001005","school_id":"sch_meadowbrook_middle","kids_est":39,"class":"green","shortest":{"len_m":1898.3,"mean_c":34.72,"peak_c":35.92,"dose":45.3},"coolest":{"len_m":2062.5,"mean_c":34.39,"peak_c":35.39,"dose":39.8},"delta_mean_c":-0.33,"delta_dose_pct":-12,"distance_mi":0.944,"status_now":"walk","status_rec":"walk","reason":"Shortest route already under threshold (dose 45).","safe_until_hour":null}},{"type":"Feature","geometry":{"type":"Polygon","coordinates":[[[-81.468,28.594],[-81.454,28.594],[-81.454,28.6136],[-81.468,28.6136],[-81.468,28.594]]]},"properties":{"block_id":"120951233001005","school_id":"sch_meadowbrook_middle","kids_est":29,"class":"green","shortest":{"len_m":1290.7,"mean_c":35.53,"peak_c":36.73,"dose":45.4},"coolest":{"len_m":1417.8,"mean_c":34.93,"peak_c":35.93,"dose":38.1},"delta_mean_c":-0.6,"delta_dose_pct":-16,"distance_mi":0.642,"status_now":"walk","status_rec":"walk","reason":"Shortest route already under threshold (dose 45).","safe_until_hour":null}},{"type":"Feature","geometry":{"type":"Polygon","coordinates":[[[-81.454,28.5548],[-81.44,28.5548],[-81.44,28.5744],[-81.454,28.5744],[-81.454,28.5548]]]},"properties":{"block_id":"120951234001003","school_id":"sch_mollie_ray_elementary","kids_est":6,"class":"green","shortest":{"len_m":908.8,"mean_c":36.21,"peak_c":37.41,"dose":40.5},"coolest":{"len_m":1143.7,"mean_c":33.77,"peak_c":34.77,"dose":12.3},"delta_mean_c":-2.44,"delta_dose_pct":-70,"distance_mi":0.452,"status_now":"walk","status_rec":"walk","reason":"Shortest route already under threshold (dose 40).","safe_until_hour":null}},{"type":"Feature","geometry":{"type":"Polygon","coordinates":[[[-81.398,28.5352],[-81.384,28.5352],[-81.384,28.5548],[-81.398,28.5548],[-81.398,28.5352]]]},"properties":{"block_id":"120951238001002","school_id":"sch_ocps_academic_center_for_excellence","kids_est":44,"class":"green","shortest":{"len_m":419.9,"mean_c":36.57,"peak_c":37.77,"dose":20.8},"coolest":{"len_m":524.1,"mean_c":33.98,"peak_c":34.98,"dose":7.1},"delta_mean_c":-2.59,"delta_dose_pct":-66,"distance_mi":0.209,"status_now":"walk","status_rec":"walk","reason":"Shortest route already under threshold (dose 21).","safe_until_hour":null}},{"type":"Feature","geometry":{"type":"Polygon","coordinates":[[[-81.482,28.5352],[-81.468,28.5352],[-81.468,28.5548],[-81.482,28.5548],[-81.482,28.5352]]]},"properties":{"block_id":"120951232001002","school_id":"sch_oak_hill_elementary","kids_est":35,"class":"green","shortest":{"len_m":701.6,"mean_c":35.13,"peak_c":36.33,"dose":20.8},"coolest":{"len_m":771.1,"mean_c":34.62,"peak_c":35.62,"dose":17.4},"delta_mean_c":-0.51,"delta_dose_pct":-16,"distance_mi":0.349,"status_now":"walk","status_rec":"walk","reason":"Shortest route already under threshold (dose 21).","safe_until_hour":null}},{"type":"Feature","geometry":{"type":"Polygon","coordinates":[[[-81.426,28.5548],[-81.412,28.5548],[-81.412,28.5744],[-81.426,28.5744],[-81.426,28.5548]]]},"properties":{"block_id":"120951236001003","school_id":"sch_orlando_science_elementary_charter","kids_est":12,"class":"green","shortest":{"len_m":1368.5,"mean_c":36.83,"peak_c":38.03,"dose":72.8},"coolest":{"len_m":1712.7,"mean_c":34.0,"peak_c":35.0,"dose":23.9},"delta_mean_c":-2.83,"delta_dose_pct":-67,"distance_mi":0.68,"status_now":"walk","status_rec":"walk","reason":"Shortest route already under threshold (dose 73).","safe_until_hour":null}},{"type":"Feature","geometry":{"type":"Polygon","coordinates":[[[-81.426,28.5744],[-81.412,28.5744],[-81.412,28.594],[-81.426,28.594],[-81.426,28.5744]]]},"properties":{"block_id":"120951236001004","school_id":"sch_orlando_science_middle_high_charter","kids_est":14,"class":"green","shortest":{"len_m":1636.7,"mean_c":36.84,"peak_c":38.04,"dose":87.3},"coolest":{"len_m":2018.1,"mean_c":34.21,"peak_c":35.21,"dose":34.0},"delta_mean_c":-2.63,"delta_dose_pct":-61,"distance_mi":0.814,"status_now":"walk","status_rec":"walk","reason":"Shortest route already under threshold (dose 87).","safe_until_hour":null}},{"type":"Feature","geometry":{"type":"Polygon","coordinates":[[[-81.468,28.5156],[-81.454,28.5156],[-81.454,28.5352],[-81.468,28.5352],[-81.468,28.5156]]]},"properties":{"block_id":"120951233001001","school_id":"sch_orlo_vista_elementary","kids_est":11,"class":"green","shortest":{"len_m":2243.9,"mean_c":35.54,"peak_c":36.74,"dose":79.2},"coolest":{"len_m":2425.4,"mean_c":35.11,"peak_c":36.11,"dose":71.0},"delta_mean_c":-0.43,"delta_dose_pct":-10,"distance_mi":1.115,"status_now":"walk","status_rec":"walk","reason":"Shortest route already under threshold (dose 79).","safe_until_hour":null}},{"type":"Feature","geometry":{"type":"Polygon","coordinates":[[[-81.454,28.5156],[-81.44,28.5156],[-81.44,28.5352],[-81.454,28.5352],[-81.454,28.5156]]]},"properties":{"block_id":"120951234001001","school_id":"sch_orlo_vista_elementary","kids_est":32,"class":"yellow","shortest":{"len_m":2647.1,"mean_c":36.03,"peak_c":37.23,"dose":111.4},"coolest":{"len_m":2884.0,"mean_c":35.41,"peak_c":36.41,"dose":96.7},"delta_mean_c":-0.62,"delta_dose_pct":-13,"distance_mi":1.316,"status_now":"walk","status_rec":"reroute","reason":"Shortest route exceeds threshold, but coolest route mean 35.4C stays under it (dose 97).","safe_until_hour":null}},{"type":"Feature","geometry":{"type":"Polygon","coordinates":[[[-81.468,28.5352],[-81.454,28.5352],[-81.454,28.5548],[-81.468,28.5548],[-81.468,28.5352]]]},"properties":{"block_id":"120951233001002","school_id":"sch_orlo_vista_elementary","kids_est":5,"class":"green","shortest":{"len_m":557.0,"mean_c":35.53,"peak_c":36.73,"dose":19.6},"coolest":{"len_m":609.8,"mean_c":34.97,"peak_c":35.97,"dose":16.7},"delta_mean_c":-0.56,"delta_dose_pct":-15,"distance_mi":0.277,"status_now":"walk","status_rec":"walk","reason":"Shortest route already under threshold (dose 20).","safe_until_hour":null}},{"type":"Feature","geometry":{"type":"Polygon","coordinates":[[[-81.398,28.594],[-81.384,28.594],[-81.384,28.6136],[-81.398,28.6136],[-81.398,28.594]]]},"properties":{"block_id":"120951238001005","school_id":"sch_pace_center_for_girls","kids_est":22,"class":"green","shortest":{"len_m":723.6,"mean_c":37.22,"peak_c":38.42,"dose":42.4},"coolest":{"len_m":910.3,"mean_c":34.03,"peak_c":35.03,"dose":13.0},"delta_mean_c":-3.19,"delta_dose_pct":-69,"distance_mi":0.36,"status_now":"walk","status_rec":"walk","reason":"Shortest route already under threshold (dose 42).","safe_until_hour":null}},{"type":"Feature","geometry":{"type":"Polygon","coordinates":[[[-81.384,28.594],[-81.37,28.594],[-81.37,28.6136],[-81.384,28.6136],[-81.384,28.594]]]},"properties":{"block_id":"120951239001005","school_id":"sch_pace_center_for_girls","kids_est":32,"class":"green","shortest":{"len_m":1105.4,"mean_c":37.16,"peak_c":38.36,"dose":63.9},"coolest":{"len_m":1220.2,"mean_c":36.09,"peak_c":37.09,"dose":52.4},"delta_mean_c":-1.07,"delta_dose_pct":-18,"distance_mi":0.549,"status_now":"walk","status_rec":"walk","reason":"Shortest route already under threshold (dose 64).","safe_until_hour":null}},{"type":"Feature","geometry":{"type":"Polygon","coordinates":[[[-81.468,28.5548],[-81.454,28.5548],[-81.454,28.5744],[-81.468,28.5744],[-81.468,28.5548]]]},"properties":{"block_id":"120951233001003","school_id":"sch_pine_hills_elementary","kids_est":43,"class":"green","shortest":{"len_m":636.6,"mean_c":34.9,"peak_c":36.1,"dose":16.8},"coolest":{"len_m":700.7,"mean_c":34.44,"peak_c":35.44,"dose":14.0},"delta_mean_c":-0.46,"delta_dose_pct":-17,"distance_mi":0.316,"status_now":"walk","status_rec":"walk","reason":"Shortest route already under threshold (dose 17).","safe_until_hour":null}},{"type":"Feature","geometry":{"type":"Polygon","coordinates":[[[-81.412,28.594],[-81.398,28.594],[-81.398,28.6136],[-81.412,28.6136],[-81.412,28.594]]]},"properties":{"block_id":"120951237001005","school_id":"sch_pinecrest_creek_charter","kids_est":32,"class":"green","shortest":{"len_m":816.6,"mean_c":36.68,"peak_c":37.88,"dose":41.7},"coolest":{"len_m":1014.9,"mean_c":34.06,"peak_c":35.06,"dose":14.9},"delta_mean_c":-2.62,"delta_dose_pct":-64,"distance_mi":0.406,"status_now":"walk","status_rec":"walk","reason":"Shortest route already under threshold (dose 42).","safe_until_hour":null}},{"type":"Feature","geometry":{"type":"Polygon","coordinates":[[[-81.398,28.5548],[-81.384,28.5548],[-81.384,28.5744],[-81.398,28.5744],[-81.398,28.5548]]]},"properties":{"block_id":"120951238001003","school_id":"sch_princeton_elementary","kids_est":19,"class":"green","shortest":{"len_m":1345.4,"mean_c":36.84,"peak_c":38.04,"dose":71.8},"coolest":{"len_m":1690.0,"mean_c":33.96,"peak_c":34.96,"dose":22.5},"delta_mean_c":-2.88,"delta_dose_pct":-69,"distance_mi":0.669,"status_now":"walk","status_rec":"walk","reason":"Shortest route already under threshold (dose 72).","safe_until_hour":null}},{"type":"Feature","geometry":{"type":"Polygon","coordinates":[[[-81.384,28.5548],[-81.37,28.5548],[-81.37,28.5744],[-81.384,28.5744],[-81.384,28.5548]]]},"properties":{"block_id":"120951239001003","school_id":"sch_princeton_elementary","kids_est":38,"class":"green","shortest":{"len_m":1369.5,"mean_c":37.81,"peak_c":39.01,"dose":91.5},"coolest":{"len_m":1685.9,"mean_c":34.55,"peak_c":35.55,"dose":36.3},"delta_mean_c":-3.26,"delta_dose_pct":-60,"distance_mi":0.681,"status_now":"walk","status_rec":"walk","reason":"Shortest route already under threshold (dose 92).","safe_until_hour":null}},{"type":"Feature","geometry":{"type":"Polygon","coordinates":[[[-81.37,28.5548],[-81.356,28.5548],[-81.356,28.5744],[-81.37,28.5744],[-81.37,28.5548]]]},"properties":{"block_id":"120951240001003","school_id":"sch_princeton_elementary","kids_est":8,"class":"yellow","shortest":{"len_m":2792.0,"mean_c":37.48,"peak_c":38.68,"dose":173.7},"coolest":{"len_m":3440.1,"mean_c":34.43,"peak_c":35.43,"dose":68.2},"delta_mean_c":-3.05,"delta_dose_pct":-61,"distance_mi":1.388,"status_now":"walk","status_rec":"reroute","reason":"Shortest route exceeds threshold, but coolest route mean 34.4C stays under it (dose 68).","safe_until_hour":null}},{"type":"Feature","geometry":{"type":"Polygon","coordinates":[[[-81.356,28.5548],[-81.342,28.5548],[-81.342,28.5744],[-81.356,28.5744],[-81.356,28.5548]]]},"properties":{"block_id":"120951241001003","school_id":"sch_princeton_elementary","kids_est":13,"class":"red","shortest":{"len_m":4423.7,"mean_c":37.98,"peak_c":39.18,"dose":306.0},"coolest":{"len_m":4890.6,"mean_c":36.67,"peak_c":37.67,"dose":249.4},"delta_mean_c":-1.31,"delta_dose_pct":-18,"distance_mi":2.199,"status_now":"bus","status_rec":"bus_eligible","reason":"Coolest route mean 36.7C exceeds threshold (110 C-min dose, actual 249).","safe_until_hour":"09:00"}},{"type":"Feature","geometry":{"type":"Polygon","coordinates":[[[-81.426,28.5352],[-81.412,28.5352],[-81.412,28.5548],[-81.426,28.5548],[-81.426,28.5352]]]},"properties":{"block_id":"120951236001002","school_id":"sch_prosperitas_leadership_academy_charter","kids_est":35,"class":"green","shortest":{"len_m":1184.4,"mean_c":36.73,"peak_c":37.93,"dose":61.4},"coolest":{"len_m":1484.8,"mean_c":33.96,"peak_c":34.96,"dose":19.7},"delta_mean_c":-2.77,"delta_dose_pct":-68,"distance_mi":0.589,"status_now":"walk","status_rec":"walk","reason":"Shortest route already under threshold (dose 61).","safe_until_hour":null}},{"type":"Feature","geometry":{"type":"Polygon","coordinates":[[[-81.412,28.5352],[-81.398,28.5352],[-81.398,28.5548],[-81.412,28.5548],[-81.412,28.5352]]]},"properties":{"block_id":"120951237001002","school_id":"sch_prosperitas_leadership_academy_charter","kids_est":35,"class":"green","shortest":{"len_m":551.1,"mean_c":36.51,"peak_c":37.71,"dose":26.9},"coolest":{"len_m":683.6,"mean_c":34.03,"peak_c":35.03,"dose":9.8},"delta_mean_c":-2.48,"delta_dose_pct":-64,"distance_mi":0.274,"status_now":"walk","status_rec":"walk","reason":"Shortest route already under threshold (dose 27).","safe_until_hour":null}},{"type":"Feature","geometry":{"type":"Polygon","coordinates":[[[-81.482,28.5744],[-81.468,28.5744],[-81.468,28.594],[-81.482,28.594],[-81.482,28.5744]]]},"properties":{"block_id":"120951232001004","school_id":"sch_ridgewood_park_elementary","kids_est":18,"class":"green","shortest":{"len_m":1518.4,"mean_c":34.61,"peak_c":35.81,"dose":34.0},"coolest":{"len_m":1646.2,"mean_c":34.32,"peak_c":35.32,"dose":30.1},"delta_mean_c":-0.29,"delta_dose_pct":-11,"distance_mi":0.755,"status_now":"walk","status_rec":"walk","reason":"Shortest route already under threshold (dose 34).","safe_until_hour":null}},{"type":"Feature","geometry":{"type":"Polygon","coordinates":[[[-81.468,28.5744],[-81.454,28.5744],[-81.454,28.594],[-81.468,28.594],[-81.468,28.5744]]]},"properties":{"block_id":"120951233001004","school_id":"sch_ridgewood_park_elementary","kids_est":31,"class":"green","shortest":{"len_m":340.2,"mean_c":35.27,"peak_c":36.47,"dose":10.7},"coolest":{"len_m":377.1,"mean_c":34.64,"peak_c":35.64,"dose":8.6},"delta_mean_c":-0.63,"delta_dose_pct":-20,"distance_mi":0.169,"status_now":"walk","status_rec":"walk","reason":"Shortest route already under threshold (dose 11).","safe_until_hour":null}},{"type":"Feature","geometry":{"type":"Polygon","coordinates":[[[-81.44,28.6332],[-81.426,28.6332],[-81.426,28.6528],[-81.44,28.6528],[-81.44,28.6332]]]},"properties":{"block_id":"120951235001007","school_id":"sch_riverside_elementary","kids_est":15,"class":"green","shortest":{"len_m":1958.8,"mean_c":35.51,"peak_c":36.71,"dose":68.3},"coolest":{"len_m":2419.6,"mean_c":33.78,"peak_c":34.78,"dose":26.1},"delta_mean_c":-1.73,"delta_dose_pct":-62,"distance_mi":0.974,"status_now":"walk","status_rec":"walk","reason":"Shortest route already under threshold (dose 68).","safe_until_hour":null}},{"type":"Feature","geometry":{"type":"Polygon","coordinates":[[[-81.426,28.6332],[-81.412,28.6332],[-81.412,28.6528],[-81.426,28.6528],[-81.426,28.6332]]]},"properties":{"block_id":"120951236001007","school_id":"sch_riverside_elementary","kids_est":34,"class":"green","shortest":{"len_m":1360.4,"mean_c":36.47,"peak_c":37.67,"dose":65.6},"coolest":{"len_m":1696.8,"mean_c":33.95,"peak_c":34.95,"dose":22.5},"delta_mean_c":-2.52,"delta_dose_pct":-66,"distance_mi":0.676,"status_now":"walk","status_rec":"walk","reason":"Shortest route already under threshold (dose 66).","safe_until_hour":null}},{"type":"Feature","geometry":{"type":"Polygon","coordinates":[[[-81.412,28.6332],[-81.398,28.6332],[-81.398,28.6528],[-81.412,28.6528],[-81.412,28.6332]]]},"properties":{"block_id":"120951237001007","school_id":"sch_riverside_elementary","kids_est":26,"class":"yellow","shortest":{"len_m":2389.8,"mean_c":37.36,"peak_c":38.56,"dose":144.7},"coolest":{"len_m":2944.0,"mean_c":34.39,"peak_c":35.39,"dose":57.0},"delta_mean_c":-2.97,"delta_dose_pct":-61,"distance_mi":1.188,"status_now":"walk","status_rec":"reroute","reason":"Shortest route exceeds threshold, but coolest route mean 34.4C stays under it (dose 57).","safe_until_hour":null}},{"type":"Feature","geometry":{"type":"Polygon","coordinates":[[[-81.44,28.5744],[-81.426,28.5744],[-81.426,28.594],[-81.44,28.594],[-81.44,28.5744]]]},"properties":{"block_id":"120951235001004","school_id":"sch_rolling_hills_elementary","kids_est":14,"class":"green","shortest":{"len_m":1904.1,"mean_c":35.97,"peak_c":37.17,"dose":78.5},"coolest":{"len_m":2348.7,"mean_c":33.93,"peak_c":34.93,"dose":30.5},"delta_mean_c":-2.04,"delta_dose_pct":-61,"distance_mi":0.947,"status_now":"walk","status_rec":"walk","reason":"Shortest route already under threshold (dose 78).","safe_until_hour":null}},{"type":"Feature","geometry":{"type":"Polygon","coordinates":[[[-81.454,28.594],[-81.44,28.594],[-81.44,28.6136],[-81.454,28.6136],[-81.454,28.594]]]},"properties":{"block_id":"120951234001005","school_id":"sch_rosemont_elementary","kids_est":36,"class":"green","shortest":{"len_m":779.1,"mean_c":35.58,"peak_c":36.78,"dose":27.9},"coolest":{"len_m":980.1,"mean_c":33.62,"peak_c":34.62,"dose":8.5},"delta_mean_c":-1.96,"delta_dose_pct":-70,"distance_mi":0.387,"status_now":"walk","status_rec":"walk","reason":"Shortest route already under threshold (dose 28).","safe_until_hour":null}},{"type":"Feature","geometry":{"type":"Polygon","coordinates":[[[-81.44,28.594],[-81.426,28.594],[-81.426,28.6136],[-81.44,28.6136],[-81.44,28.594]]]},"properties":{"block_id":"120951235001005","school_id":"sch_rosemont_elementary","kids_est":8,"class":"green","shortest":{"len_m":931.3,"mean_c":35.99,"peak_c":37.19,"dose":38.7},"coolest":{"len_m":1173.4,"mean_c":33.71,"peak_c":34.71,"dose":11.6},"delta_mean_c":-2.28,"delta_dose_pct":-70,"distance_mi":0.463,"status_now":"walk","status_rec":"walk","reason":"Shortest route already under threshold (dose 39).","safe_until_hour":null}},{"type":"Feature","geometry":{"type":"Polygon","coordinates":[[[-81.398,28.6332],[-81.384,28.6332],[-81.384,28.6528],[-81.398,28.6528],[-81.398,28.6332]]]},"properties":{"block_id":"120951238001007","school_id":"sch_spring_lake_elementary_school","kids_est":38,"class":"yellow","shortest":{"len_m":3286.0,"mean_c":37.49,"peak_c":38.69,"dose":204.9},"coolest":{"len_m":4046.3,"mean_c":34.44,"peak_c":35.44,"dose":81.0},"delta_mean_c":-3.05,"delta_dose_pct":-60,"distance_mi":1.633,"status_now":"walk","status_rec":"reroute","reason":"Shortest route exceeds threshold, but coolest route mean 34.4C stays under it (dose 81).","safe_until_hour":null}},{"type":"Feature","geometry":{"type":"Polygon","coordinates":[[[-81.426,28.6528],[-81.412,28.6528],[-81.412,28.6724],[-81.426,28.6724],[-81.426,28.6528]]]},"properties":{"block_id":"120951236001008","school_id":"sch_spring_lake_elementary_school","kids_est":6,"class":"green","shortest":{"len_m":1159.8,"mean_c":36.34,"peak_c":37.54,"dose":53.8},"coolest":{"len_m":1448.0,"mean_c":33.9,"peak_c":34.9,"dose":18.2},"delta_mean_c":-2.44,"delta_dose_pct":-66,"distance_mi":0.577,"status_now":"walk","status_rec":"walk","reason":"Shortest route already under threshold (dose 54).","safe_until_hour":null}},{"type":"Feature","geometry":{"type":"Polygon","coordinates":[[[-81.412,28.6528],[-81.398,28.6528],[-81.398,28.6724],[-81.412,28.6724],[-81.412,28.6528]]]},"properties":{"block_id":"120951237001008","school_id":"sch_spring_lake_elementary_school","kids_est":12,"class":"green","shortest":{"len_m":727.3,"mean_c":36.23,"peak_c":37.43,"dose":32.6},"coolest":{"len_m":916.0,"mean_c":33.78,"peak_c":34.78,"dose":9.9},"delta_mean_c":-2.45,"delta_dose_pct":-70,"distance_mi":0.362,"status_now":"walk","status_rec":"walk","reason":"Shortest route already under threshold (dose 33).","safe_until_hour":null}},{"type":"Feature","geometry":{"type":"Polygon","coordinates":[[[-81.398,28.6528],[-81.384,28.6528],[-81.384,28.6724],[-81.398,28.6724],[-81.398,28.6528]]]},"properties":{"block_id":"120951238001008","school_id":"sch_spring_lake_elementary_school","kids_est":42,"class":"yellow","shortest":{"len_m":2357.3,"mean_c":36.65,"peak_c":37.85,"dose":119.5},"coolest":{"len_m":2928.7,"mean_c":34.05,"peak_c":35.05,"dose":42.9},"delta_mean_c":-2.6,"delta_dose_pct":-64,"distance_mi":1.172,"status_now":"walk","status_rec":"reroute","reason":"Shortest route exceeds threshold, but coolest route mean 34.0C stays under it (dose 43).","safe_until_hour":null}},{"type":"Feature","geometry":{"type":"Polygon","coordinates":[[[-81.384,28.6528],[-81.37,28.6528],[-81.37,28.6724],[-81.384,28.6724],[-81.384,28.6528]]]},"properties":{"block_id":"120951239001008","school_id":"sch_spring_lake_elementary_school","kids_est":8,"class":"red","shortest":{"len_m":4053.3,"mean_c":38.03,"peak_c":39.23,"dose":283.2},"coolest":{"len_m":4464.0,"mean_c":36.79,"peak_c":37.79,"dose":234.7},"delta_mean_c":-1.24,"delta_dose_pct":-17,"distance_mi":2.015,"status_now":"bus","status_rec":"bus_eligible","reason":"Coolest route mean 36.8C exceeds threshold (110 C-min dose, actual 235).","safe_until_hour":"09:00"}},{"type":"Feature","geometry":{"type":"Polygon","coordinates":[[[-81.37,28.6528],[-81.356,28.6528],[-81.356,28.6724],[-81.37,28.6724],[-81.37,28.6528]]]},"properties":{"block_id":"120951240001008","school_id":"sch_spring_lake_elementary_school","kids_est":29,"class":"red","shortest":{"len_m":5757.2,"mean_c":37.88,"peak_c":39.08,"dose":390.2},"coolest":{"len_m":6469.0,"mean_c":36.28,"peak_c":37.28,"dose":294.4},"delta_mean_c":-1.6,"delta_dose_pct":-25,"distance_mi":2.862,"status_now":"bus","status_rec":"bus_eligible","reason":"Coolest route mean 36.3C exceeds threshold (110 C-min dose, actual 294).","safe_until_hour":"09:00"}},{"type":"Feature","geometry":{"type":"Polygon","coordinates":[[[-81.356,28.6528],[-81.342,28.6528],[-81.342,28.6724],[-81.356,28.6724],[-81.356,28.6528]]]},"properties":{"block_id":"120951241001008","school_id":"sch_spring_lake_elementary_school","kids_est":12,"class":"red","shortest":{"len_m":7463.6,"mean_c":37.74,"peak_c":38.94,"dose":491.4},"coolest":{"len_m":8360.3,"mean_c":36.24,"peak_c":37.24,"dose":376.5},"delta_mean_c":-1.5,"delta_dose_pct":-23,"distance_mi":3.71,"status_now":"bus","status_rec":"bus_eligible","reason":"Coolest route mean 36.2C exceeds threshold (110 C-min dose, actual 376).","safe_until_hour":"07:00"}},{"type":"Feature","geometry":{"type":"Polygon","coordinates":[[[-81.426,28.6724],[-81.412,28.6724],[-81.412,28.692],[-81.426,28.692],[-81.426,28.6724]]]},"properties":{"block_id":"120951236001009","school_id":"sch_spring_lake_elementary_school","kids_est":19,"class":"yellow","shortest":{"len_m":3282.4,"mean_c":36.02,"peak_c":37.22,"dose":137.7},"coolest":{"len_m":4088.2,"mean_c":33.85,"peak_c":34.85,"dose":48.0},"delta_mean_c":-2.17,"delta_dose_pct":-65,"distance_mi":1.632,"status_now":"walk","status_rec":"reroute","reason":"Shortest route exceeds threshold, but coolest route mean 33.9C stays under it (dose 48).","safe_until_hour":null}},{"type":"Feature","geometry":{"type":"Polygon","coordinates":[[[-81.412,28.6724],[-81.398,28.6724],[-81.398,28.692],[-81.412,28.692],[-81.412,28.6724]]]},"properties":{"block_id":"120951237001009","school_id":"sch_spring_lake_elementary_school","kids_est":35,"class":"yellow","shortest":{"len_m":3155.7,"mean_c":37.0,"peak_c":38.2,"dose":175.3},"coolest":{"len_m":3886.2,"mean_c":34.28,"peak_c":35.28,"dose":69.3},"delta_mean_c":-2.72,"delta_dose_pct":-60,"distance_mi":1.569,"status_now":"walk","status_rec":"reroute","reason":"Shortest route exceeds threshold, but coolest route mean 34.3C stays under it (dose 69).","safe_until_hour":null}},{"type":"Feature","geometry":{"type":"Polygon","coordinates":[[[-81.398,28.6724],[-81.384,28.6724],[-81.384,28.692],[-81.398,28.692],[-81.398,28.6724]]]},"properties":{"block_id":"120951238001009","school_id":"sch_spring_lake_elementary_school","kids_est":25,"class":"yellow","shortest":{"len_m":3871.1,"mean_c":36.97,"peak_c":38.17,"dose":213.4},"coolest":{"len_m":4762.0,"mean_c":34.29,"peak_c":35.29,"dose":85.3},"delta_mean_c":-2.68,"delta_dose_pct":-60,"distance_mi":1.924,"status_now":"walk","status_rec":"reroute","reason":"Shortest route exceeds threshold, but coolest route mean 34.3C stays under it (dose 85).","safe_until_hour":null}},{"type":"Feature","geometry":{"type":"Polygon","coordinates":[[[-81.384,28.6724],[-81.37,28.6724],[-81.37,28.692],[-81.384,28.692],[-81.384,28.6724]]]},"properties":{"block_id":"120951239001009","school_id":"sch_spring_lake_elementary_school","kids_est":33,"class":"red","shortest":{"len_m":5084.8,"mean_c":37.62,"peak_c":38.82,"dose":326.3},"coolest":{"len_m":5712.1,"mean_c":36.11,"peak_c":37.11,"dose":246.5},"delta_mean_c":-1.51,"delta_dose_pct":-24,"distance_mi":2.528,"status_now":"bus","status_rec":"bus_eligible","reason":"Coolest route mean 36.1C exceeds threshold (110 C-min dose, actual 246).","safe_until_hour":"09:00"}},{"type":"Feature","geometry":{"type":"Polygon","coordinates":[[[-81.37,28.6724],[-81.356,28.6724],[-81.356,28.692],[-81.37,28.692],[-81.37,28.6724]]]},"properties":{"block_id":"120951240001009","school_id":"sch_spring_lake_elementary_school","kids_est":12,"class":"red","shortest":{"len_m":6524.5,"mean_c":38.07,"peak_c":39.27,"dose":459.4},"coolest":{"len_m":7289.9,"mean_c":36.52,"peak_c":37.52,"dose":356.3},"delta_mean_c":-1.55,"delta_dose_pct":-22,"distance_mi":3.243,"status_now":"bus","status_rec":"bus_eligible","reason":"Coolest route mean 36.5C exceeds threshold (110 C-min dose, actual 356).","safe_until_hour":"08:00"}},{"type":"Feature","geometry":{"type":"Polygon","coordinates":[[[-81.356,28.6724],[-81.342,28.6724],[-81.342,28.692],[-81.356,28.692],[-81.356,28.6724]]]},"properties":{"block_id":"120951241001009","school_id":"sch_spring_lake_elementary_school","kids_est":7,"class":"red","shortest":{"len_m":8070.0,"mean_c":38.37,"peak_c":39.57,"dose":601.9},"coolest":{"len_m":8887.0,"mean_c":37.04,"peak_c":38.04,"dose":499.1},"delta_mean_c":-1.33,"delta_dose_pct":-17,"distance_mi":4.012,"status_now":"bus","status_rec":"bus_eligible","reason":"Coolest route mean 37.0C exceeds threshold (110 C-min dose, actual 499).","safe_until_hour":"08:00"}},{"type":"Feature","geometry":{"type":"Polygon","coordinates":[[[-81.51,28.496],[-81.496,28.496],[-81.496,28.5156],[-81.51,28.5156],[-81.51,28.496]]]},"properties":{"block_id":"120951230001000","school_id":"sch_sunshine_high_school_greater_orlando_campus","kids_est":19,"class":"red","shortest":{"len_m":5701.2,"mean_c":35.01,"peak_c":36.21,"dose":159.2},"coolest":{"len_m":6320.7,"mean_c":34.46,"peak_c":35.46,"dose":128.1},"delta_mean_c":-0.55,"delta_dose_pct":-20,"distance_mi":2.834,"status_now":"bus","status_rec":"bus_eligible","reason":"Coolest route mean 34.5C exceeds threshold (110 C-min dose, actual 128).","safe_until_hour":"14:00"}},{"type":"Feature","geometry":{"type":"Polygon","coordinates":[[[-81.496,28.496],[-81.482,28.496],[-81.482,28.5156],[-81.496,28.5156],[-81.496,28.496]]]},"properties":{"block_id":"120951231001000","school_id":"sch_sunshine_high_school_greater_orlando_campus","kids_est":7,"class":"red","shortest":{"len_m":4816.2,"mean_c":35.32,"peak_c":36.52,"dose":155.2},"coolest":{"len_m":5284.6,"mean_c":34.78,"peak_c":35.78,"dose":130.7},"delta_mean_c":-0.54,"delta_dose_pct":-16,"distance_mi":2.394,"status_now":"bus","status_rec":"bus_eligible","reason":"Coolest route mean 34.8C exceeds threshold (110 C-min dose, actual 131).","safe_until_hour":"14:00"}},{"type":"Feature","geometry":{"type":"Polygon","coordinates":[[[-81.482,28.496],[-81.468,28.496],[-81.468,28.5156],[-81.482,28.5156],[-81.482,28.496]]]},"properties":{"block_id":"120951232001000","school_id":"sch_sunshine_high_school_greater_orlando_campus","kids_est":10,"class":"yellow","shortest":{"len_m":4443.8,"mean_c":34.81,"peak_c":36.01,"dose":111.7},"coolest":{"len_m":4801.1,"mean_c":34.51,"peak_c":35.51,"dose":100.4},"delta_mean_c":-0.3,"delta_dose_pct":-10,"distance_mi":2.209,"status_now":"bus","status_rec":"reroute","reason":"Shortest route exceeds threshold, but coolest route mean 34.5C stays under it (dose 100).","safe_until_hour":null}},{"type":"Feature","geometry":{"type":"Polygon","coordinates":[[[-81.468,28.496],[-81.454,28.496],[-81.454,28.5156],[-81.468,28.5156],[-81.468,28.496]]]},"properties":{"block_id":"120951233001000","school_id":"sch_sunshine_high_school_greater_orlando_campus","kids_est":12,"class":"red","shortest":{"len_m":4707.3,"mean_c":35.4,"peak_c":36.6,"dose":156.9},"coolest":{"len_m":5170.3,"mean_c":34.83,"peak_c":35.83,"dose":131.6},"delta_mean_c":-0.57,"delta_dose_pct":-16,"distance_mi":2.34,"status_now":"bus","status_rec":"bus_eligible","reason":"Coolest route mean 34.8C exceeds threshold (110 C-min dose, actual 132).","safe_until_hour":"14:00"}},{"type":"Feature","geometry":{"type":"Polygon","coordinates":[[[-81.51,28.5156],[-81.496,28.5156],[-81.496,28.5352],[-81.51,28.5352],[-81.51,28.5156]]]},"properties":{"block_id":"120951230001001","school_id":"sch_sunshine_high_school_greater_orlando_campus","kids_est":6,"class":"green","shortest":{"len_m":3972.4,"mean_c":34.63,"peak_c":35.83,"dose":89.9},"coolest":{"len_m":4316.8,"mean_c":34.32,"peak_c":35.32,"dose":78.9},"delta_mean_c":-0.31,"delta_dose_pct":-12,"distance_mi":1.975,"status_now":"walk","status_rec":"walk","reason":"Shortest route already under threshold (dose 90).","safe_until_hour":null}},{"type":"Feature","geometry":{"type":"Polygon","coordinates":[[[-81.496,28.5156],[-81.482,28.5156],[-81.482,28.5352],[-81.496,28.5352],[-81.496,28.5156]]]},"properties":{"block_id":"120951231001001","school_id":"sch_sunshine_high_school_greater_orlando_campus","kids_est":28,"class":"green","shortest":{"len_m":2544.4,"mean_c":34.5,"peak_c":35.7,"dose":53.0},"coolest":{"len_m":2791.0,"mean_c":34.15,"peak_c":35.15,"dose":44.7},"delta_mean_c":-0.35,"delta_dose_pct":-16,"distance_mi":1.265,"status_now":"walk","status_rec":"walk","reason":"Shortest route already under threshold (dose 53).","safe_until_hour":null}},{"type":"Feature","geometry":{"type":"Polygon","coordinates":[[[-81.482,28.5156],[-81.468,28.5156],[-81.468,28.5352],[-81.482,28.5352],[-81.482,28.5156]]]},"properties":{"block_id":"120951232001001","school_id":"sch_sunshine_high_school_greater_orlando_campus","kids_est":24,"class":"green","shortest":{"len_m":1739.6,"mean_c":35.49,"peak_c":36.69,"dose":60.2},"coolest":{"len_m":1923.9,"mean_c":34.83,"peak_c":35.83,"dose":49.0},"delta_mean_c":-0.66,"delta_dose_pct":-19,"distance_mi":0.865,"status_now":"walk","status_rec":"walk","reason":"Shortest route already under threshold (dose 60).","safe_until_hour":null}},{"type":"Feature","geometry":{"type":"Polygon","coordinates":[[[-81.51,28.5352],[-81.496,28.5352],[-81.496,28.5548],[-81.51,28.5548],[-81.51,28.5352]]]},"properties":{"block_id":"120951230001002","school_id":"sch_sunshine_high_school_greater_orlando_campus","kids_est":7,"class":"green","shortest":{"len_m":3704.8,"mean_c":34.31,"peak_c":35.51,"dose":67.4},"coolest":{"len_m":4030.1,"mean_c":34.05,"peak_c":35.05,"dose":58.9},"delta_mean_c":-0.26,"delta_dose_pct":-13,"distance_mi":1.842,"status_now":"walk","status_rec":"walk","reason":"Shortest route already under threshold (dose 67).","safe_until_hour":null}},{"type":"Feature","geometry":{"type":"Polygon","coordinates":[[[-81.496,28.5352],[-81.482,28.5352],[-81.482,28.5548],[-81.496,28.5548],[-81.496,28.5352]]]},"properties":{"block_id":"120951231001002","school_id":"sch_sunshine_high_school_greater_orlando_campus","kids_est":14,"class":"green","shortest":{"len_m":2102.6,"mean_c":34.61,"peak_c":35.81,"dose":47.0},"coolest":{"len_m":2316.4,"mean_c":34.21,"peak_c":35.21,"dose":38.9},"delta_mean_c":-0.4,"delta_dose_pct":-17,"distance_mi":1.045,"status_now":"walk","status_rec":"walk","reason":"Shortest route already under threshold (dose 47).","safe_until_hour":null}},{"type":"Feature","geometry":{"type":"Polygon","coordinates":[[[-81.454,28.6332],[-81.44,28.6332],[-81.44,28.6528],[-81.454,28.6528],[-81.454,28.6332]]]},"properties":{"block_id":"120951234001007","school_id":"sch_teague_middle_school","kids_est":34,"class":"green","shortest":{"len_m":2335.7,"mean_c":35.53,"peak_c":36.73,"dose":82.1},"coolest":{"len_m":2938.5,"mean_c":33.62,"peak_c":34.62,"dose":25.2},"delta_mean_c":-1.91,"delta_dose_pct":-69,"distance_mi":1.161,"status_now":"walk","status_rec":"walk","reason":"Shortest route already under threshold (dose 82).","safe_until_hour":null}},{"type":"Feature","geometry":{"type":"Polygon","coordinates":[[[-81.454,28.6528],[-81.44,28.6528],[-81.44,28.6724],[-81.454,28.6724],[-81.454,28.6528]]]},"properties":{"block_id":"120951234001008","school_id":"sch_teague_middle_school","kids_est":32,"class":"green","shortest":{"len_m":1467.9,"mean_c":35.09,"peak_c":36.29,"dose":42.6},"coolest":{"len_m":1622.1,"mean_c":34.54,"peak_c":35.54,"dose":34.8},"delta_mean_c":-0.55,"delta_dose_pct":-18,"distance_mi":0.73,"status_now":"walk","status_rec":"walk","reason":"Shortest route already under threshold (dose 43).","safe_until_hour":null}},{"type":"Feature","geometry":{"type":"Polygon","coordinates":[[[-81.44,28.6528],[-81.426,28.6528],[-81.426,28.6724],[-81.44,28.6724],[-81.44,28.6528]]]},"properties":{"block_id":"120951235001008","school_id":"sch_teague_middle_school","kids_est":30,"class":"green","shortest":{"len_m":867.3,"mean_c":36.7,"peak_c":37.9,"dose":44.6},"coolest":{"len_m":1086.9,"mean_c":33.95,"peak_c":34.95,"dose":14.4},"delta_mean_c":-2.75,"delta_dose_pct":-68,"distance_mi":0.431,"status_now":"walk","status_rec":"walk","reason":"Shortest route already under threshold (dose 45).","safe_until_hour":null}},{"type":"Feature","geometry":{"type":"Polygon","coordinates":[[[-81.454,28.6724],[-81.44,28.6724],[-81.44,28.692],[-81.454,28.692],[-81.454,28.6724]]]},"properties":{"block_id":"120951234001009","school_id":"sch_teague_middle_school","kids_est":17,"class":"yellow","shortest":{"len_m":3677.4,"mean_c":35.64,"peak_c":36.84,"dose":134.8},"coolest":{"len_m":4593.9,"mean_c":33.71,"peak_c":34.71,"dose":45.3},"delta_mean_c":-1.93,"delta_dose_pct":-66,"distance_mi":1.828,"status_now":"walk","status_rec":"reroute","reason":"Shortest route exceeds threshold, but coolest route mean 33.7C stays under it (dose 45).","safe_until_hour":null}},{"type":"Feature","geometry":{"type":"Polygon","coordinates":[[[-81.44,28.6724],[-81.426,28.6724],[-81.426,28.692],[-81.44,28.692],[-81.44,28.6724]]]},"properties":{"block_id":"120951235001009","school_id":"sch_teague_middle_school","kids_est":17,"class":"yellow","shortest":{"len_m":3481.5,"mean_c":35.86,"peak_c":37.06,"dose":138.3},"coolest":{"len_m":4331.5,"mean_c":33.81,"peak_c":34.81,"dose":48.8},"delta_mean_c":-2.05,"delta_dose_pct":-65,"distance_mi":1.731,"status_now":"walk","status_rec":"reroute","reason":"Shortest route exceeds threshold, but coolest route mean 33.8C stays under it (dose 49).","safe_until_hour":null}},{"type":"Feature","geometry":{"type":"Polygon","coordinates":[[[-81.454,28.496],[-81.44,28.496],[-81.44,28.5156],[-81.454,28.5156],[-81.454,28.496]]]},"properties":{"block_id":"120951234001000","school_id":"sch_washington_shores_elementary","kids_est":15,"class":"yellow","shortest":{"len_m":4426.9,"mean_c":35.66,"peak_c":36.86,"dose":163.5},"coolest":{"len_m":5500.2,"mean_c":33.77,"peak_c":34.77,"dose":58.6},"delta_mean_c":-1.89,"delta_dose_pct":-64,"distance_mi":2.201,"status_now":"bus","status_rec":"reroute","reason":"Shortest route exceeds threshold, but coolest route mean 33.8C stays under it (dose 59).","safe_until_hour":null}},{"type":"Feature","geometry":{"type":"Polygon","coordinates":[[[-81.44,28.496],[-81.426,28.496],[-81.426,28.5156],[-81.44,28.5156],[-81.44,28.496]]]},"properties":{"block_id":"120951235001000","school_id":"sch_washington_shores_elementary","kids_est":27,"class":"yellow","shortest":{"len_m":3506.4,"mean_c":35.89,"peak_c":37.09,"dose":140.7},"coolest":{"len_m":4389.3,"mean_c":33.75,"peak_c":34.75,"dose":46.0},"delta_mean_c":-2.14,"delta_dose_pct":-67,"distance_mi":1.743,"status_now":"walk","status_rec":"reroute","reason":"Shortest route exceeds threshold, but coolest route mean 33.8C stays under it (dose 46).","safe_until_hour":null}},{"type":"Feature","geometry":{"type":"Polygon","coordinates":[[[-81.44,28.5156],[-81.426,28.5156],[-81.426,28.5352],[-81.44,28.5352],[-81.44,28.5156]]]},"properties":{"block_id":"120951235001001","school_id":"sch_washington_shores_elementary","kids_est":29,"class":"green","shortest":{"len_m":1393.4,"mean_c":36.01,"peak_c":37.21,"dose":58.3},"coolest":{"len_m":1734.4,"mean_c":33.85,"peak_c":34.85,"dose":20.5},"delta_mean_c":-2.16,"delta_dose_pct":-65,"distance_mi":0.693,"status_now":"walk","status_rec":"walk","reason":"Shortest route already under threshold (dose 58).","safe_until_hour":null}},{"type":"Feature","geometry":{"type":"Polygon","coordinates":[[[-81.51,28.6136],[-81.496,28.6136],[-81.496,28.6332],[-81.51,28.6332],[-81.51,28.6136]]]},"properties":{"block_id":"120951230001006","school_id":"sch_wekiva_high","kids_est":12,"class":"green","shortest":{"len_m":4133.9,"mean_c":34.51,"peak_c":35.71,"dose":86.7},"coolest":{"len_m":4514.8,"mean_c":34.19,"peak_c":35.19,"dose":74.5},"delta_mean_c":-0.32,"delta_dose_pct":-14,"distance_mi":2.055,"status_now":"bus","status_rec":"walk","reason":"Shortest route already under threshold (dose 87).","safe_until_hour":null}},{"type":"Feature","geometry":{"type":"Polygon","coordinates":[[[-81.496,28.6136],[-81.482,28.6136],[-81.482,28.6332],[-81.496,28.6332],[-81.496,28.6136]]]},"properties":{"block_id":"120951231001006","school_id":"sch_wekiva_high","kids_est":9,"class":"green","shortest":{"len_m":2777.8,"mean_c":34.48,"peak_c":35.68,"dose":57.1},"coolest":{"len_m":3005.7,"mean_c":34.22,"peak_c":35.22,"dose":51.0},"delta_mean_c":-0.26,"delta_dose_pct":-11,"distance_mi":1.381,"status_now":"walk","status_rec":"walk","reason":"Shortest route already under threshold (dose 57).","safe_until_hour":null}},{"type":"Feature","geometry":{"type":"Polygon","coordinates":[[[-81.482,28.6136],[-81.468,28.6136],[-81.468,28.6332],[-81.482,28.6332],[-81.482,28.6136]]]},"properties":{"block_id":"120951232001006","school_id":"sch_wekiva_high","kids_est":20,"class":"green","shortest":{"len_m":2047.2,"mean_c":34.92,"peak_c":36.12,"dose":54.6},"coolest":{"len_m":2214.0,"mean_c":34.59,"peak_c":35.59,"dose":48.9},"delta_mean_c":-0.33,"delta_dose_pct":-10,"distance_mi":1.018,"status_now":"walk","status_rec":"walk","reason":"Shortest route already under threshold (dose 55).","safe_until_hour":null}},{"type":"Feature","geometry":{"type":"Polygon","coordinates":[[[-81.51,28.6332],[-81.496,28.6332],[-81.496,28.6528],[-81.51,28.6528],[-81.51,28.6332]]]},"properties":{"block_id":"120951230001007","school_id":"sch_wekiva_high","kids_est":9,"class":"green","shortest":{"len_m":3657.0,"mean_c":34.87,"peak_c":36.07,"dose":95.0},"coolest":{"len_m":3997.7,"mean_c":34.46,"peak_c":35.46,"dose":81.3},"delta_mean_c":-0.41,"delta_dose_pct":-14,"distance_mi":1.818,"status_now":"walk","status_rec":"walk","reason":"Shortest route already under threshold (dose 95).","safe_until_hour":null}},{"type":"Feature","geometry":{"type":"Polygon","coordinates":[[[-81.496,28.6332],[-81.482,28.6332],[-81.482,28.6528],[-81.496,28.6528],[-81.496,28.6332]]]},"properties":{"block_id":"120951231001007","school_id":"sch_wekiva_high","kids_est":7,"class":"green","shortest":{"len_m":2000.6,"mean_c":34.75,"peak_c":35.95,"dose":48.6},"coolest":{"len_m":2163.0,"mean_c":34.45,"peak_c":35.45,"dose":43.6},"delta_mean_c":-0.3,"delta_dose_pct":-10,"distance_mi":0.995,"status_now":"walk","status_rec":"walk","reason":"Shortest route already under threshold (dose 49).","safe_until_hour":null}},{"type":"Feature","geometry":{"type":"Polygon","coordinates":[[[-81.482,28.6332],[-81.468,28.6332],[-81.468,28.6528],[-81.482,28.6528],[-81.482,28.6332]]]},"properties":{"block_id":"120951232001007","school_id":"sch_wekiva_high","kids_est":12,"class":"green","shortest":{"len_m":691.4,"mean_c":35.12,"peak_c":36.32,"dose":20.4},"coolest":{"len_m":764.5,"mean_c":34.56,"peak_c":35.56,"dose":16.6},"delta_mean_c":-0.56,"delta_dose_pct":-19,"distance_mi":0.344,"status_now":"walk","status_rec":"walk","reason":"Shortest route already under threshold (dose 20).","safe_until_hour":null}},{"type":"Feature","geometry":{"type":"Polygon","coordinates":[[[-81.468,28.6332],[-81.454,28.6332],[-81.454,28.6528],[-81.468,28.6528],[-81.468,28.6332]]]},"properties":{"block_id":"120951233001007","school_id":"sch_wekiva_high","kids_est":29,"class":"green","shortest":{"len_m":1673.3,"mean_c":35.65,"peak_c":36.85,"dose":61.6},"coolest":{"len_m":1823.7,"mean_c":35.11,"peak_c":36.11,"dose":53.4},"delta_mean_c":-0.54,"delta_dose_pct":-13,"distance_mi":0.832,"status_now":"walk","status_rec":"walk","reason":"Shortest route already under threshold (dose 62).","safe_until_hour":null}}]}