{"type":"FeatureCollection","features":[{"type":"Feature","geometry":{"type":"Polygon","coordinates":[[[-81.40332099998749,28.55602900017343],[-81.40329400022331,28.55602900017343],[-81.40232799957747,28.556037999909698],[-81.40201399975811,28.556034000290026],[-81.40199399966663,28.556132999709405],[-81.40185599957437,28.55671300003264],[-81.40181799993954,28.55689799983085],[-81.40181999958936,28.556925000392628],[-81.40183700020613,28.556976999730935],[-81.40187200036621,28.5570209998793],[-81.40189499993242,28.557038999970548],[-81.40190499997817,28.557044000039244],[-81.4019209998717,28.557052999688743],[-81.40197899959801,28.55707000007671],[-81.40219100020843,28.55706900037886],[-81.40228800029283,28.55706900037886],[-81.40283499974068,28.557065000009313],[-81.40284499978642,28.556681999821368],[-81.40287499992365,28.556519999917953],[-81.40290300041107,28.55644799996852],[-81.40294199987079,28.55638199977432],[-81.40299299992444,28.55632099964178],[-81.40305300019888,28.556266999779513],[-81.40319999961366,28.556174000302473],[-81.40325099966729,28.556132999709405],[-81.40329199967516,28.55608399986498],[-81.40332099998749,28.55602900017343]]]},"properties":{"block_id":"120950187001029","school_id":"sch_rock_lake_elementary","kids_est":1,"class":"green","shortest":{"len_m":1354.2,"mean_c":37.34,"peak_c":37.4,"dose":82.2},"coolest":{"len_m":1354.2,"mean_c":37.34,"peak_c":37.4,"dose":82.2},"delta_mean_c":0.0,"delta_dose_pct":0,"distance_mi":0.588,"status_now":"walk","status_rec":"walk","reason":"Shortest route already under threshold (dose 82).","safe_until_hour":null}},{"type":"Feature","geometry":{"type":"Polygon","coordinates":[[[-81.40158299976291,28.553179000007077],[-81.40159199998372,28.552915000253865],[-81.40060299977168,28.55292400025637],[-81.40061199999249,28.553459000337117],[-81.40061399964232,28.553863000233758],[-81.40060899961945,28.554141000082623],[-81.40073599984106,28.55417800018312],[-81.40106800010209,28.55427500032093],[-81.40111699960758,28.55429699977844],[-81.4011259998284,28.55430199997731],[-81.40117600005713,28.554339000021233],[-81.4012160002401,28.554384999929777],[-81.40136100000504,28.554247999868537],[-81.40143899982284,28.554160000391757],[-81.40150199957203,28.554063000148],[-81.40154599995297,28.553956999901494],[-81.4015760000902,28.553846000117066],[-81.40159199998372,28.553733999696966],[-81.4015900003339,28.55334200005024],[-81.40158299976291,28.553179000007077]]]},"properties":{"block_id":"120950187001045","school_id":"sch_rock_lake_elementary","kids_est":18,"class":"green","shortest":{"len_m":1061.2,"mean_c":37.35,"peak_c":37.4,"dose":64.5},"coolest":{"len_m":1061.2,"mean_c":37.35,"peak_c":37.4,"dose":64.5},"delta_mean_c":0.0,"delta_dose_pct":0,"distance_mi":0.47,"status_now":"walk","status_rec":"walk","reason":"Shortest route already under threshold (dose 64).","safe_until_hour":null}},{"type":"Feature","geometry":{"type":"Polygon","coordinates":[[[-81.40277500036454,28.554679999963255],[-81.40267699955692,28.554432000330177],[-81.40258100019578,28.554031000218814],[-81.40256699995209,28.553947999987347],[-81.4025619999292,28.5538269997512],[-81.40255299970838,28.553642999810396],[-81.40255699990632,28.552903000249337],[-81.40159199998372,28.552915000253865],[-81.40158299976291,28.553179000007077],[-81.4015900003339,28.55334200005024],[-81.40159199998372,28.553733999696966],[-81.4015760000902,28.553846000117066],[-81.40154599995297,28.553956999901494],[-81.40150199957203,28.554063000148],[-81.40143899982284,28.554160000391757],[-81.40136100000504,28.554247999868537],[-81.4012160002401,28.554384999929777],[-81.40125499969983,28.554450999797737],[-81.40140899968563,28.554648000221594],[-81.40165300008309,28.554924000139394],[-81.40186300014537,28.554803999955276],[-81.40195799968161,28.554761999898],[-81.40205800013905,28.55472799995206],[-81.40216100007122,28.554702999845528],[-81.40231900025496,28.55468200019337],[-81.40277500036454,28.554679999963255]]]},"properties":{"block_id":"120950187001039","school_id":"sch_rock_lake_elementary","kids_est":0,"class":"green","shortest":{"len_m":1417.9,"mean_c":37.34,"peak_c":37.4,"dose":85.9},"coolest":{"len_m":1417.9,"mean_c":37.34,"peak_c":37.4,"dose":85.9},"delta_mean_c":0.0,"delta_dose_pct":0,"distance_mi":0.448,"status_now":"walk","status_rec":"walk","reason":"Shortest route already under threshold (dose 86).","safe_until_hour":null}},{"type":"Feature","geometry":{"type":"Polygon","coordinates":[[[-81.39948100038856,28.55186999973247],[-81.39946799996977,28.550934999943983],[-81.39934599977101,28.550931999886583],[-81.39754700034538,28.550947999928756],[-81.39740599988006,28.550951999741628],[-81.39740599988006,28.550980000005826],[-81.39743799966712,28.551887999915298],[-81.39850399987206,28.55187800007711],[-81.39948100038856,28.55186999973247]]]},"properties":{"block_id":"120950183001007","school_id":"sch_rock_lake_elementary","kids_est":1,"class":"green","shortest":{"len_m":1162.9,"mean_c":37.37,"peak_c":37.4,"dose":70.7},"coolest":{"len_m":1162.9,"mean_c":37.37,"peak_c":37.4,"dose":70.7},"delta_mean_c":0.0,"delta_dose_pct":0,"distance_mi":0.53,"status_now":"walk","status_rec":"walk","reason":"Shortest route already under threshold (dose 71).","safe_until_hour":null}},{"type":"Feature","geometry":{"type":"Polygon","coordinates":[[[-81.40019500024098,28.552927000257014],[-81.40019000021812,28.55239499985607],[-81.39850999971983,28.55240600017637],[-81.39850399987206,28.55187800007711],[-81.39743799966712,28.551887999915298],[-81.39743900039035,28.55209699970888],[-81.39744100004017,28.552412999949215],[-81.39744699988795,28.552723999756687],[-81.39745199991083,28.55293399999517],[-81.39804000026487,28.55294399973308],[-81.40019500024098,28.552927000257014]]]},"properties":{"block_id":"120950183001001","school_id":"sch_rock_lake_elementary","kids_est":7,"class":"green","shortest":{"len_m":1265.5,"mean_c":37.36,"peak_c":37.4,"dose":77.0},"coolest":{"len_m":1265.5,"mean_c":37.36,"peak_c":37.4,"dose":77.0},"delta_mean_c":0.0,"delta_dose_pct":0,"distance_mi":0.553,"status_now":"walk","status_rec":"walk","reason":"Shortest route already under threshold (dose 77).","safe_until_hour":null}},{"type":"Feature","geometry":{"type":"Polygon","coordinates":[[[-81.40159199998372,28.552915000253865],[-81.4015679996943,28.552024000145256],[-81.40155900037176,28.551852000335636],[-81.40059500027407,28.551856000114185],[-81.40060299977168,28.55292400025637],[-81.40159199998372,28.552915000253865]]]},"properties":{"block_id":"120950183001003","school_id":"sch_rock_lake_elementary","kids_est":1,"class":"green","shortest":{"len_m":924.8,"mean_c":37.36,"peak_c":37.4,"dose":56.1},"coolest":{"len_m":924.8,"mean_c":37.36,"peak_c":37.4,"dose":56.1},"delta_mean_c":0.0,"delta_dose_pct":0,"distance_mi":0.418,"status_now":"walk","status_rec":"walk","reason":"Shortest route already under threshold (dose 56).","safe_until_hour":null}},{"type":"Feature","geometry":{"type":"Polygon","coordinates":[[[-81.40228999994264,28.557532999608163],[-81.40228900011772,28.557501999638408],[-81.40228900011772,28.557315999627967],[-81.40228800029283,28.557265999849136],[-81.40228800029283,28.557117999764838],[-81.40228800029283,28.55706900037886],[-81.40219100020843,28.55706900037886],[-81.40197899959801,28.55707000007671],[-81.4019209998717,28.557052999688743],[-81.40190499997817,28.557044000039244],[-81.40189499993242,28.557038999970548],[-81.40187200036621,28.5570209998793],[-81.40183700020613,28.556976999730935],[-81.40181999958936,28.556925000392628],[-81.40181799993954,28.55689799983085],[-81.40185599957437,28.55671300003264],[-81.40199399966663,28.556132999709405],[-81.40201399975811,28.556034000290026],[-81.40204399989535,28.555894999800408],[-81.40205300011618,28.555779000352526],[-81.40204800009332,28.555662000276634],[-81.40202999965165,28.555547000284395],[-81.40200899973526,28.555463999669865],[-81.4019779997731,28.555377000134314],[-81.40191599984882,28.555252000313],[-81.40183700020613,28.555133999935244],[-81.40165300008309,28.554924000139394],[-81.40140899968563,28.554648000221594],[-81.40125499969983,28.554450999797737],[-81.4012160002401,28.554384999929777],[-81.40117600005713,28.554339000021233],[-81.4011259998284,28.55430199997731],[-81.40111699960758,28.55429699977844],[-81.40106800010209,28.55427500032093],[-81.40073599984106,28.55417800018312],[-81.40060899961945,28.554141000082623],[-81.40008800011087,28.553999000279955],[-81.40002500036168,28.553982000185158],[-81.39985499958405,28.553947999987347],[-81.39968200023,28.553927000184533],[-81.39950700032782,28.553919999723327],[-81.39933300025055,28.55392599966778],[-81.39909300005102,28.553951999686266],[-81.39889200020959,28.55399199982348],[-81.3986970002159,28.554048000305695],[-81.39855800029872,28.554098000034756],[-81.39850200022224,28.55412300028495],[-81.39838000002351,28.554179999633707],[-81.39802699984608,28.554378000288082],[-81.39769799995811,28.55456600019813],[-81.39762099996523,28.554611000286254],[-81.3972460000465,28.554866999615307],[-81.39676599964747,28.555219000240722],[-81.39646100004894,28.555443999882755],[-81.39620300030609,28.55562900033286],[-81.39611000041967,28.55568100031129],[-81.39600999996223,28.555723999712583],[-81.39590600020516,28.555755999916265],[-81.39579800025012,28.555777999853365],[-81.39574399982347,28.555785000191094],[-81.39559200038582,28.55579900007597],[-81.39560999992915,28.556046999645265],[-81.39560999992915,28.556464999665135],[-81.39565799960974,28.556749000317353],[-81.3956969999678,28.556955999743295],[-81.39574899984632,28.557161000157283],[-81.39581300031875,28.557363000297926],[-81.39588899958841,28.557560999700257],[-81.39598400002298,28.55776099969083],[-81.3960850003053,28.557958999922676],[-81.3961339998108,28.558049000335295],[-81.39619200043543,28.558154999617962],[-81.3962469997887,28.558252000036692],[-81.39630399969012,28.55834799989126],[-81.39636200031474,28.558442999973543],[-81.39639999994958,28.558502999981336],[-81.39647100009469,28.55861099975134],[-81.39713300006859,28.559847999858963],[-81.39741099990293,28.559700999921585],[-81.39788700010399,28.55949700018362],[-81.39820099992338,28.559363000279856],[-81.39830100038078,28.55932900024177],[-81.39843100007712,28.559295000192783],[-81.3986250002459,28.559259999666683],[-81.39873599967567,28.559246999919218],[-81.39894900011099,28.5592340001701],[-81.39911499979235,28.55923600031368],[-81.39945000042641,28.55925100020585],[-81.39974400015427,28.559275000344453],[-81.39983799986561,28.559288000088458],[-81.3999130002087,28.559302999973216],[-81.40015800043106,28.55936600009702],[-81.40069400000826,28.559514999851462],[-81.40070499987893,28.55948599981519],[-81.40073699966598,28.5593639999559],[-81.40079299974246,28.559104000223755],[-81.40080500033635,28.5590689996342],[-81.40082600025275,28.559038000116704],[-81.40096199979688,28.558897000287402],[-81.40123600033158,28.55862500004945],[-81.4015269996864,28.558337999877647],[-81.40162600031891,28.558259000209855],[-81.40171400018245,28.55820499976364],[-81.40183800003102,28.558166000125496],[-81.40196600007754,28.558140000358655],[-81.40202499962876,28.558115000273368],[-81.40207400003257,28.558077999978423],[-81.4021119996674,28.55803099962769],[-81.40223300004124,28.557749999930078],[-81.4022659996532,28.557660999743042],[-81.40228999994264,28.557532999608163]],[[-81.3980550003335,28.55893099967593],[-81.39805100013554,28.558994000022363],[-81.39804000026487,28.559035000290198],[-81.39802299964812,28.55906200030388],[-81.39798699966312,28.559095999639165],[-81.3979289999368,28.55913600018905],[-81.39785600014186,28.559175999934663],[-81.39772700027044,28.5592379996682],[-81.39753800012454,28.559320999674288],[-81.39746699997943,28.55934100030291],[-81.39739400018449,28.559346999938406],[-81.39727299981067,28.55934299965543],[-81.39721300043453,28.55932900024177],[-81.39717400007646,28.559310999753038],[-81.39714499976417,28.55928899976523],[-81.39713100041878,28.55927199973567],[-81.39707199996923,28.55916800014457],[-81.3969079999377,28.558972999648066],[-81.3968800003486,28.558925999696925],[-81.3968669999298,28.558890999837228],[-81.39686399955676,28.55886500024944],[-81.39687000030287,28.558799999673973],[-81.396901000265,28.55870999990343],[-81.39692399983122,28.558679999962827],[-81.39697300023502,28.558644000338383],[-81.39701199969475,28.55862599973252],[-81.39739800038245,28.558497000297677],[-81.39744100004017,28.55848799998259],[-81.39750600033749,28.558488999666952],[-81.39756099969077,28.558500000139514],[-81.39786299981456,28.558637999873785],[-81.39790299999754,28.55866200015214],[-81.39794499983033,28.558702000077922],[-81.3979859998382,28.558752999645595],[-81.39800400027985,28.558788000340275],[-81.39804600011266,28.558872000381843],[-81.3980550003335,28.55893099967593]]]},"properties":{"block_id":"120950187001040","school_id":"sch_rock_lake_elementary","kids_est":35,"class":"green","shortest":{"len_m":1412.0,"mean_c":37.34,"peak_c":37.4,"dose":85.7},"coolest":{"len_m":1412.0,"mean_c":37.34,"peak_c":37.4,"dose":85.7},"delta_mean_c":0.0,"delta_dose_pct":0,"distance_mi":0.751,"status_now":"walk","status_rec":"walk","reason":"Shortest route already under threshold (dose 86).","safe_until_hour":null}},{"type":"Feature","geometry":{"type":"Polygon","coordinates":[[[-81.40332099998749,28.55602900017343],[-81.40331099994174,28.555786999611158],[-81.40327400013182,28.555613000212944],[-81.40324099962154,28.55534999996457],[-81.40314100006243,28.55513199971373],[-81.40302499971148,28.55492900030848],[-81.40291799958135,28.554769000303203],[-81.40277500036454,28.554679999963255],[-81.40231900025496,28.55468200019337],[-81.40216100007122,28.554702999845528],[-81.40205800013905,28.55472799995206],[-81.40195799968161,28.554761999898],[-81.40186300014537,28.554803999955276],[-81.40165300008309,28.554924000139394],[-81.40183700020613,28.555133999935244],[-81.40191599984882,28.555252000313],[-81.4019779997731,28.555377000134314],[-81.40200899973526,28.555463999669865],[-81.40202999965165,28.555547000284395],[-81.40204800009332,28.555662000276634],[-81.40205300011618,28.555779000352526],[-81.40204399989535,28.555894999800408],[-81.40201399975811,28.556034000290026],[-81.40232799957747,28.556037999909698],[-81.40329400022331,28.55602900017343],[-81.40332099998749,28.55602900017343]]]},"properties":{"block_id":"120950187001046","school_id":"sch_rock_lake_elementary","kids_est":0,"class":"green","shortest":{"len_m":1231.1,"mean_c":37.34,"peak_c":37.4,"dose":74.6},"coolest":{"len_m":1231.1,"mean_c":37.34,"peak_c":37.4,"dose":74.6},"delta_mean_c":0.0,"delta_dose_pct":0,"distance_mi":0.514,"status_now":"walk","status_rec":"walk","reason":"Shortest route already under threshold (dose 75).","safe_until_hour":null}},{"type":"Feature","geometry":{"type":"Polygon","coordinates":[[[-81.40579200033109,28.554279000007433],[-81.40589199989022,28.55397900021452],[-81.40570600011736,28.553680000085965],[-81.40570500029246,28.55350600036182],[-81.40571899963784,28.5532039996864],[-81.4057079997672,28.55292100025559],[-81.40496299995262,28.55291599999114],[-81.40448799957645,28.552933000258058],[-81.404146000168,28.552933000258058],[-81.40404599971059,28.552894999982573],[-81.40400700025083,28.552895999720054],[-81.40364200037784,28.552897000246578],[-81.4028840001445,28.55289899972149],[-81.40260799995995,28.552903000249337],[-81.40255699990632,28.552903000249337],[-81.40255299970838,28.553642999810396],[-81.4025619999292,28.5538269997512],[-81.40333799970591,28.553817999825934],[-81.40449099994952,28.55381100014648],[-81.40449299959933,28.554662000257718],[-81.40449599997237,28.55573000034334],[-81.40449299959933,28.55602100014414],[-81.40572399966071,28.556007999996712],[-81.40572299983579,28.555900999632307],[-81.4057220000109,28.555581999677813],[-81.4057220000109,28.555476000171563],[-81.40571399961497,28.554648999942422],[-81.40579200033109,28.554279000007433]]]},"properties":{"block_id":"120950187001037","school_id":"sch_rock_lake_elementary","kids_est":17,"class":"green","shortest":{"len_m":1288.4,"mean_c":37.34,"peak_c":37.4,"dose":78.1},"coolest":{"len_m":1288.4,"mean_c":37.34,"peak_c":37.4,"dose":78.1},"delta_mean_c":0.0,"delta_dose_pct":0,"distance_mi":0.384,"status_now":"walk","status_rec":"walk","reason":"Shortest route already under threshold (dose 78).","safe_until_hour":null}},{"type":"Feature","geometry":{"type":"Polygon","coordinates":[[[-81.40741699967947,28.551386999989713],[-81.40741000000675,28.551028999858392],[-81.40738999991528,28.5499580001379],[-81.4073840000675,28.549600999651695],[-81.40651500040435,28.549606999842247],[-81.40653899979549,28.551395000371105],[-81.40671399969767,28.55139300007855],[-81.40724099995238,28.551387999741507],[-81.40741699967947,28.551386999989713]]]},"properties":{"block_id":"120950183003008","school_id":"sch_rock_lake_elementary","kids_est":12,"class":"green","shortest":{"len_m":126.2,"mean_c":37.4,"peak_c":37.4,"dose":7.7},"coolest":{"len_m":126.2,"mean_c":37.4,"peak_c":37.4,"dose":7.7},"delta_mean_c":0.0,"delta_dose_pct":0,"distance_mi":0.115,"status_now":"walk","status_rec":"walk","reason":"Shortest route already under threshold (dose 8).","safe_until_hour":null}},{"type":"Feature","geometry":{"type":"Polygon","coordinates":[[[-81.40560599965994,28.547648999728338],[-81.40559800016233,28.547099999864447],[-81.40559099959133,28.546908000073145],[-81.40558499974354,28.546742999948183],[-81.40558300009371,28.546653999926498],[-81.40557800007086,28.546249999990764],[-81.40557600042102,28.546086000215336],[-81.40557399987289,28.545983999831638],[-81.40556899985002,28.545676999860067],[-81.4055680000251,28.545575999676377],[-81.4055470001087,28.544282999854936],[-81.40502800024994,28.544282999854936],[-81.4045820001861,28.54426599976991],[-81.40425699959778,28.54424700004293],[-81.40399999967984,28.544225999883906],[-81.40383999984626,28.54421299985845],[-81.40342100044492,28.544167000241245],[-81.40323399994885,28.544140000353668],[-81.40298000040396,28.54410500031372],[-81.40261299998284,28.544043000349696],[-81.40205999978886,28.543938999920762],[-81.40177100008387,28.5438959996527],[-81.4015760000902,28.54387400038966],[-81.40133500006579,28.543853000156215],[-81.40104299998772,28.543837999648716],[-81.40089700039788,28.543835000178294],[-81.40039799973225,28.543835000178294],[-81.4003090000438,28.543834000354796],[-81.40031700043973,28.544668999608863],[-81.40033400015815,28.54499399993417],[-81.40032800031038,28.54502200020418],[-81.40031300024177,28.545047000241723],[-81.4003020003711,28.54505699993943],[-81.40027600043184,28.54507399989679],[-81.4002300004011,28.545082999780316],[-81.39993300030017,28.545093000263737],[-81.39946799996977,28.54509199966304],[-81.39935900018982,28.54507499970853],[-81.39933999992324,28.545076000309365],[-81.39934699959593,28.54489299988461],[-81.39934300029628,28.544529000082402],[-81.39936199966455,28.543853000156215],[-81.39934999996898,28.543836000001775],[-81.39920199983096,28.543836999825245],[-81.39832399994701,28.54384699963785],[-81.39811800008268,28.543848000250353],[-81.3974999995914,28.54385499980289],[-81.39729499955197,28.54385800006189],[-81.39729499955197,28.54392400021461],[-81.39729600027522,28.54412599970779],[-81.39729700010011,28.544193000301867],[-81.39729899974994,28.544337000339052],[-81.39730700014587,28.544770999687838],[-81.3973099996206,28.544916000326317],[-81.39731200016872,28.545066999636198],[-81.3973170001916,28.545500999922663],[-81.39731800001651,28.545521000020003],[-81.39731999966634,28.545672999846843],[-81.39732499968922,28.5460279998391],[-81.39734099958272,28.547095000112662],[-81.39734700032885,28.547450999835707],[-81.3973520003517,28.54782100009014],[-81.39735800019947,28.54814600015829],[-81.39736900007014,28.548841999615885],[-81.39773700031618,28.548844999732825],[-81.39833999984053,28.548848999625644],[-81.39908600037835,28.548881000340543],[-81.39922199992246,28.548939999709727],[-81.39944899970318,28.549047999820267],[-81.39958699979545,28.54911799975968],[-81.39964299987194,28.549148999830702],[-81.39965700011565,28.54915599982006],[-81.39964899971972,28.549172999904894],[-81.39964200004702,28.549190999759638],[-81.39963500037433,28.549210000172955],[-81.3996250003286,28.549248000200077],[-81.39962199995554,28.549268000375022],[-81.3995900001685,28.54939499973995],[-81.39958699979545,28.549418999758085],[-81.3995909999934,28.549453999610275],[-81.3996050002371,28.549486999911235],[-81.39962100013064,28.549507000040727],[-81.39965200009277,28.54950000007472],[-81.39968800007779,28.549507000040727],[-81.39988200024654,28.549623999854298],[-81.40003700005722,28.549701999920853],[-81.4002379998987,28.54978399978688],[-81.40040299975514,28.54983700005119],[-81.40051900010609,28.54986499982276],[-81.40073500001616,28.549907000255253],[-81.40095400029925,28.549931000156686],[-81.40111900015572,28.549938000094006],[-81.40134199973846,28.549928000070686],[-81.4015200000137,28.54990800002109],[-81.40173300044904,28.549873000319796],[-81.40195400038198,28.54981699998437],[-81.40211400021555,28.549760999619174],[-81.4022940001406,28.549684999921396],[-81.40235699988979,28.549653000239847],[-81.40246800021788,28.54959999988293],[-81.40255299970838,28.549552999692917],[-81.40255100005855,28.54945999980926],[-81.40255000023363,28.549382000352548],[-81.40255400043159,28.54934699968733],[-81.40257000032513,28.549314000131602],[-81.4025970000893,28.549287999757006],[-81.40263100042448,28.549269999918828],[-81.40267999992999,28.549261000393113],[-81.40277299981639,28.54925999983202],[-81.40286999990077,28.549256999726897],[-81.40307999996305,28.54925299984964],[-81.40316399962866,28.54925299984964],[-81.40326300026116,28.54925299984964],[-81.4032869996523,28.549121999642068],[-81.40342999976743,28.548769000163094],[-81.40352500020198,28.548538000210005],[-81.40363499980684,28.548179999862278],[-81.40373500026428,28.547806000147762],[-81.40375299980762,28.54776500024177],[-81.40378100029503,28.547728000255134],[-81.40381800010493,28.547698000341704],[-81.40386300031078,28.547676000294622],[-81.40391099999137,28.547665000269312],[-81.40420399989432,28.547661000331583],[-81.40471899955514,28.54765599981732],[-81.40508199977829,28.547657000393652],[-81.40548099998647,28.547647000153738],[-81.40560599965994,28.547648999728338]]]},"properties":{"block_id":"120950183001016","school_id":"sch_rock_lake_elementary","kids_est":51,"class":"green","shortest":{"len_m":1497.1,"mean_c":37.46,"peak_c":37.6,"dose":92.8},"coolest":{"len_m":1499.5,"mean_c":37.45,"peak_c":37.6,"dose":92.7},"delta_mean_c":-0.01,"delta_dose_pct":0,"distance_mi":0.504,"status_now":"walk","status_rec":"walk","reason":"Shortest route already under threshold (dose 93).","safe_until_hour":null}},{"type":"Feature","geometry":{"type":"Polygon","coordinates":[[[-81.41362399986492,28.549262000165097],[-81.4136210003902,28.54837199970191],[-81.4133329996118,28.548374000051844],[-81.41331400024353,28.5483749998323],[-81.41281799995099,28.54837199970191],[-81.41250300030671,28.548377000182168],[-81.41248400004014,28.548377000182168],[-81.41231599981064,28.548378999742905],[-81.41217400041874,28.548381000092697],[-81.41197799970183,28.548377999962536],[-81.41197699987694,28.548341000191275],[-81.41197699987694,28.548232000363054],[-81.41197699987694,28.54819600032258],[-81.41197600005202,28.54807899971163],[-81.41197500022712,28.547728000255134],[-81.41197500022712,28.54761199970094],[-81.41191300030283,28.547461999883357],[-81.41165100036201,28.54722800005688],[-81.41165300001184,28.546935000040275],[-81.41170400006546,28.546934000246157],[-81.41190599973181,28.546904999900963],[-81.4118820003407,28.546886999655495],[-81.41182799991402,28.54684500038586],[-81.41178600008124,28.546812000046202],[-81.41175799959382,28.54677200033798],[-81.41174300042351,28.546727000056183],[-81.41173900022555,28.54653699996972],[-81.41173000000472,28.54603999983794],[-81.41167700030128,28.545522999634947],[-81.41166999973028,28.545444999629794],[-81.41167399992824,28.545359000305766],[-81.41169800021768,28.545245999729207],[-81.41171699958592,28.54519099990051],[-81.41160600015617,28.545154999609704],[-81.41127300007024,28.545049999677644],[-81.41116299956708,28.545015999752355],[-81.41096900029662,28.54495400032457],[-81.41066299997487,28.54485700028107],[-81.41038599996544,28.544773999920743],[-81.41019199979667,28.544717000215353],[-81.41011700035193,28.54469500033464],[-81.40989399987085,28.544628999875908],[-81.409820000251,28.54460799979299],[-81.40978000006803,28.544595999631003],[-81.40966000041743,28.544559999925966],[-81.40962000023445,28.544549000364356],[-81.4096300002802,28.544569999669918],[-81.40961500021159,28.544815000201964],[-81.40963100010511,28.545336999770036],[-81.40962799973207,28.545529000057908],[-81.40968200015874,28.545769000122775],[-81.4096999997021,28.5467239998789],[-81.40971800014376,28.546946000141766],[-81.40976499999941,28.54947299997613],[-81.40978699974072,28.55062999971935],[-81.41002399956719,28.550626999653257],[-81.41143799992666,28.55061299986971],[-81.41142200003316,28.549787999643975],[-81.41174199970031,28.549785000342986],[-81.4126220001324,28.549776000072182],[-81.4135100000621,28.549766999800667],[-81.41361600036731,28.54976600003343],[-81.41361600036731,28.54973400037655],[-81.41362399986492,28.549262000165097]]]},"properties":{"block_id":"120950183003007","school_id":"sch_rock_lake_elementary","kids_est":0,"class":"red","shortest":{"len_m":1968.7,"mean_c":37.35,"peak_c":37.7,"dose":119.1},"coolest":{"len_m":1968.7,"mean_c":37.35,"peak_c":37.7,"dose":119.1},"delta_mean_c":0.0,"delta_dose_pct":0,"distance_mi":0.274,"status_now":"walk","status_rec":"bus_eligible","reason":"Coolest route mean 37.4C exceeds threshold (110 C-min dose, actual 119).","safe_until_hour":"14:00"}},{"type":"Feature","geometry":{"type":"Polygon","coordinates":[[[-81.40855099965646,28.549836000284678],[-81.40844799972432,28.54976500026623],[-81.40833899994438,28.549701999920853],[-81.4082209999436,28.54965199968248],[-81.4080960002701,28.549616999896102],[-81.40796700039868,28.549598000345323],[-81.40790100027644,28.549595000249834],[-81.40762799956666,28.549598000345323],[-81.4073840000675,28.549600999651695],[-81.40738999991528,28.5499580001379],[-81.40741000000675,28.551028999858392],[-81.40741699967947,28.551386999989713],[-81.40759099975672,28.551384999696992],[-81.40811499963837,28.55138099990057],[-81.40829000043887,28.55138099990057],[-81.40828200004296,28.551054000048165],[-81.4082710001723,28.550569000199705],[-81.4082719999972,28.550311000365802],[-81.4082860002409,28.550213999732616],[-81.40831999967779,28.55012099964356],[-81.40834099959419,28.550086000013053],[-81.40837400010447,28.550035999957018],[-81.40855099965646,28.549836000284678]]]},"properties":{"block_id":"120950183003005","school_id":"sch_rock_lake_elementary","kids_est":1,"class":"green","shortest":{"len_m":160.5,"mean_c":37.4,"peak_c":37.4,"dose":9.8},"coolest":{"len_m":160.5,"mean_c":37.4,"peak_c":37.4,"dose":9.8},"delta_mean_c":0.0,"delta_dose_pct":0,"distance_mi":0.133,"status_now":"walk","status_rec":"walk","reason":"Shortest route already under threshold (dose 10).","safe_until_hour":null}},{"type":"Feature","geometry":{"type":"Polygon","coordinates":[[[-81.4072290002568,28.552960999995467],[-81.40722400023392,28.552750999810826],[-81.4058929997151,28.55278799961071],[-81.4056940004218,28.552790999615226],[-81.40569600007161,28.552867999965354],[-81.40570699994227,28.552882000238174],[-81.4057079997672,28.55292100025559],[-81.40638800018274,28.55295299973305],[-81.4072290002568,28.552960999995467]]]},"properties":{"block_id":"120950183003000","school_id":"sch_rock_lake_elementary","kids_est":0,"class":"green","shortest":{"len_m":627.9,"mean_c":37.32,"peak_c":37.4,"dose":38.0},"coolest":{"len_m":627.9,"mean_c":37.32,"peak_c":37.4,"dose":38.0},"delta_mean_c":0.0,"delta_dose_pct":0,"distance_mi":0.276,"status_now":"walk","status_rec":"walk","reason":"Shortest route already under threshold (dose 38).","safe_until_hour":null}},{"type":"Feature","geometry":{"type":"Polygon","coordinates":[[[-81.41381700020878,28.549857999880594],[-81.41384200032313,28.54985700011427],[-81.41381300001082,28.549148999830702],[-81.41381600038386,28.548987999947926],[-81.41380799998794,28.54837099992148],[-81.41368599978921,28.54837199970191],[-81.41367200044382,28.54837199970191],[-81.4136210003902,28.54837199970191],[-81.41362399986492,28.549262000165097],[-81.41361600036731,28.54973400037655],[-81.41361600036731,28.54976600003343],[-81.41361399981918,28.549866000378103],[-81.41381700020878,28.549857999880594]]]},"properties":{"block_id":"120950183002038","school_id":"sch_rock_lake_elementary","kids_est":0,"class":"green","shortest":{"len_m":1730.4,"mean_c":37.3,"peak_c":37.6,"dose":103.7},"coolest":{"len_m":1730.4,"mean_c":37.3,"peak_c":37.6,"dose":103.7},"delta_mean_c":0.0,"delta_dose_pct":0,"distance_mi":0.428,"status_now":"walk","status_rec":"walk","reason":"Shortest route already under threshold (dose 104).","safe_until_hour":null}},{"type":"Feature","geometry":{"type":"Polygon","coordinates":[[[-81.40032800031038,28.54502200020418],[-81.40033400015815,28.54499399993417],[-81.40031700043973,28.544668999608863],[-81.4003090000438,28.543834000354796],[-81.39949300008412,28.543834000354796],[-81.39936199966455,28.543835000178294],[-81.39934999996898,28.543836000001775],[-81.39936199966455,28.543853000156215],[-81.39934300029628,28.544529000082402],[-81.39934699959593,28.54489299988461],[-81.39933999992324,28.545076000309365],[-81.39935900018982,28.54507499970853],[-81.39946799996977,28.54509199966304],[-81.39993300030017,28.545093000263737],[-81.4002300004011,28.545082999780316],[-81.40027600043184,28.54507399989679],[-81.4003020003711,28.54505699993943],[-81.40031300024177,28.545047000241723],[-81.40032800031038,28.54502200020418]]]},"properties":{"block_id":"120950183001018","school_id":"sch_rock_lake_elementary","kids_est":2,"class":"green","shortest":{"len_m":1290.2,"mean_c":37.47,"peak_c":37.6,"dose":80.1},"coolest":{"len_m":1290.2,"mean_c":37.47,"peak_c":37.6,"dose":80.1},"delta_mean_c":0.0,"delta_dose_pct":0,"distance_mi":0.513,"status_now":"walk","status_rec":"walk","reason":"Shortest route already under threshold (dose 80).","safe_until_hour":null}},{"type":"Feature","geometry":{"type":"Polygon","coordinates":[[[-81.40653899979549,28.551395000371105],[-81.40651500040435,28.549606999842247],[-81.40641699959676,28.549599000114167],[-81.40630299979394,28.549575000137047],[-81.406194000014,28.549537000227875],[-81.40611199999823,28.54949499964783],[-81.40602300030976,28.549437000359877],[-81.40594499959366,28.54936799961439],[-81.40587900036972,28.54932800008784],[-81.40580499985155,28.549300000173503],[-81.40572600020886,28.549286000213534],[-81.40563400014734,28.549286999985267],[-81.40565400023883,28.550255000263306],[-81.40565599988864,28.550589000123704],[-81.40567500015521,28.551409999802267],[-81.40653899979549,28.551395000371105]]]},"properties":{"block_id":"120950183003003","school_id":"sch_rock_lake_elementary","kids_est":8,"class":"green","shortest":{"len_m":126.2,"mean_c":37.4,"peak_c":37.4,"dose":7.7},"coolest":{"len_m":126.2,"mean_c":37.4,"peak_c":37.4,"dose":7.7},"delta_mean_c":0.0,"delta_dose_pct":0,"distance_mi":0.115,"status_now":"walk","status_rec":"walk","reason":"Shortest route already under threshold (dose 8).","safe_until_hour":null}},{"type":"Feature","geometry":{"type":"Polygon","coordinates":[[[-81.40472000027835,28.54801200001133],[-81.40471899955514,28.54765599981732],[-81.40420399989432,28.547661000331583],[-81.40391099999137,28.547665000269312],[-81.40386300031078,28.547676000294622],[-81.40381800010493,28.547698000341704],[-81.40378100029503,28.547728000255134],[-81.40375299980762,28.54776500024177],[-81.40373500026428,28.547806000147762],[-81.40363499980684,28.548179999862278],[-81.40352500020198,28.548538000210005],[-81.40342999976743,28.548769000163094],[-81.4032869996523,28.549121999642068],[-81.40326300026116,28.54925299984964],[-81.40332600001037,28.54925299984964],[-81.40351799963096,28.54925299984964],[-81.4035820001034,28.54925299984964],[-81.40460599957723,28.549239999655626],[-81.4045960004298,28.54830200005573],[-81.40461399997315,28.548244000110767],[-81.40467500007252,28.548156000350883],[-81.40470900040772,28.548076000361913],[-81.40472000027835,28.54801200001133]]]},"properties":{"block_id":"120950183001017","school_id":"sch_rock_lake_elementary","kids_est":8,"class":"green","shortest":{"len_m":424.7,"mean_c":37.35,"peak_c":37.4,"dose":25.7},"coolest":{"len_m":424.7,"mean_c":37.35,"peak_c":37.4,"dose":25.7},"delta_mean_c":0.0,"delta_dose_pct":0,"distance_mi":0.16,"status_now":"walk","status_rec":"walk","reason":"Shortest route already under threshold (dose 26).","safe_until_hour":null}},{"type":"Feature","geometry":{"type":"Polygon","coordinates":[[[-81.40155900037176,28.551852000335636],[-81.4015559999987,28.551435999652934],[-81.40153500008232,28.55058800036433],[-81.40153099988436,28.55003399963865],[-81.4015200000137,28.54990800002109],[-81.40134199973846,28.549928000070686],[-81.40111900015572,28.549938000094006],[-81.40095400029925,28.549931000156686],[-81.40073500001616,28.549907000255253],[-81.40051900010609,28.54986499982276],[-81.4005059996873,28.54997999970827],[-81.40051599973305,28.55088299998883],[-81.40054000002249,28.551856000114185],[-81.40059500027407,28.551856000114185],[-81.40155900037176,28.551852000335636]]]},"properties":{"block_id":"120950183001012","school_id":"sch_rock_lake_elementary","kids_est":0,"class":"green","shortest":{"len_m":956.6,"mean_c":37.37,"peak_c":37.4,"dose":58.1},"coolest":{"len_m":956.6,"mean_c":37.37,"peak_c":37.4,"dose":58.1},"delta_mean_c":0.0,"delta_dose_pct":0,"distance_mi":0.371,"status_now":"walk","status_rec":"walk","reason":"Shortest route already under threshold (dose 58).","safe_until_hour":null}},{"type":"Feature","geometry":{"type":"Polygon","coordinates":[[[-81.4072440003254,28.54688599986098],[-81.40724000012746,28.546719000109317],[-81.4072290002568,28.54622100024635],[-81.40722599988375,28.54605500003182],[-81.40705699982936,28.546062000226765],[-81.40689600017086,28.54606300002912],[-81.405905000309,28.546075000023976],[-81.4057379999044,28.546076999628475],[-81.40557600042102,28.546086000215336],[-81.40557800007086,28.546249999990764],[-81.40558300009371,28.546653999926498],[-81.40558499974354,28.546742999948183],[-81.40559099959133,28.546908000073145],[-81.40592100020251,28.546903000312252],[-81.4069129998893,28.54688999982813],[-81.4072440003254,28.54688599986098]]]},"properties":{"block_id":"120950183003009","school_id":"sch_rock_lake_elementary","kids_est":2,"class":"green","shortest":{"len_m":541.0,"mean_c":37.4,"peak_c":37.5,"dose":33.0},"coolest":{"len_m":541.0,"mean_c":37.4,"peak_c":37.5,"dose":33.0},"delta_mean_c":0.0,"delta_dose_pct":0,"distance_mi":0.163,"status_now":"walk","status_rec":"walk","reason":"Shortest route already under threshold (dose 33).","safe_until_hour":null}},{"type":"Feature","geometry":{"type":"Polygon","coordinates":[[[-81.41369500001004,28.552692999949027],[-81.41361399981918,28.550582000229653],[-81.41361399981918,28.550193999737346],[-81.41361399981918,28.549866000378103],[-81.41361600036731,28.54976600003343],[-81.4135100000621,28.549766999800667],[-81.4126220001324,28.549776000072182],[-81.41174199970031,28.549785000342986],[-81.41142200003316,28.549787999643975],[-81.41143799992666,28.55061299986971],[-81.41002399956719,28.550626999653257],[-81.40978699974072,28.55062999971935],[-81.40976499999941,28.54947299997613],[-81.40971800014376,28.546946000141766],[-81.4096999997021,28.5467239998789],[-81.40968200015874,28.545769000122775],[-81.40962799973207,28.545529000057908],[-81.40963100010511,28.545336999770036],[-81.40961500021159,28.544815000201964],[-81.4096300002802,28.544569999669918],[-81.40962000023445,28.544549000364356],[-81.4094829999671,28.54450999961378],[-81.40908899978182,28.54443300025447],[-81.4086300001975,28.544357999686866],[-81.40815999984422,28.544295000052585],[-81.40790299992626,28.544273000083745],[-81.40775399996335,28.54426599976991],[-81.4077489999405,28.544474999696767],[-81.40776700038214,28.545559999607104],[-81.40803599999566,28.545554999782272],[-81.4080390003687,28.54581899983736],[-81.4080460000414,28.546361999690667],[-81.4080529997141,28.54661300036109],[-81.40806100011001,28.546877999926135],[-81.40789700007849,28.54687899972074],[-81.40740699963372,28.5468840002719],[-81.4072440003254,28.54688599986098],[-81.4069129998893,28.54688999982813],[-81.40592100020251,28.546903000312252],[-81.40559099959133,28.546908000073145],[-81.40559800016233,28.547099999864447],[-81.40560599965994,28.547648999728338],[-81.40561800025381,28.548645000165877],[-81.40563199959921,28.549232999671844],[-81.40563400014734,28.549286999985267],[-81.40572600020886,28.549286000213534],[-81.40580499985155,28.549300000173503],[-81.40587900036972,28.54932800008784],[-81.40594499959366,28.54936799961439],[-81.40602300030976,28.549437000359877],[-81.40611199999823,28.54949499964783],[-81.406194000014,28.549537000227875],[-81.40630299979394,28.549575000137047],[-81.40641699959676,28.549599000114167],[-81.40651500040435,28.549606999842247],[-81.4073840000675,28.549600999651695],[-81.40762799956666,28.549598000345323],[-81.40790100027644,28.549595000249834],[-81.40796700039868,28.549598000345323],[-81.4080960002701,28.549616999896102],[-81.4082209999436,28.54965199968248],[-81.40833899994438,28.549701999920853],[-81.40844799972432,28.54976500026623],[-81.40855099965646,28.549836000284678],[-81.40863500022036,28.549893000375967],[-81.40869999961937,28.54993299968792],[-81.40892200027555,28.55007299992186],[-81.40914900005626,28.550223999728775],[-81.40924600014064,28.550289000075484],[-81.40928799997343,28.55033599993696],[-81.40930700024,28.55037200003496],[-81.40931899993558,28.55040999964277],[-81.40932099958539,28.550536000237866],[-81.40933099963115,28.551131000090326],[-81.40932999980623,28.551157000009884],[-81.40932899998133,28.551275000110333],[-81.40931800011067,28.551309000382204],[-81.40928200012566,28.551348999945365],[-81.40924699996556,28.55136599967618],[-81.40922699987406,28.55137100001423],[-81.40908700013198,28.551371999766175],[-81.40848899973219,28.551377999855877],[-81.40829000043887,28.55138099990057],[-81.40811499963837,28.55138099990057],[-81.40759099975672,28.551384999696992],[-81.40741699967947,28.551386999989713],[-81.40724099995238,28.551387999741507],[-81.40671399969767,28.55139300007855],[-81.40653899979549,28.551395000371105],[-81.40567500015521,28.551409999802267],[-81.40568199982792,28.55181699970225],[-81.40568400037606,28.552027000171538],[-81.40569299969857,28.55265699985549],[-81.4056940004218,28.552790999615226],[-81.4058929997151,28.55278799961071],[-81.40722400023392,28.552750999810826],[-81.40728399961006,28.5527490003331],[-81.40764699983322,28.55274000031565],[-81.40876800028975,28.552732000036492],[-81.4108339996791,28.552720000011117],[-81.4123550001687,28.552704000238183],[-81.41369500001004,28.552692999949027]]]},"properties":{"block_id":"120950183003002","school_id":"sch_rock_lake_elementary","kids_est":42,"class":"green","shortest":{"len_m":160.5,"mean_c":37.4,"peak_c":37.4,"dose":9.8},"coolest":{"len_m":160.5,"mean_c":37.4,"peak_c":37.4,"dose":9.8},"delta_mean_c":0.0,"delta_dose_pct":0,"distance_mi":0.162,"status_now":"walk","status_rec":"walk","reason":"Shortest route already under threshold (dose 10).","safe_until_hour":null}},{"type":"Feature","geometry":{"type":"Polygon","coordinates":[[[-81.40932999980623,28.551157000009884],[-81.40933099963115,28.551131000090326],[-81.40932099958539,28.550536000237866],[-81.40931899993558,28.55040999964277],[-81.40930700024,28.55037200003496],[-81.40928799997343,28.55033599993696],[-81.40924600014064,28.550289000075484],[-81.40914900005626,28.550223999728775],[-81.40892200027555,28.55007299992186],[-81.40869999961937,28.54993299968792],[-81.40863500022036,28.549893000375967],[-81.40855099965646,28.549836000284678],[-81.40837400010447,28.550035999957018],[-81.40834099959419,28.550086000013053],[-81.40831999967779,28.55012099964356],[-81.4082860002409,28.550213999732616],[-81.4082719999972,28.550311000365802],[-81.4082710001723,28.550569000199705],[-81.40828200004296,28.551054000048165],[-81.40829000043887,28.55138099990057],[-81.40848899973219,28.551377999855877],[-81.40908700013198,28.551371999766175],[-81.40922699987406,28.55137100001423],[-81.40924699996556,28.55136599967618],[-81.40928200012566,28.551348999945365],[-81.40931800011067,28.551309000382204],[-81.40932899998133,28.551275000110333],[-81.40932999980623,28.551157000009884]]]},"properties":{"block_id":"120950183003004","school_id":"sch_rock_lake_elementary","kids_est":29,"class":"green","shortest":{"len_m":326.7,"mean_c":37.31,"peak_c":37.4,"dose":19.7},"coolest":{"len_m":326.7,"mean_c":37.31,"peak_c":37.4,"dose":19.7},"delta_mean_c":0.0,"delta_dose_pct":0,"distance_mi":0.181,"status_now":"walk","status_rec":"walk","reason":"Shortest route already under threshold (dose 20).","safe_until_hour":null}},{"type":"Feature","geometry":{"type":"Polygon","coordinates":[[[-81.40449299959933,28.554662000257718],[-81.40449099994952,28.55381100014648],[-81.40333799970591,28.553817999825934],[-81.4025619999292,28.5538269997512],[-81.40256699995209,28.553947999987347],[-81.40258100019578,28.554031000218814],[-81.40267699955692,28.554432000330177],[-81.40277500036454,28.554679999963255],[-81.40283200026593,28.554679999963255],[-81.40299200009952,28.554677000012568],[-81.4034349997903,28.554668000159896],[-81.40449299959933,28.554662000257718]]]},"properties":{"block_id":"120950187001038","school_id":"sch_rock_lake_elementary","kids_est":2,"class":"green","shortest":{"len_m":1318.8,"mean_c":37.34,"peak_c":37.4,"dose":79.9},"coolest":{"len_m":1318.8,"mean_c":37.34,"peak_c":37.4,"dose":79.9},"delta_mean_c":0.0,"delta_dose_pct":0,"distance_mi":0.416,"status_now":"walk","status_rec":"walk","reason":"Shortest route already under threshold (dose 80).","safe_until_hour":null}},{"type":"Feature","geometry":{"type":"Polygon","coordinates":[[[-81.39946799996977,28.550934999943983],[-81.3994649995967,28.55058999988313],[-81.39945200007622,28.550056999746726],[-81.39945499955097,28.55001999977626],[-81.39930599958805,28.550015999927982],[-81.39874499989648,28.550015000163164],[-81.39771999969943,28.550029000026214],[-81.39767100019394,28.550035000192377],[-81.39762199979015,28.550048000288278],[-81.39757699958429,28.55006699975786],[-81.3975349997515,28.550090999622782],[-81.39749700011666,28.55012099964356],[-81.3974650003296,28.5501550002881],[-81.39743900039035,28.550192999974218],[-81.39742000012377,28.550233999724043],[-81.39740800042821,28.550278000323114],[-81.39740500005516,28.5503410003239],[-81.39740800042821,28.550473000353684],[-81.39741000007804,28.550605000218052],[-81.39740599988006,28.550951999741628],[-81.39754700034538,28.550947999928756],[-81.39934599977101,28.550931999886583],[-81.39946799996977,28.550934999943983]]]},"properties":{"block_id":"120950183001014","school_id":"sch_rock_lake_elementary","kids_est":9,"class":"green","shortest":{"len_m":1052.3,"mean_c":37.32,"peak_c":37.4,"dose":63.3},"coolest":{"len_m":1052.3,"mean_c":37.32,"peak_c":37.4,"dose":63.3},"delta_mean_c":0.0,"delta_dose_pct":0,"distance_mi":0.513,"status_now":"walk","status_rec":"walk","reason":"Shortest route already under threshold (dose 63).","safe_until_hour":null}},{"type":"Feature","geometry":{"type":"Polygon","coordinates":[[[-81.40039799973225,28.543835000178294],[-81.40040000028041,28.54373700006898],[-81.40038299966366,28.541993999690852],[-81.3993299998775,28.54198899969675],[-81.3993440001212,28.542647000356503],[-81.3993449999461,28.543158999743852],[-81.39935199961882,28.5435230003347],[-81.39935199961882,28.54373299998207],[-81.39934999996898,28.543836000001775],[-81.39936199966455,28.543835000178294],[-81.39949300008412,28.543834000354796],[-81.4003090000438,28.543834000354796],[-81.40039799973225,28.543835000178294]]]},"properties":{"block_id":"120950183001024","school_id":"sch_rock_lake_elementary","kids_est":2,"class":"green","shortest":{"len_m":1411.7,"mean_c":37.5,"peak_c":37.7,"dose":88.3},"coolest":{"len_m":1411.7,"mean_c":37.5,"peak_c":37.7,"dose":88.3},"delta_mean_c":0.0,"delta_dose_pct":0,"distance_mi":0.58,"status_now":"walk","status_rec":"walk","reason":"Shortest route already under threshold (dose 88).","safe_until_hour":null}},{"type":"Feature","geometry":{"type":"Polygon","coordinates":[[[-81.4057079997672,28.55292100025559],[-81.40570699994227,28.552882000238174],[-81.40569600007161,28.552867999965354],[-81.4056940004218,28.552790999615226],[-81.40569299969857,28.55265699985549],[-81.40568400037606,28.552027000171538],[-81.40568199982792,28.55181699970225],[-81.4054750001387,28.55181699970225],[-81.40485400017268,28.551821000271254],[-81.40464800030834,28.551822000018937],[-81.404442000444,28.551822000018937],[-81.40442400000236,28.551822999766586],[-81.40382700032578,28.551832999610014],[-81.40362200028638,28.551837000178356],[-81.40364200037784,28.552897000246578],[-81.40400700025083,28.552895999720054],[-81.40404599971059,28.552894999982573],[-81.404146000168,28.552933000258058],[-81.40448799957645,28.552933000258058],[-81.40496299995262,28.55291599999114],[-81.4057079997672,28.55292100025559]]]},"properties":{"block_id":"120950183001006","school_id":"sch_rock_lake_elementary","kids_est":5,"class":"green","shortest":{"len_m":747.0,"mean_c":37.34,"peak_c":37.4,"dose":45.4},"coolest":{"len_m":747.0,"mean_c":37.34,"peak_c":37.4,"dose":45.4},"delta_mean_c":0.0,"delta_dose_pct":0,"distance_mi":0.272,"status_now":"walk","status_rec":"walk","reason":"Shortest route already under threshold (dose 45).","safe_until_hour":null}},{"type":"Feature","geometry":{"type":"Polygon","coordinates":[[[-81.40568199982792,28.55181699970225],[-81.40567500015521,28.551409999802267],[-81.40565599988864,28.550589000123704],[-81.40565400023883,28.550255000263306],[-81.40563400014734,28.549286999985267],[-81.40563199959921,28.549232999671844],[-81.40460599957723,28.549239999655626],[-81.40462599966871,28.55057699985416],[-81.40464699958511,28.551583999833742],[-81.40464800030834,28.551822000018937],[-81.40485400017268,28.551821000271254],[-81.4054750001387,28.55181699970225],[-81.40568199982792,28.55181699970225]]]},"properties":{"block_id":"120950183001008","school_id":"sch_rock_lake_elementary","kids_est":10,"class":"green","shortest":{"len_m":409.8,"mean_c":37.33,"peak_c":37.4,"dose":24.8},"coolest":{"len_m":409.8,"mean_c":37.33,"peak_c":37.4,"dose":24.8},"delta_mean_c":0.0,"delta_dose_pct":0,"distance_mi":0.149,"status_now":"walk","status_rec":"walk","reason":"Shortest route already under threshold (dose 25).","safe_until_hour":null}},{"type":"Feature","geometry":{"type":"Polygon","coordinates":[[[-81.40364200037784,28.552897000246578],[-81.40362200028638,28.551837000178356],[-81.40335399959945,28.551834999894197],[-81.40259299989134,28.551843000241494],[-81.40260799995995,28.552677000171997],[-81.40260799995995,28.552903000249337],[-81.4028840001445,28.55289899972149],[-81.40364200037784,28.552897000246578]]]},"properties":{"block_id":"120950183001005","school_id":"sch_rock_lake_elementary","kids_est":7,"class":"green","shortest":{"len_m":810.2,"mean_c":37.36,"peak_c":37.4,"dose":49.1},"coolest":{"len_m":810.2,"mean_c":37.36,"peak_c":37.4,"dose":49.1},"delta_mean_c":0.0,"delta_dose_pct":0,"distance_mi":0.325,"status_now":"walk","status_rec":"walk","reason":"Shortest route already under threshold (dose 49).","safe_until_hour":null}},{"type":"Feature","geometry":{"type":"Polygon","coordinates":[[[-81.40464800030834,28.551822000018937],[-81.40464699958511,28.551583999833742],[-81.40462599966871,28.55057699985416],[-81.40460599957723,28.549239999655626],[-81.4035820001034,28.54925299984964],[-81.40358100027848,28.54942100008813],[-81.40358600030136,28.5497690001241],[-81.40361300006553,28.551320000026866],[-81.40362200028638,28.551837000178356],[-81.40382700032578,28.551832999610014],[-81.40442400000236,28.551822999766586],[-81.404442000444,28.551822000018937],[-81.40464800030834,28.551822000018937]]]},"properties":{"block_id":"120950183001009","school_id":"sch_rock_lake_elementary","kids_est":2,"class":"green","shortest":{"len_m":424.7,"mean_c":37.35,"peak_c":37.4,"dose":25.7},"coolest":{"len_m":424.7,"mean_c":37.35,"peak_c":37.4,"dose":25.7},"delta_mean_c":0.0,"delta_dose_pct":0,"distance_mi":0.195,"status_now":"walk","status_rec":"walk","reason":"Shortest route already under threshold (dose 26).","safe_until_hour":null}},{"type":"Feature","geometry":{"type":"Polygon","coordinates":[[[-81.40563199959921,28.549232999671844],[-81.40561800025381,28.548645000165877],[-81.40560599965994,28.547648999728338],[-81.40548099998647,28.547647000153738],[-81.40508199977829,28.547657000393652],[-81.40471899955514,28.54765599981732],[-81.40472000027835,28.54801200001133],[-81.40470900040772,28.548076000361913],[-81.40467500007252,28.548156000350883],[-81.40461399997315,28.548244000110767],[-81.4045960004298,28.54830200005573],[-81.40460599957723,28.549239999655626],[-81.40563199959921,28.549232999671844]]]},"properties":{"block_id":"120950183001019","school_id":"sch_rock_lake_elementary","kids_est":0,"class":"green","shortest":{"len_m":491.0,"mean_c":37.4,"peak_c":37.4,"dose":29.9},"coolest":{"len_m":491.0,"mean_c":37.4,"peak_c":37.4,"dose":29.9},"delta_mean_c":0.0,"delta_dose_pct":0,"distance_mi":0.098,"status_now":"walk","status_rec":"walk","reason":"Shortest route already under threshold (dose 30).","safe_until_hour":null}},{"type":"Feature","geometry":{"type":"Polygon","coordinates":[[[-81.40362200028638,28.551837000178356],[-81.40361300006553,28.551320000026866],[-81.40358600030136,28.5497690001241],[-81.40358100027848,28.54942100008813],[-81.4035820001034,28.54925299984964],[-81.40351799963096,28.54925299984964],[-81.40332600001037,28.54925299984964],[-81.40326300026116,28.54925299984964],[-81.40316399962866,28.54925299984964],[-81.40307999996305,28.54925299984964],[-81.40286999990077,28.549256999726897],[-81.40277299981639,28.54925999983202],[-81.40267999992999,28.549261000393113],[-81.40263100042448,28.549269999918828],[-81.4025970000893,28.549287999757006],[-81.40257000032513,28.549314000131602],[-81.40255400043159,28.54934699968733],[-81.40255000023363,28.549382000352548],[-81.40255100005855,28.54945999980926],[-81.40255299970838,28.549552999692917],[-81.40256500030226,28.550035000192377],[-81.40256699995209,28.550398000141865],[-81.40259299989134,28.551843000241494],[-81.40335399959945,28.551834999894197],[-81.40362200028638,28.551837000178356]]]},"properties":{"block_id":"120950183001010","school_id":"sch_rock_lake_elementary","kids_est":22,"class":"green","shortest":{"len_m":560.4,"mean_c":37.34,"peak_c":37.4,"dose":33.8},"coolest":{"len_m":560.4,"mean_c":37.34,"peak_c":37.4,"dose":33.8},"delta_mean_c":0.0,"delta_dose_pct":0,"distance_mi":0.248,"status_now":"walk","status_rec":"walk","reason":"Shortest route already under threshold (dose 34).","safe_until_hour":null}},{"type":"Feature","geometry":{"type":"Polygon","coordinates":[[[-81.40260799995995,28.552903000249337],[-81.40260799995995,28.552677000171997],[-81.40259299989134,28.551843000241494],[-81.40155900037176,28.551852000335636],[-81.4015679996943,28.552024000145256],[-81.40159199998372,28.552915000253865],[-81.40255699990632,28.552903000249337],[-81.40260799995995,28.552903000249337]]]},"properties":{"block_id":"120950183001004","school_id":"sch_rock_lake_elementary","kids_est":6,"class":"green","shortest":{"len_m":905.1,"mean_c":37.36,"peak_c":37.4,"dose":54.8},"coolest":{"len_m":905.1,"mean_c":37.36,"peak_c":37.4,"dose":54.8},"delta_mean_c":0.0,"delta_dose_pct":0,"distance_mi":0.37,"status_now":"walk","status_rec":"walk","reason":"Shortest route already under threshold (dose 55).","safe_until_hour":null}},{"type":"Feature","geometry":{"type":"Polygon","coordinates":[[[-81.40259299989134,28.551843000241494],[-81.40256699995209,28.550398000141865],[-81.40256500030226,28.550035000192377],[-81.40255299970838,28.549552999692917],[-81.40246800021788,28.54959999988293],[-81.40235699988979,28.549653000239847],[-81.4022940001406,28.549684999921396],[-81.40211400021555,28.549760999619174],[-81.40195400038198,28.54981699998437],[-81.40173300044904,28.549873000319796],[-81.4015200000137,28.54990800002109],[-81.40153099988436,28.55003399963865],[-81.40153500008232,28.55058800036433],[-81.4015559999987,28.551435999652934],[-81.40155900037176,28.551852000335636],[-81.40259299989134,28.551843000241494]]]},"properties":{"block_id":"120950183001011","school_id":"sch_rock_lake_elementary","kids_est":6,"class":"green","shortest":{"len_m":667.4,"mean_c":37.33,"peak_c":37.4,"dose":40.2},"coolest":{"len_m":667.4,"mean_c":37.33,"peak_c":37.4,"dose":40.2},"delta_mean_c":0.0,"delta_dose_pct":0,"distance_mi":0.311,"status_now":"walk","status_rec":"walk","reason":"Shortest route already under threshold (dose 40).","safe_until_hour":null}},{"type":"Feature","geometry":{"type":"Polygon","coordinates":[[[-81.40054000002249,28.551856000114185],[-81.40051599973305,28.55088299998883],[-81.4005059996873,28.54997999970827],[-81.40051900010609,28.54986499982276],[-81.40040299975514,28.54983700005119],[-81.4002379998987,28.54978399978688],[-81.40003700005722,28.549701999920853],[-81.39988200024654,28.549623999854298],[-81.39968800007779,28.549507000040727],[-81.39965200009277,28.54950000007472],[-81.39962100013064,28.549507000040727],[-81.39960699988693,28.549514000006276],[-81.39958299959748,28.549537999997238],[-81.39954400013774,28.549664000057504],[-81.39946999961958,28.54994400026541],[-81.39945499955097,28.55001999977626],[-81.39945200007622,28.550056999746726],[-81.3994649995967,28.55058999988313],[-81.39946799996977,28.550934999943983],[-81.39948100038856,28.55186999973247],[-81.40054000002249,28.551856000114185]]]},"properties":{"block_id":"120950183001013","school_id":"sch_rock_lake_elementary","kids_est":0,"class":"green","shortest":{"len_m":1024.6,"mean_c":37.32,"peak_c":37.4,"dose":61.6},"coolest":{"len_m":1024.6,"mean_c":37.32,"peak_c":37.4,"dose":61.6},"delta_mean_c":0.0,"delta_dose_pct":0,"distance_mi":0.428,"status_now":"walk","status_rec":"walk","reason":"Shortest route already under threshold (dose 62).","safe_until_hour":null}},{"type":"Feature","geometry":{"type":"Polygon","coordinates":[[[-81.40060299977168,28.55292400025637],[-81.40059500027407,28.551856000114185],[-81.40054000002249,28.551856000114185],[-81.39948100038856,28.55186999973247],[-81.39850399987206,28.55187800007711],[-81.39850999971983,28.55240600017637],[-81.40019000021812,28.55239499985607],[-81.40019500024098,28.552927000257014],[-81.40060299977168,28.55292400025637]]]},"properties":{"block_id":"120950183001002","school_id":"sch_rock_lake_elementary","kids_est":1,"class":"green","shortest":{"len_m":1060.1,"mean_c":37.37,"peak_c":37.4,"dose":64.4},"coolest":{"len_m":1060.1,"mean_c":37.37,"peak_c":37.4,"dose":64.4},"delta_mean_c":0.0,"delta_dose_pct":0,"distance_mi":0.484,"status_now":"walk","status_rec":"walk","reason":"Shortest route already under threshold (dose 64).","safe_until_hour":null}},{"type":"Feature","geometry":{"type":"Polygon","coordinates":[[[-81.40061399964232,28.553863000233758],[-81.40061199999249,28.553459000337117],[-81.40060299977168,28.55292400025637],[-81.40019500024098,28.552927000257014],[-81.39804000026487,28.55294399973308],[-81.39745199991083,28.55293399999517],[-81.39745500028387,28.553086000169554],[-81.39746100013164,28.553292999695874],[-81.39748200004804,28.553427000224364],[-81.39751300001018,28.553539999913294],[-81.39751800003306,28.553557999810657],[-81.39756800026177,28.55368300006506],[-81.39761199974438,28.5537670002347],[-81.39765000027754,28.5538269997512],[-81.39770399980588,28.55391399977854],[-81.3978739996852,28.55414700001448],[-81.39793399995966,28.55423800025453],[-81.39802699984608,28.554378000288082],[-81.39838000002351,28.554179999633707],[-81.39850200022224,28.55412300028495],[-81.39855800029872,28.554098000034756],[-81.3986970002159,28.554048000305695],[-81.39889200020959,28.55399199982348],[-81.39909300005102,28.553951999686266],[-81.39933300025055,28.55392599966778],[-81.39950700032782,28.553919999723327],[-81.39968200023,28.553927000184533],[-81.39985499958405,28.553947999987347],[-81.40002500036168,28.553982000185158],[-81.40008800011087,28.553999000279955],[-81.40060899961945,28.554141000082623],[-81.40061399964232,28.553863000233758]]]},"properties":{"block_id":"120950187001042","school_id":"sch_rock_lake_elementary","kids_est":0,"class":"green","shortest":{"len_m":1232.7,"mean_c":37.36,"peak_c":37.4,"dose":75.1},"coolest":{"len_m":1232.7,"mean_c":37.36,"peak_c":37.4,"dose":75.1},"delta_mean_c":0.0,"delta_dose_pct":0,"distance_mi":0.564,"status_now":"walk","status_rec":"walk","reason":"Shortest route already under threshold (dose 75).","safe_until_hour":null}},{"type":"Feature","geometry":{"type":"Polygon","coordinates":[[[-81.40449299959933,28.55602100014414],[-81.40449599997237,28.55573000034334],[-81.40449299959933,28.554662000257718],[-81.4034349997903,28.554668000159896],[-81.40299200009952,28.554677000012568],[-81.40283200026593,28.554679999963255],[-81.40277500036454,28.554679999963255],[-81.40291799958135,28.554769000303203],[-81.40302499971148,28.55492900030848],[-81.40314100006243,28.55513199971373],[-81.40324099962154,28.55534999996457],[-81.40327400013182,28.555613000212944],[-81.40331099994174,28.555786999611158],[-81.40332099998749,28.55602900017343],[-81.40449299959933,28.55602100014414]]]},"properties":{"block_id":"120950187001024","school_id":"sch_rock_lake_elementary","kids_est":0,"class":"green","shortest":{"len_m":1231.1,"mean_c":37.34,"peak_c":37.4,"dose":74.6},"coolest":{"len_m":1231.1,"mean_c":37.34,"peak_c":37.4,"dose":74.6},"delta_mean_c":0.0,"delta_dose_pct":0,"distance_mi":0.477,"status_now":"walk","status_rec":"walk","reason":"Shortest route already under threshold (dose 75).","safe_until_hour":null}}]}