{"type":"FeatureCollection","features":[{"type":"Feature","geometry":{"type":"Polygon","coordinates":[[[-81.4124739999944,28.621718999612053],[-81.41247300016948,28.62164199998927],[-81.41246999979644,28.62154100019367],[-81.41246800014662,28.621393999755444],[-81.41246399994864,28.621239000100342],[-81.41246300012374,28.621138999794486],[-81.41180799982253,28.62114700039016],[-81.41130800023033,28.621154000319553],[-81.41126399984941,28.621165999634076],[-81.41122600021458,28.621188999959283],[-81.41119699990226,28.621220000081067],[-81.41117799963567,28.621257000239936],[-81.41117299961282,28.62127700012852],[-81.41117900035891,28.62171199972038],[-81.41119400042753,28.621753999852004],[-81.41122200001661,28.621789999951506],[-81.41126100037468,28.62181800028317],[-81.41131800027608,28.621834999664202],[-81.41135799956074,28.62183899993561],[-81.41195199976258,28.621827999780265],[-81.41200700001416,28.621827999780265],[-81.41237199988714,28.62182199976673],[-81.41241999956772,28.621807000125575],[-81.41245599955273,28.62177500030579],[-81.41246999979644,28.621747999834234],[-81.4124739999944,28.621718999612053]]]},"properties":{"block_id":"120950152041024","school_id":"sch_lockhart_middle","kids_est":0,"class":"green","shortest":{"len_m":1284.9,"mean_c":37.63,"peak_c":37.7,"dose":82.5},"coolest":{"len_m":1284.9,"mean_c":37.63,"peak_c":37.7,"dose":82.5},"delta_mean_c":0.0,"delta_dose_pct":0,"distance_mi":0.636,"status_now":"walk","status_rec":"walk","reason":"Shortest route already under threshold (dose 82).","safe_until_hour":null}},{"type":"Feature","geometry":{"type":"Polygon","coordinates":[[[-81.41486599979697,28.62163300034713],[-81.4148530002765,28.619771000145832],[-81.4148530002765,28.618403000022653],[-81.41433000021976,28.618413999748306],[-81.4136149996441,28.618418000150037],[-81.41288900009609,28.618427000067722],[-81.41253099989581,28.618427999970923],[-81.41193099984619,28.618432000372184],[-81.41193099984619,28.618536999612715],[-81.41193300039431,28.618856000243877],[-81.41193400021923,28.618961999747125],[-81.41261100026173,28.61895600035839],[-81.41336000027428,28.61895100007889],[-81.4134039997569,28.618964000331896],[-81.41343999974191,28.618989000146584],[-81.41346499985626,28.61902399971947],[-81.41347599972691,28.619062999657835],[-81.41348400012284,28.6197529997515],[-81.4134730002522,28.61978999963875],[-81.41344999978767,28.619822999953424],[-81.41341600035078,28.61984800035211],[-81.4133760001678,28.619863000273114],[-81.413262000365,28.619867999720558],[-81.41311800042496,28.619870000288063],[-81.41244100038243,28.61988099986003],[-81.41244499968207,28.6199959996889],[-81.41245499972781,28.620280999784807],[-81.41245399990291,28.62034099999691],[-81.41245399990291,28.620456999994417],[-81.41245499972781,28.62059299988263],[-81.41246099957561,28.62100199994624],[-81.41246300012374,28.621138999794486],[-81.41246399994864,28.621239000100342],[-81.41246800014662,28.621393999755444],[-81.41246999979644,28.62154100019367],[-81.41247300016948,28.62164199998927],[-81.41297199993676,28.621640000244135],[-81.41442999977887,28.621637999710355],[-81.41447199961166,28.621636999837737],[-81.41486599979697,28.62163300034713]]]},"properties":{"block_id":"120950152041026","school_id":"sch_lockhart_middle","kids_est":10,"class":"green","shortest":{"len_m":1019.3,"mean_c":37.63,"peak_c":37.7,"dose":65.7},"coolest":{"len_m":1019.3,"mean_c":37.63,"peak_c":37.7,"dose":65.7},"delta_mean_c":0.0,"delta_dose_pct":0,"distance_mi":0.53,"status_now":"walk","status_rec":"walk","reason":"Shortest route already under threshold (dose 66).","safe_until_hour":null}},{"type":"Feature","geometry":{"type":"Polygon","coordinates":[[[-81.43125399966115,28.62132499968792],[-81.4312500003615,28.62090200020314],[-81.43124899963827,28.62083700012192],[-81.43123399956966,28.620816000269084],[-81.4312090003536,28.62080300024538],[-81.43108200013201,28.620791999981503],[-81.4310260000555,28.620791999981503],[-81.43086100019907,28.620791999981503],[-81.43078400020619,28.62078300026651],[-81.43070999968802,28.62075999985236],[-81.43064199991595,28.62072500006957],[-81.43058400018963,28.62067800011764],[-81.43055900007528,28.62065100015248],[-81.43041500013523,28.620425999647345],[-81.43036599973142,28.62037799967695],[-81.43031200020307,28.620348999864884],[-81.43025899960132,28.620332000243252],[-81.43021099992073,28.620327000029345],[-81.43001400027724,28.620327000029345],[-81.42954300009905,28.620326000144235],[-81.42954099955091,28.62049799995608],[-81.42953899990108,28.62093799980621],[-81.42953899990108,28.621016999702327],[-81.42953899990108,28.621189999836187],[-81.42953899990108,28.62124699989991],[-81.42953899990108,28.621315000142932],[-81.42953899990108,28.621433000390667],[-81.42954200027414,28.621691999914606],[-81.42954300009905,28.62181800028317],[-81.42954399992396,28.621963000388792],[-81.42954200027414,28.622025000166158],[-81.42953899990108,28.622199999950713],[-81.42954099955091,28.622456000353846],[-81.42955700034275,28.622512999730226],[-81.42958199955879,28.622551999949774],[-81.42965000022916,28.622611999652708],[-81.42968399966604,28.622671000247067],[-81.42969799990973,28.622753000002312],[-81.42969799990973,28.62280699963307],[-81.42976499985689,28.62270500030719],[-81.42982400030644,28.622649000109504],[-81.42987299981193,28.62261900027293],[-81.42993200026147,28.622597999987896],[-81.42999400018574,28.622590000291275],[-81.43018599980637,28.62258899963923],[-81.43030800000513,28.62258899963923],[-81.43037999997513,28.622582999669117],[-81.43043000020384,28.622565999620694],[-81.43047399968646,28.622539000141053],[-81.43050899984657,28.622504000162746],[-81.43053300013601,28.62246200033115],[-81.43075999991672,28.621703999956242],[-81.43082299966592,28.62151299978814],[-81.43084500030554,28.62148500016364],[-81.43087500044277,28.621462999777574],[-81.43091100042778,28.621450999708443],[-81.43112800016276,28.62142599969136],[-81.4311459997061,28.621422000192716],[-81.43117900021639,28.621415000281246],[-81.43120699980548,28.621399999793443],[-81.43123899959254,28.621366999974413],[-81.43125399966115,28.62132499968792]]]},"properties":{"block_id":"120950151032007","school_id":"sch_lockhart_middle","kids_est":10,"class":"red","shortest":{"len_m":2486.3,"mean_c":37.44,"peak_c":37.7,"dose":153.0},"coolest":{"len_m":2486.3,"mean_c":37.44,"peak_c":37.7,"dose":153.0},"delta_mean_c":0.0,"delta_dose_pct":0,"distance_mi":0.479,"status_now":"walk","status_rec":"bus_eligible","reason":"Coolest route mean 37.4C exceeds threshold (110 C-min dose, actual 153).","safe_until_hour":"13:00"}},{"type":"Feature","geometry":{"type":"Polygon","coordinates":[[[-81.42691299974679,28.623853999994974],[-81.4269139995717,28.62237299971242],[-81.42685199964743,28.622359000015802],[-81.42675600028628,28.62234999964658],[-81.42608099989356,28.622351000300966],[-81.42558999962388,28.622351000300966],[-81.4244349997305,28.62235300003261],[-81.42439100024788,28.622364999998652],[-81.42435199988981,28.622388999926677],[-81.42432400030073,28.62242200021303],[-81.42430800040718,28.62246099967782],[-81.42430800040718,28.622598999851377],[-81.4243090002321,28.622957000038816],[-81.42430599985906,28.623051000246917],[-81.42429699963823,28.62308899961925],[-81.42429199961535,28.62311300017032],[-81.42425399998052,28.623201000303972],[-81.4242179999955,28.623256000350064],[-81.42412299956095,28.623347999789264],[-81.42407800025342,28.62338499998668],[-81.42400200008544,28.623434999870433],[-81.42383300003104,28.62354700018608],[-81.42378500035048,28.623593999642264],[-81.42374699981731,28.62364699977551],[-81.42372000005314,28.623705999788235],[-81.42370499998452,28.623768000113383],[-81.42370499998452,28.624706000132395],[-81.42370599980943,28.62517399991998],[-81.42385999979521,28.62517399991998],[-81.42432500012562,28.62517399991998],[-81.42447999993632,28.625174999758908],[-81.42448099976123,28.6248060001949],[-81.42448300030938,28.624190999879147],[-81.4244990002029,28.624107999820943],[-81.42453600001284,28.62402899988502],[-81.4245910002644,28.623959000121708],[-81.42465999986139,28.623912000040455],[-81.424710999915,28.623886999820847],[-81.4247650003417,28.623869000132164],[-81.42479600030383,28.623863000235268],[-81.42485099965708,28.623854999846497],[-81.42516399965153,28.62385300014345],[-81.4253439995766,28.62385300014345],[-81.42588599989989,28.623853999994974],[-81.42606699964986,28.623854999846497],[-81.42623599970426,28.623853999994974],[-81.42674299986749,28.623853999994974],[-81.42691299974679,28.623853999994974]]]},"properties":{"block_id":"120950151041002","school_id":"sch_lockhart_middle","kids_est":21,"class":"red","shortest":{"len_m":1912.0,"mean_c":37.56,"peak_c":37.7,"dose":120.9},"coolest":{"len_m":1912.0,"mean_c":37.56,"peak_c":37.7,"dose":120.9},"delta_mean_c":0.0,"delta_dose_pct":0,"distance_mi":0.229,"status_now":"walk","status_rec":"bus_eligible","reason":"Coolest route mean 37.6C exceeds threshold (110 C-min dose, actual 121).","safe_until_hour":"14:00"}},{"type":"Feature","geometry":{"type":"Polygon","coordinates":[[[-81.42291599978901,28.62443299994996],[-81.42291599978901,28.62427899989779],[-81.42288300017705,28.6242100001493],[-81.42283600032138,28.624172000394157],[-81.42279699996334,28.62415700030027],[-81.42273300038921,28.62415200026851],[-81.42242799989238,28.624148000085192],[-81.42226100038611,28.624158000148906],[-81.42214900023312,28.62419900024232],[-81.4219719997828,28.624315999767088],[-81.42188300009434,28.62437400034581],[-81.4217039999942,28.6244899998301],[-81.42166700018429,28.62452999994879],[-81.42163899969685,28.624610000140503],[-81.42163500039722,28.6247770000289],[-81.42164100024502,28.62503799965763],[-81.42167200020715,28.62511599978324],[-81.42173800032938,28.62516300011405],[-81.42184499956119,28.62517899990304],[-81.42197699980566,28.62517800006419],[-81.42227200025677,28.62517899990304],[-81.42275500013054,28.6251770002253],[-81.42282299990259,28.625162000274994],[-81.42287800015417,28.62512400007592],[-81.42291599978901,28.62504900026516],[-81.42291499996409,28.62474100016514],[-81.42291599978901,28.62443299994996]]]},"properties":{"block_id":"120950151041003","school_id":"sch_lockhart_middle","kids_est":17,"class":"red","shortest":{"len_m":2372.1,"mean_c":37.59,"peak_c":37.7,"dose":151.2},"coolest":{"len_m":2372.1,"mean_c":37.59,"peak_c":37.7,"dose":151.2},"delta_mean_c":0.0,"delta_dose_pct":0,"distance_mi":0.233,"status_now":"walk","status_rec":"bus_eligible","reason":"Coolest route mean 37.6C exceeds threshold (110 C-min dose, actual 151).","safe_until_hour":"13:00"}},{"type":"Feature","geometry":{"type":"Polygon","coordinates":[[[-81.42936800019687,28.624438999814277],[-81.42936800019687,28.624348000389418],[-81.42935499977808,28.624279999745266],[-81.4292159998609,28.62383100025359],[-81.42920099979227,28.623747999910716],[-81.42919999996738,28.62364300036148],[-81.42921699968582,28.623509000190957],[-81.42924900037116,28.62337599970542],[-81.42931600031831,28.623166999615933],[-81.42931100029546,28.623147000087314],[-81.42929799987667,28.62313299970535],[-81.42927399958721,28.623123000332566],[-81.42874899988067,28.623249999629593],[-81.42864199975055,28.623259999778774],[-81.42829100012126,28.623248999772322],[-81.42821099975532,28.623257000207275],[-81.42815200020408,28.62327099978415],[-81.42804699972379,28.623313999937317],[-81.42795300001247,28.623372000281122],[-81.4278709999967,28.62344400014664],[-81.4278290001639,28.623497000355623],[-81.42778700033111,28.62357900025427],[-81.4277589998437,28.623661000088926],[-81.42774999962288,28.623716999746804],[-81.42776200021675,28.623986000024704],[-81.42774600032322,28.624289999796336],[-81.42774899979794,28.62438000021351],[-81.42777999976009,28.62447099961062],[-81.42782999998882,28.62456500004015],[-81.42789000026328,28.624644000361265],[-81.42797899995173,28.624707999819183],[-81.42804400024906,28.624742999851254],[-81.42814899983104,28.624782000030866],[-81.42822300034919,28.624798999720525],[-81.42839300022851,28.62480899972222],[-81.42861199961331,28.624812999880294],[-81.42870600022295,28.624823999722953],[-81.42879499991142,28.62485000034993],[-81.42889000034596,28.62489500032811],[-81.42897200036174,28.624946999963456],[-81.42901300036962,28.62495299979841],[-81.4290409999587,28.624946000122353],[-81.42905900040037,28.62493500029248],[-81.42912999964717,28.624860000346764],[-81.4292650002647,28.62469199995835],[-81.42932200016611,28.624594000264736],[-81.42935300012824,28.624515999751264],[-81.42936800019687,28.624438999814277]]]},"properties":{"block_id":"120950151032003","school_id":"sch_lockhart_middle","kids_est":31,"class":"red","shortest":{"len_m":2123.9,"mean_c":37.5,"peak_c":37.7,"dose":132.3},"coolest":{"len_m":2123.9,"mean_c":37.5,"peak_c":37.7,"dose":132.3},"delta_mean_c":0.0,"delta_dose_pct":0,"distance_mi":0.424,"status_now":"walk","status_rec":"bus_eligible","reason":"Coolest route mean 37.5C exceeds threshold (110 C-min dose, actual 132).","safe_until_hour":"14:00"}},{"type":"Feature","geometry":{"type":"Polygon","coordinates":[[[-81.42964199983324,28.62304199993702],[-81.42966100009983,28.622974000023973],[-81.42929799987667,28.62313299970535],[-81.42931100029546,28.623147000087314],[-81.42931600031831,28.623166999615933],[-81.42924900037116,28.62337599970542],[-81.42921699968582,28.623509000190957],[-81.42919999996738,28.62364300036148],[-81.42920099979227,28.623747999910716],[-81.4292159998609,28.62383100025359],[-81.42935499977808,28.624279999745266],[-81.42936800019687,28.624348000389418],[-81.42936800019687,28.624438999814277],[-81.42935300012824,28.624515999751264],[-81.42932200016611,28.624594000264736],[-81.4292650002647,28.62469199995835],[-81.42912999964717,28.624860000346764],[-81.42905900040037,28.62493500029248],[-81.4290409999587,28.624946000122353],[-81.42909899968504,28.62500100004279],[-81.42920300034041,28.62507199973971],[-81.42933399986168,28.62493100013905],[-81.42945799971024,28.624775000343426],[-81.42951399978674,28.624691000114804],[-81.42955899999258,28.624592999631787],[-81.42958999995471,28.624488000139156],[-81.42960199965027,28.624388999620166],[-81.42960000000045,28.624305999718437],[-81.42957900008406,28.624190000030907],[-81.42950799993895,28.623968000352995],[-81.42943299959589,28.623700999735],[-81.42942400027336,28.62361600037033],[-81.42943599996893,28.623519000315483],[-81.4295880003049,28.623181999851276],[-81.42964199983324,28.62304199993702]]]},"properties":{"block_id":"120950151032006","school_id":"sch_lockhart_middle","kids_est":0,"class":"red","shortest":{"len_m":2123.9,"mean_c":37.5,"peak_c":37.7,"dose":132.3},"coolest":{"len_m":2123.9,"mean_c":37.5,"peak_c":37.7,"dose":132.3},"delta_mean_c":0.0,"delta_dose_pct":0,"distance_mi":0.469,"status_now":"walk","status_rec":"bus_eligible","reason":"Coolest route mean 37.5C exceeds threshold (110 C-min dose, actual 132).","safe_until_hour":"14:00"}},{"type":"Feature","geometry":{"type":"Polygon","coordinates":[[[-81.41903900038015,28.620488000332326],[-81.41904000020506,28.620425999647345],[-81.41903400035727,28.619946999633225],[-81.41903299963406,28.6197669997956],[-81.41889999956467,28.6197669997956],[-81.41850200007973,28.6197669997956],[-81.41836999983525,28.619767999686015],[-81.41836900001033,28.619810999696796],[-81.41835599959154,28.619837999877937],[-81.41828799981948,28.61989900023238],[-81.41826600007816,28.619922999935525],[-81.41823199974297,28.619964999994252],[-81.41815700029822,28.62009100006967],[-81.41813800003165,28.620174000149387],[-81.41813200018386,28.6203219998152],[-81.4181000003968,28.62047500026805],[-81.41806000021383,28.62066799972246],[-81.41825500020751,28.62066799972246],[-81.41884299966326,28.62066799972246],[-81.41903900038015,28.620669000392887],[-81.41903900038015,28.620488000332326]]]},"properties":{"block_id":"120950151041012","school_id":"sch_lockhart_middle","kids_est":0,"class":"green","shortest":{"len_m":409.9,"mean_c":37.7,"peak_c":37.7,"dose":26.6},"coolest":{"len_m":409.9,"mean_c":37.7,"peak_c":37.7,"dose":26.6},"delta_mean_c":0.0,"delta_dose_pct":0,"distance_mi":0.237,"status_now":"walk","status_rec":"walk","reason":"Shortest route already under threshold (dose 27).","safe_until_hour":null}},{"type":"Feature","geometry":{"type":"Polygon","coordinates":[[[-81.42907199992086,28.622334000214934],[-81.42906699989798,28.62182899965106],[-81.4290619998751,28.62135699964487],[-81.4290619998751,28.62117799973584],[-81.4290619998751,28.620778999954826],[-81.4290469998065,28.62072300030693],[-81.42901800039249,28.62067899999939],[-81.42895800011803,28.620629000380223],[-81.42889600019377,28.62060300028496],[-81.42885099998792,28.620593999765195],[-81.42857099960543,28.620587999681142],[-81.42851799990198,28.620591000117525],[-81.42846900039649,28.620606999814786],[-81.42842699966538,28.620634999673374],[-81.42840400009916,28.62066199964263],[-81.42837700033499,28.620710000271767],[-81.42835800006841,28.620779999835623],[-81.42835399987045,28.620993000249236],[-81.42835700024351,28.621586999886205],[-81.42835800006841,28.621940000233135],[-81.42834999967249,28.6225850001849],[-81.42874999970557,28.62259100015482],[-81.42882599987355,28.622581999805483],[-81.42889799984358,28.622559999649294],[-81.42896300014091,28.622526000330755],[-81.42899900012593,28.622495999670466],[-81.42902800043824,28.62246099967782],[-81.42905699985224,28.62240199975401],[-81.42907199992086,28.622334000214934]]]},"properties":{"block_id":"120950151032009","school_id":"sch_lockhart_middle","kids_est":38,"class":"green","shortest":{"len_m":1599.0,"mean_c":37.56,"peak_c":37.7,"dose":101.0},"coolest":{"len_m":1599.0,"mean_c":37.56,"peak_c":37.7,"dose":101.0},"delta_mean_c":0.0,"delta_dose_pct":0,"distance_mi":0.389,"status_now":"walk","status_rec":"walk","reason":"Shortest route already under threshold (dose 101).","safe_until_hour":null}},{"type":"Feature","geometry":{"type":"Polygon","coordinates":[[[-81.42691500029493,28.624412000027828],[-81.42691299974679,28.623853999994974],[-81.42674299986749,28.623853999994974],[-81.42623599970426,28.623853999994974],[-81.42606699964986,28.623854999846497],[-81.42588599989989,28.623853999994974],[-81.4253439995766,28.62385300014345],[-81.42516399965153,28.62385300014345],[-81.42485099965708,28.623854999846497],[-81.42479600030383,28.623863000235268],[-81.4247650003417,28.623869000132164],[-81.424710999915,28.623886999820847],[-81.42465999986139,28.623912000040455],[-81.4245910002644,28.623959000121708],[-81.42453600001284,28.62402899988502],[-81.4244990002029,28.624107999820943],[-81.42448300030938,28.624190999879147],[-81.42448099976123,28.6248060001949],[-81.42447999993632,28.625174999758908],[-81.42463599957195,28.625174999758908],[-81.4251040002754,28.625174999758908],[-81.42526099973591,28.62517600038637],[-81.42526499993387,28.624675000251443],[-81.4252730003298,28.62463600003201],[-81.4252869996752,28.62461099998481],[-81.42529400024618,28.6246000001199],[-81.42532600003324,28.624571999741676],[-81.42536600021621,28.624553000325577],[-81.42540999969883,28.624544999989386],[-81.42678399987535,28.624539999976108],[-81.42682800025628,28.624526999625026],[-81.42684900017267,28.624517000384998],[-81.42688199978464,28.624488000139156],[-81.42690500024919,28.6244520001763],[-81.42691199992187,28.624422000066403],[-81.42691500029493,28.624412000027828]]]},"properties":{"block_id":"120950151041005","school_id":"sch_lockhart_middle","kids_est":14,"class":"red","shortest":{"len_m":1826.0,"mean_c":37.56,"peak_c":37.7,"dose":115.4},"coolest":{"len_m":1826.0,"mean_c":37.56,"peak_c":37.7,"dose":115.4},"delta_mean_c":0.0,"delta_dose_pct":0,"distance_mi":0.286,"status_now":"walk","status_rec":"bus_eligible","reason":"Coolest route mean 37.6C exceeds threshold (110 C-min dose, actual 115).","safe_until_hour":"14:00"}},{"type":"Feature","geometry":{"type":"Polygon","coordinates":[[[-81.42080299964569,28.619584999865133],[-81.42080199982078,28.61955100037175],[-81.42079900034605,28.619079000376498],[-81.42079199977503,28.619050000205664],[-81.42076400018597,28.61899700011757],[-81.42071899998011,28.61895399977348],[-81.42066000042888,28.618925000356693],[-81.4206279997435,28.618917000380222],[-81.42055300029875,28.618912000098927],[-81.42038800044232,28.618912000098927],[-81.41891700018142,28.618918000278754],[-81.41848500036129,28.61892000007578],[-81.41842699973664,28.61892000007578],[-81.41839999997246,28.61903500016857],[-81.41839499994961,28.619087000340627],[-81.41838800027689,28.61917800038259],[-81.4183749998581,28.61959700014759],[-81.41836999983525,28.619767999686015],[-81.41850200007973,28.6197669997956],[-81.41889999956467,28.6197669997956],[-81.41903299963406,28.6197669997956],[-81.41950499963716,28.619765999905212],[-81.42033099964259,28.61976500001476],[-81.42061299967489,28.619758999883274],[-81.42067399977427,28.619743999947463],[-81.42072700037603,28.619713000178464],[-81.42075499996513,28.619685000073943],[-81.42079199977503,28.619625000275494],[-81.42080299964569,28.619584999865133]]]},"properties":{"block_id":"120950151041028","school_id":"sch_lockhart_middle","kids_est":3,"class":"green","shortest":{"len_m":435.4,"mean_c":37.68,"peak_c":37.7,"dose":28.2},"coolest":{"len_m":435.4,"mean_c":37.68,"peak_c":37.7,"dose":28.2},"delta_mean_c":0.0,"delta_dose_pct":0,"distance_mi":0.213,"status_now":"walk","status_rec":"walk","reason":"Shortest route already under threshold (dose 28).","safe_until_hour":null}},{"type":"Feature","geometry":{"type":"Polygon","coordinates":[[[-81.42561200026351,28.620211999774423],[-81.4256110004386,28.619950000087865],[-81.42560899989046,28.61916600005231],[-81.42560899989046,28.61890500002011],[-81.4250840001839,28.618904000121464],[-81.42508699965865,28.618936999926003],[-81.42509199968151,28.620211999774423],[-81.42519600033691,28.620211999774423],[-81.42550799960812,28.620211999774423],[-81.42561200026351,28.620211999774423]]]},"properties":{"block_id":"120950151041010","school_id":"sch_lockhart_middle","kids_est":0,"class":"green","shortest":{"len_m":1215.5,"mean_c":37.62,"peak_c":37.7,"dose":77.9},"coolest":{"len_m":1215.5,"mean_c":37.62,"peak_c":37.7,"dose":77.9},"delta_mean_c":0.0,"delta_dose_pct":0,"distance_mi":0.22,"status_now":"walk","status_rec":"walk","reason":"Shortest route already under threshold (dose 78).","safe_until_hour":null}},{"type":"Feature","geometry":{"type":"Polygon","coordinates":[[[-81.4274280003059,28.620204999782267],[-81.42742699958269,28.61985399968993],[-81.42742599975777,28.618802000158198],[-81.42742599975777,28.61845200001028],[-81.42721900006855,28.61845200001028],[-81.4265970002776,28.61845200001028],[-81.42639100041329,28.618452999913238],[-81.42639100041329,28.618476000044136],[-81.42639100041329,28.618548000112895],[-81.42639100041329,28.618572000124832],[-81.4263920002382,28.61889999973818],[-81.426393999888,28.619449000248448],[-81.42641900000237,28.6196149997801],[-81.42641099960646,28.619881999749325],[-81.4264080001317,28.61998699990569],[-81.42640899995662,28.62021099988822],[-81.42661200034622,28.620209000115835],[-81.42722400009141,28.620204999782267],[-81.4274280003059,28.620204999782267]]]},"properties":{"block_id":"120950151041006","school_id":"sch_lockhart_middle","kids_est":7,"class":"green","shortest":{"len_m":1215.5,"mean_c":37.62,"peak_c":37.7,"dose":77.9},"coolest":{"len_m":1215.5,"mean_c":37.62,"peak_c":37.7,"dose":77.9},"delta_mean_c":0.0,"delta_dose_pct":0,"distance_mi":0.311,"status_now":"walk","status_rec":"walk","reason":"Shortest route already under threshold (dose 78).","safe_until_hour":null}},{"type":"Feature","geometry":{"type":"Polygon","coordinates":[[[-81.42037099982556,28.613736000081783],[-81.4204009999628,28.613692000001024],[-81.41988399975385,28.613517000232054],[-81.41925000026734,28.613223000342327],[-81.4191189998478,28.613426000016208],[-81.41907500036517,28.613534000168322],[-81.41906100012146,28.613619999757326],[-81.41907899966482,28.615374999619384],[-81.42000299957952,28.61536999995803],[-81.42004699996045,28.61517199976972],[-81.42016599978615,28.614566999992054],[-81.42025299982478,28.614055000313442],[-81.42031499974905,28.613845999808852],[-81.42037099982556,28.613736000081783]]]},"properties":{"block_id":"120950151041019","school_id":"sch_lockhart_middle","kids_est":0,"class":"red","shortest":{"len_m":1954.0,"mean_c":37.59,"peak_c":37.7,"dose":124.8},"coolest":{"len_m":1954.0,"mean_c":37.59,"peak_c":37.7,"dose":124.8},"delta_mean_c":0.0,"delta_dose_pct":0,"distance_mi":0.505,"status_now":"walk","status_rec":"bus_eligible","reason":"Coolest route mean 37.6C exceeds threshold (110 C-min dose, actual 125).","safe_until_hour":"14:00"}},{"type":"Feature","geometry":{"type":"Polygon","coordinates":[[[-81.42686099986825,28.609397000274683],[-81.42690299970103,28.609337000118952],[-81.42682400005833,28.60928699983159],[-81.42578100031791,28.608584999624444],[-81.42573699993697,28.608644000213335],[-81.42567099981474,28.60872999986291],[-81.42676700015691,28.609460000361874],[-81.42680200031702,28.609481000119725],[-81.42684499997472,28.609421000011935],[-81.42686099986825,28.609397000274683]]]},"properties":{"block_id":"120950152022027","school_id":"sch_lockhart_middle","kids_est":0,"class":"red","shortest":{"len_m":2991.2,"mean_c":37.63,"peak_c":37.7,"dose":192.2},"coolest":{"len_m":2991.2,"mean_c":37.63,"peak_c":37.7,"dose":192.2},"delta_mean_c":0.0,"delta_dose_pct":0,"distance_mi":0.877,"status_now":"walk","status_rec":"bus_eligible","reason":"Coolest route mean 37.6C exceeds threshold (110 C-min dose, actual 192).","safe_until_hour":"12:00"}},{"type":"Feature","geometry":{"type":"Polygon","coordinates":[[[-81.41839999997246,28.61903500016857],[-81.41842699973664,28.61892000007578],[-81.41833200020041,28.61891900017726],[-81.418163000146,28.61892099997427],[-81.41764799958688,28.618917000380222],[-81.41738099962319,28.618918000278754],[-81.41723099983535,28.61892000007578],[-81.41719400002545,28.61893300033255],[-81.41716300006331,28.61895399977348],[-81.41714100032199,28.618980000277066],[-81.41712600025338,28.619015999750534],[-81.41712200005541,28.619135000112607],[-81.41711899968237,28.61926400008116],[-81.41712299988033,28.619611000212476],[-81.41712500042846,28.619770000255432],[-81.4173739999505,28.619769000365014],[-81.41811999958999,28.619767999686015],[-81.41836999983525,28.619767999686015],[-81.4183749998581,28.61959700014759],[-81.41838800027689,28.61917800038259],[-81.41839499994961,28.619087000340627],[-81.41839999997246,28.61903500016857]]]},"properties":{"block_id":"120950151041018","school_id":"sch_lockhart_middle","kids_est":14,"class":"green","shortest":{"len_m":539.7,"mean_c":37.66,"peak_c":37.7,"dose":34.9},"coolest":{"len_m":539.7,"mean_c":37.66,"peak_c":37.7,"dose":34.9},"delta_mean_c":0.0,"delta_dose_pct":0,"distance_mi":0.308,"status_now":"walk","status_rec":"walk","reason":"Shortest route already under threshold (dose 35).","safe_until_hour":null}},{"type":"Feature","geometry":{"type":"Polygon","coordinates":[[[-81.42332099984496,28.61335600028176],[-81.42327200033948,28.61327999999905],[-81.42321399971485,28.6131960000376],[-81.42292500000984,28.612787000326506],[-81.4226759995895,28.612434999926617],[-81.42262999955875,28.61236800020305],[-81.42259899959662,28.61232199962655],[-81.42268099961237,28.61227799974198],[-81.42272699964312,28.61225299990689],[-81.4226549996731,28.612151999755593],[-81.42262000041133,28.612102000019533],[-81.42255400028907,28.61200800026199],[-81.42236299959504,28.611734000220324],[-81.4222539998151,28.611578999713327],[-81.422154000256,28.611436000192555],[-81.42211099969997,28.611459000282988],[-81.42206999969208,28.611480999610475],[-81.42168700027577,28.611678999659578],[-81.42145999959672,28.611797999660837],[-81.42056199962128,28.612283000339158],[-81.42029100035793,28.612421999654003],[-81.41996400011979,28.612590999917806],[-81.41982900040057,28.612672999658546],[-81.41970600037693,28.612758999952554],[-81.41956900010958,28.612868999914223],[-81.41945299975862,28.61297999971575],[-81.41934599962849,28.613097999866277],[-81.41933800013089,28.613108000193748],[-81.41925000026734,28.613223000342327],[-81.41988399975385,28.613517000232054],[-81.4204009999628,28.613692000001024],[-81.42058599991071,28.613753999930292],[-81.42082799976005,28.61383600034027],[-81.42100000018749,28.613885000093056],[-81.42199699989716,28.61416900026999],[-81.42259500029697,28.61432400010922],[-81.42265700022124,28.61434099991484],[-81.42293500005559,28.614420000042514],[-81.42297299969043,28.61432699993598],[-81.42299199995699,28.614283000102798],[-81.42332099984496,28.61335600028176]]]},"properties":{"block_id":"120950152022020","school_id":"sch_lockhart_middle","kids_est":0,"class":"red","shortest":{"len_m":2073.6,"mean_c":37.59,"peak_c":37.7,"dose":132.3},"coolest":{"len_m":2073.6,"mean_c":37.59,"peak_c":37.7,"dose":132.3},"delta_mean_c":0.0,"delta_dose_pct":0,"distance_mi":0.57,"status_now":"walk","status_rec":"bus_eligible","reason":"Coolest route mean 37.6C exceeds threshold (110 C-min dose, actual 132).","safe_until_hour":"14:00"}},{"type":"Feature","geometry":{"type":"Polygon","coordinates":[[[-81.42743800035166,28.622348999780733],[-81.42743199960555,28.622215000324207],[-81.42743499997862,28.621120999634662],[-81.4274149998871,28.621016999702327],[-81.42740599966629,28.620890000069892],[-81.42741800026016,28.620673999801948],[-81.4274280003059,28.620204999782267],[-81.42722400009141,28.620204999782267],[-81.42661200034622,28.620209000115835],[-81.42640899995662,28.62021099988822],[-81.42638899986514,28.62021099988822],[-81.42633199996374,28.62021099988822],[-81.42631299969716,28.62021099988822],[-81.42617200013017,28.62021099988822],[-81.42575200000559,28.62021099988822],[-81.42561200026351,28.620211999774423],[-81.42550799960812,28.620211999774423],[-81.42519600033691,28.620211999774423],[-81.42509199968151,28.620211999774423],[-81.4249069997336,28.620211999774423],[-81.42435199988981,28.620211999774423],[-81.42416699994189,28.620211999774423],[-81.4235209998615,28.620211999774423],[-81.4215840003436,28.620215000221556],[-81.42144200005337,28.62021600010772],[-81.42139299964957,28.620225999757366],[-81.42136500006048,28.620240999624336],[-81.42133999994613,28.620265000037865],[-81.42131599965667,28.62030299962999],[-81.42130300013622,28.620360000175236],[-81.42129999976316,28.62057100009822],[-81.42128300004471,28.620607999697224],[-81.42125899975528,28.620629000380223],[-81.42120699987673,28.620649000388433],[-81.42115099980025,28.62065800011489],[-81.42097300042332,28.62066799972246],[-81.42081799971432,28.620666999840594],[-81.4196279996608,28.62066500007685],[-81.41948299989585,28.62066500007685],[-81.41903900038015,28.620669000392887],[-81.41884299966326,28.62066799972246],[-81.41825500020751,28.62066799972246],[-81.41806000021383,28.62066799972246],[-81.41803099990153,28.620806999767588],[-81.41801900020596,28.620866999679176],[-81.41809000035107,28.621227000005614],[-81.41809399965072,28.62124699989991],[-81.41809200000088,28.621370000388485],[-81.41809100017599,28.6214090002441],[-81.41808799980294,28.621525999723882],[-81.41808799980294,28.621566000183375],[-81.41808799980294,28.621587999759317],[-81.41809399965072,28.62178599967818],[-81.41811200009239,28.621952000246374],[-81.41794800006085,28.623102000148407],[-81.41789299980927,28.623486000373987],[-81.41784699977852,28.623799000262164],[-81.4177120000593,28.624740000322067],[-81.41767500024939,28.62500100004279],[-81.41764400028724,28.625045000116078],[-81.41747500023283,28.62500100004279],[-81.41713999959876,28.624916999995],[-81.41712799990319,28.624916999995],[-81.41553500034189,28.624926000144157],[-81.41547400024251,28.624926999985462],[-81.41523700041604,28.62493899965729],[-81.41514600017945,28.62493000029779],[-81.41511900041527,28.624926999985462],[-81.41511299966918,28.625599999833423],[-81.41515000037741,28.625599999833423],[-81.4154380002575,28.625600999668304],[-81.41581400000115,28.62560200029171],[-81.41671100015168,28.6256070002544],[-81.41713600029912,28.625608999924026],[-81.41723099983535,28.62560800008921],[-81.4175150004158,28.6256070002544],[-81.41761099977695,28.6256070002544],[-81.41773399980062,28.625605999631034],[-81.41810200004663,28.62560399996136],[-81.41822599989518,28.62560399996136],[-81.41830799991095,28.62560399996136],[-81.41855399995826,28.62560399996136],[-81.41863599997401,28.62560399996136],[-81.41920000003863,28.625604999796217],[-81.42228599960215,28.62562499964509],[-81.42314199974483,28.62562999960669],[-81.42370300033471,28.6256199996832],[-81.42370599980943,28.62517399991998],[-81.42370499998452,28.624706000132395],[-81.42370499998452,28.623768000113383],[-81.42372000005314,28.623705999788235],[-81.42374699981731,28.62364699977551],[-81.42378500035048,28.623593999642264],[-81.42383300003104,28.62354700018608],[-81.42400200008544,28.623434999870433],[-81.42407800025342,28.62338499998668],[-81.42412299956095,28.623347999789264],[-81.4242179999955,28.623256000350064],[-81.42425399998052,28.623201000303972],[-81.42429199961535,28.62311300017032],[-81.42429699963823,28.62308899961925],[-81.42430599985906,28.623051000246917],[-81.4243090002321,28.622957000038816],[-81.42430800040718,28.622598999851377],[-81.42430800040718,28.62246099967782],[-81.42432400030073,28.62242200021303],[-81.42435199988981,28.622388999926677],[-81.42439100024788,28.622364999998652],[-81.4244349997305,28.62235300003261],[-81.42558999962388,28.622351000300966],[-81.42608099989356,28.622351000300966],[-81.42675600028628,28.62234999964658],[-81.42685199964743,28.622359000015802],[-81.4269139995717,28.62237299971242],[-81.42698999973967,28.622381000214116],[-81.42743800035166,28.622348999780733]],[[-81.42291599978901,28.62427899989779],[-81.42291599978901,28.62443299994996],[-81.42291499996409,28.62474100016514],[-81.42291599978901,28.62504900026516],[-81.42287800015417,28.62512400007592],[-81.42282299990259,28.625162000274994],[-81.42275500013054,28.6251770002253],[-81.42227200025677,28.62517899990304],[-81.42197699980566,28.62517800006419],[-81.42184499956119,28.62517899990304],[-81.42173800032938,28.62516300011405],[-81.42167200020715,28.62511599978324],[-81.42164100024502,28.62503799965763],[-81.42163500039722,28.6247770000289],[-81.42163899969685,28.624610000140503],[-81.42166700018429,28.62452999994879],[-81.4217039999942,28.6244899998301],[-81.42188300009434,28.62437400034581],[-81.4219719997828,28.624315999767088],[-81.42214900023312,28.62419900024232],[-81.42226100038611,28.624158000148906],[-81.42242799989238,28.624148000085192],[-81.42273300038921,28.62415200026851],[-81.42279699996334,28.62415700030027],[-81.42283600032138,28.624172000394157],[-81.42288300017705,28.6242100001493],[-81.42291599978901,28.62427899989779]]]},"properties":{"block_id":"120950151041001","school_id":"sch_lockhart_middle","kids_est":140,"class":"red","shortest":{"len_m":2372.1,"mean_c":37.59,"peak_c":37.7,"dose":151.2},"coolest":{"len_m":2372.1,"mean_c":37.59,"peak_c":37.7,"dose":151.2},"delta_mean_c":0.0,"delta_dose_pct":0,"distance_mi":0.107,"status_now":"walk","status_rec":"bus_eligible","reason":"Coolest route mean 37.6C exceeds threshold (110 C-min dose, actual 151).","safe_until_hour":"13:00"}},{"type":"Feature","geometry":{"type":"Polygon","coordinates":[[[-81.41510699982139,28.627362999869717],[-81.41511299966918,28.625599999833423],[-81.41501399993497,28.625598999998527],[-81.41491400037587,28.625598999998527],[-81.41491699985059,28.62611100016253],[-81.41492500024653,28.627346999625033],[-81.41510699982139,28.627362999869717]]]},"properties":{"block_id":"120950151042028","school_id":"sch_lockhart_middle","kids_est":0,"class":"green","shortest":{"len_m":1625.5,"mean_c":37.57,"peak_c":37.7,"dose":103.1},"coolest":{"len_m":1625.5,"mean_c":37.57,"peak_c":37.7,"dose":103.1},"delta_mean_c":0.0,"delta_dose_pct":0,"distance_mi":0.567,"status_now":"walk","status_rec":"walk","reason":"Shortest route already under threshold (dose 103).","safe_until_hour":null}},{"type":"Feature","geometry":{"type":"Polygon","coordinates":[[[-81.41509000010296,28.62351199975527],[-81.41508000005722,28.622753999864305],[-81.41507599985925,28.622157000129835],[-81.41506099979064,28.62162100029743],[-81.41486599979697,28.62163300034713],[-81.41487300036798,28.622157000129835],[-81.41489199973623,28.62296299998748],[-81.41489500010928,28.623509000190957],[-81.41509000010296,28.62351199975527]]]},"properties":{"block_id":"120950151041014","school_id":"sch_lockhart_middle","kids_est":0,"class":"green","shortest":{"len_m":1150.8,"mean_c":37.63,"peak_c":37.7,"dose":74.0},"coolest":{"len_m":1150.8,"mean_c":37.63,"peak_c":37.7,"dose":74.0},"delta_mean_c":0.0,"delta_dose_pct":0,"distance_mi":0.453,"status_now":"walk","status_rec":"walk","reason":"Shortest route already under threshold (dose 74).","safe_until_hour":null}},{"type":"Feature","geometry":{"type":"Polygon","coordinates":[[[-81.41504499989712,28.619772999926624],[-81.41503200037664,28.618401000215783],[-81.4148530002765,28.618403000022653],[-81.4148530002765,28.619771000145832],[-81.41504499989712,28.619772999926624]]]},"properties":{"block_id":"120950151041016","school_id":"sch_lockhart_middle","kids_est":0,"class":"green","shortest":{"len_m":921.0,"mean_c":37.64,"peak_c":37.7,"dose":59.4},"coolest":{"len_m":921.0,"mean_c":37.64,"peak_c":37.7,"dose":59.4},"delta_mean_c":0.0,"delta_dose_pct":0,"distance_mi":0.472,"status_now":"walk","status_rec":"walk","reason":"Shortest route already under threshold (dose 59).","safe_until_hour":null}},{"type":"Feature","geometry":{"type":"Polygon","coordinates":[[[-81.41506099979064,28.62162100029743],[-81.41504499989712,28.619772999926624],[-81.4148530002765,28.619771000145832],[-81.41486599979697,28.62163300034713],[-81.41506099979064,28.62162100029743]]]},"properties":{"block_id":"120950151041015","school_id":"sch_lockhart_middle","kids_est":0,"class":"green","shortest":{"len_m":927.6,"mean_c":37.64,"peak_c":37.7,"dose":59.8},"coolest":{"len_m":927.6,"mean_c":37.64,"peak_c":37.7,"dose":59.8},"delta_mean_c":0.0,"delta_dose_pct":0,"distance_mi":0.448,"status_now":"walk","status_rec":"walk","reason":"Shortest route already under threshold (dose 60).","safe_until_hour":null}},{"type":"Feature","geometry":{"type":"Polygon","coordinates":[[[-81.42744500002435,28.622859000302693],[-81.42744500002435,28.622524999678035],[-81.42743900017656,28.622377999828952],[-81.42743800035166,28.622348999780733],[-81.42698999973967,28.622381000214116],[-81.4269139995717,28.62237299971242],[-81.42691299974679,28.623853999994974],[-81.42691500029493,28.624412000027828],[-81.42691199992187,28.624422000066403],[-81.42690500024919,28.6244520001763],[-81.42688199978464,28.624488000139156],[-81.42684900017267,28.624517000384998],[-81.42682800025628,28.624526999625026],[-81.42678399987535,28.624539999976108],[-81.42540999969883,28.624544999989386],[-81.42536600021621,28.624553000325577],[-81.42532600003324,28.624571999741676],[-81.42529400024618,28.6246000001199],[-81.4252869996752,28.62461099998481],[-81.4252730003298,28.62463600003201],[-81.42526499993387,28.624675000251443],[-81.42526099973591,28.62517600038637],[-81.4251040002754,28.625174999758908],[-81.42463599957195,28.625174999758908],[-81.42447999993632,28.625174999758908],[-81.42432500012562,28.62517399991998],[-81.42385999979521,28.62517399991998],[-81.42370599980943,28.62517399991998],[-81.42370300033471,28.6256199996832],[-81.42491299958137,28.625618999848495],[-81.42551099998119,28.62561800001379],[-81.42582700034866,28.625612000216854],[-81.4262800000852,28.62560999975882],[-81.42646800040617,28.625613000051622],[-81.42659599955438,28.62560800008921],[-81.42742300028304,28.625599999833423],[-81.4274149998871,28.625461999662054],[-81.42741700043527,28.62536700019862],[-81.42740400001647,28.62485399971798],[-81.42742199955981,28.62469699996444],[-81.4274280003059,28.624494999845755],[-81.42742400010795,28.623552000246658],[-81.42744500002435,28.622859000302693]]]},"properties":{"block_id":"120950151041004","school_id":"sch_lockhart_middle","kids_est":52,"class":"red","shortest":{"len_m":2014.0,"mean_c":37.55,"peak_c":37.7,"dose":127.3},"coolest":{"len_m":2014.0,"mean_c":37.55,"peak_c":37.7,"dose":127.3},"delta_mean_c":0.0,"delta_dose_pct":0,"distance_mi":0.334,"status_now":"walk","status_rec":"bus_eligible","reason":"Coolest route mean 37.5C exceeds threshold (110 C-min dose, actual 127).","safe_until_hour":"14:00"}},{"type":"Feature","geometry":{"type":"Polygon","coordinates":[[[-81.43126399970689,28.62496799977856],[-81.4312570000342,28.624902000007577],[-81.43123299974475,28.624845000351183],[-81.43119299956177,28.62479299987678],[-81.43108899980469,28.624713999667787],[-81.43067600025114,28.624379000366996],[-81.43058400018963,28.624293999974245],[-81.43049499960286,28.62418599984901],[-81.43035400003588,28.62398299968534],[-81.43030399980715,28.62392100027571],[-81.43025799977639,28.623881999776234],[-81.4302019996999,28.62385300014345],[-81.43014700034662,28.623838999855657],[-81.430060000308,28.62384200019913],[-81.42978300029856,28.623896000058306],[-81.42950799993895,28.623968000352995],[-81.42957900008406,28.624190000030907],[-81.42960000000045,28.624305999718437],[-81.42960199965027,28.624388999620166],[-81.42958999995471,28.624488000139156],[-81.42955899999258,28.624592999631787],[-81.42951399978674,28.624691000114804],[-81.42945799971024,28.624775000343426],[-81.42933399986168,28.62493100013905],[-81.42920300034041,28.62507199973971],[-81.42918599972366,28.625090000010672],[-81.42940599983169,28.625233999701408],[-81.42952999968026,28.625314999982773],[-81.42962199974177,28.625366000361513],[-81.42972399984902,28.625407999819863],[-81.42984000019997,28.625439000272948],[-81.42995400000278,28.62545500001994],[-81.43088100029055,28.62545400018366],[-81.43095400008549,28.62544000010937],[-81.43102400040569,28.625408999656564],[-81.43108299995691,28.625364999735854],[-81.43112999981258,28.625306999704645],[-81.4312510001864,28.625031999827485],[-81.43126399970689,28.62496799977856]]]},"properties":{"block_id":"120950151032010","school_id":"sch_lockhart_middle","kids_est":31,"class":"red","shortest":{"len_m":1986.4,"mean_c":37.53,"peak_c":37.7,"dose":124.4},"coolest":{"len_m":1986.4,"mean_c":37.53,"peak_c":37.7,"dose":124.4},"delta_mean_c":0.0,"delta_dose_pct":0,"distance_mi":0.537,"status_now":"walk","status_rec":"bus_eligible","reason":"Coolest route mean 37.5C exceeds threshold (110 C-min dose, actual 124).","safe_until_hour":"14:00"}},{"type":"Feature","geometry":{"type":"Polygon","coordinates":[[[-81.4293070000975,28.61545399975786],[-81.42930600027258,28.61487899971826],[-81.42929799987667,28.614846000215657],[-81.42927799978517,28.614818000390617],[-81.42925299967081,28.614798999998126],[-81.4292319997544,28.614788999831728],[-81.4291949999445,28.614782000266622],[-81.42835399987045,28.61478300020453],[-81.42835800006841,28.614914999808995],[-81.42835399987045,28.615187000358617],[-81.42835800006841,28.6156129997864],[-81.42837300013703,28.61566400014631],[-81.42840300027426,28.615710000047653],[-81.42844599993195,28.615746999782264],[-81.42899800030101,28.61603500014812],[-81.42915800013458,28.615813999716103],[-81.42919900014246,28.615753000143],[-81.42927600013535,28.615640000258363],[-81.42929899970156,28.61557200028313],[-81.4293070000975,28.61545399975786]]]},"properties":{"block_id":"120950151032018","school_id":"sch_lockhart_middle","kids_est":0,"class":"red","shortest":{"len_m":2048.1,"mean_c":37.61,"peak_c":37.7,"dose":131.2},"coolest":{"len_m":2048.1,"mean_c":37.61,"peak_c":37.7,"dose":131.2},"delta_mean_c":0.0,"delta_dose_pct":0,"distance_mi":0.571,"status_now":"walk","status_rec":"bus_eligible","reason":"Coolest route mean 37.6C exceeds threshold (110 C-min dose, actual 131).","safe_until_hour":"14:00"}},{"type":"Feature","geometry":{"type":"Polygon","coordinates":[[[-81.42742599975777,28.61845200001028],[-81.42742499993285,28.618128000198915],[-81.42729799971124,28.618039999756277],[-81.42706699973257,28.61785199974631],[-81.42693200001337,28.61772799995827],[-81.42680399996684,28.61759899967993],[-81.42665699965374,28.617436999766095],[-81.42652299975946,28.617267000288816],[-81.42640099956071,28.617088999631925],[-81.42604499990854,28.616484999779328],[-81.42554699996619,28.615621000014592],[-81.42524400001747,28.615087999744325],[-81.42404300009333,28.614746000130303],[-81.42339299981498,28.614551000163132],[-81.42293500005559,28.614420000042514],[-81.42265700022124,28.61434099991484],[-81.42259500029697,28.61432400010922],[-81.42199699989716,28.61416900026999],[-81.42100000018749,28.613885000093056],[-81.42082799976005,28.61383600034027],[-81.42058599991071,28.613753999930292],[-81.4204009999628,28.613692000001024],[-81.42037099982556,28.613736000081783],[-81.42031499974905,28.613845999808852],[-81.42025299982478,28.614055000313442],[-81.42016599978615,28.614566999992054],[-81.42004699996045,28.61517199976972],[-81.42000299957952,28.61536999995803],[-81.41991600043922,28.61575599992887],[-81.41972899994315,28.616669000191198],[-81.4197039998288,28.61699900006215],[-81.41962299963794,28.61730199964704],[-81.41950399981224,28.617658999847443],[-81.41947899969789,28.617719999890607],[-81.41927299983357,28.618071999925764],[-81.41912999971842,28.618254000112966],[-81.41884900040935,28.618544999618127],[-81.41850600027769,28.618803999957436],[-81.41845600004896,28.618858999941114],[-81.41842699973664,28.61892000007578],[-81.41848500036129,28.61892000007578],[-81.41891700018142,28.618918000278754],[-81.42038800044232,28.618912000098927],[-81.42055300029875,28.618912000098927],[-81.4206279997435,28.618917000380222],[-81.42066000042888,28.618925000356693],[-81.42071899998011,28.61895399977348],[-81.42076400018597,28.61899700011757],[-81.42079199977503,28.619050000205664],[-81.42079900034605,28.619079000376498],[-81.42080199982078,28.61955100037175],[-81.42080299964569,28.619584999865133],[-81.42079199977503,28.619625000275494],[-81.42075499996513,28.619685000073943],[-81.42072700037603,28.619713000178464],[-81.42067399977427,28.619743999947463],[-81.42061299967489,28.619758999883274],[-81.42033099964259,28.61976500001476],[-81.41950499963716,28.619765999905212],[-81.41903299963406,28.6197669997956],[-81.41903400035727,28.619946999633225],[-81.41904000020506,28.620425999647345],[-81.41903900038015,28.620488000332326],[-81.41903900038015,28.620669000392887],[-81.41948299989585,28.62066500007685],[-81.4196279996608,28.62066500007685],[-81.42081799971432,28.620666999840594],[-81.42097300042332,28.62066799972246],[-81.42115099980025,28.62065800011489],[-81.42120699987673,28.620649000388433],[-81.42125899975528,28.620629000380223],[-81.42128300004471,28.620607999697224],[-81.42129999976316,28.62057100009822],[-81.42130300013622,28.620360000175236],[-81.42131599965667,28.62030299962999],[-81.42133999994613,28.620265000037865],[-81.42136500006048,28.620240999624336],[-81.42139299964957,28.620225999757366],[-81.42144200005337,28.62021600010772],[-81.4215840003436,28.620215000221556],[-81.4235209998615,28.620211999774423],[-81.42416699994189,28.620211999774423],[-81.42416399956883,28.619327999664364],[-81.4236460004333,28.619329000347566],[-81.42360299987726,28.619318999823918],[-81.42356500024243,28.619297999667463],[-81.42353599993011,28.61926799966199],[-81.42351900021168,28.619231000379376],[-81.42351500001372,28.61919199971483],[-81.42351500001372,28.618459000119284],[-81.42350800034103,28.616810999765743],[-81.42351300036388,28.616772999698473],[-81.42353000008234,28.616737000244648],[-81.42355900039465,28.616707000296042],[-81.42359600020458,28.616687000325552],[-81.42363899986228,28.616677000338935],[-81.4240270001998,28.616681000018236],[-81.42406400000974,28.61669199992425],[-81.42409699962168,28.616716000360373],[-81.42411699971316,28.616740000002466],[-81.42412900030705,28.616772999698473],[-81.42416399956883,28.618454999719116],[-81.42451500009643,28.618449000301414],[-81.4245900004395,28.618452999913238],[-81.42466200040953,28.618468999936265],[-81.42473000018158,28.61849700036504],[-81.42479200010587,28.61853499980845],[-81.4248439999844,28.61858199993104],[-81.42502399990946,28.618773999810756],[-81.42505700041973,28.61882400031324],[-81.4250840001839,28.618904000121464],[-81.42560899989046,28.61890500002011],[-81.42560899989046,28.61916600005231],[-81.4256110004386,28.619950000087865],[-81.42561200026351,28.620211999774423],[-81.42575200000559,28.62021099988822],[-81.42617200013017,28.62021099988822],[-81.42631299969716,28.62021099988822],[-81.42633199996374,28.62021099988822],[-81.42638899986514,28.62021099988822],[-81.42640899995662,28.62021099988822],[-81.4264080001317,28.61998699990569],[-81.42641099960646,28.619881999749325],[-81.42641900000237,28.6196149997801],[-81.426393999888,28.619449000248448],[-81.4263920002382,28.61889999973818],[-81.42639100041329,28.618572000124832],[-81.42639100041329,28.618548000112895],[-81.42639100041329,28.618476000044136],[-81.42639100041329,28.618452999913238],[-81.4265970002776,28.61845200001028],[-81.42721900006855,28.61845200001028],[-81.42742599975777,28.61845200001028]]]},"properties":{"block_id":"120950151041007","school_id":"sch_lockhart_middle","kids_est":3,"class":"red","shortest":{"len_m":2338.3,"mean_c":37.58,"peak_c":37.7,"dose":149.0},"coolest":{"len_m":2338.3,"mean_c":37.58,"peak_c":37.7,"dose":149.0},"delta_mean_c":0.0,"delta_dose_pct":0,"distance_mi":0.271,"status_now":"walk","status_rec":"bus_eligible","reason":"Coolest route mean 37.6C exceeds threshold (110 C-min dose, actual 149).","safe_until_hour":"13:00"}},{"type":"Feature","geometry":{"type":"Polygon","coordinates":[[[-81.43443899985718,28.614381999898693],[-81.43452699972073,28.614282000160134],[-81.43383100030995,28.613798999932417],[-81.43267600041656,28.61306599975839],[-81.4323409997825,28.61284800004514],[-81.42999400018574,28.613514000382178],[-81.42740999986425,28.614143000152396],[-81.42741800026016,28.614220999697135],[-81.42742599975777,28.614366000041564],[-81.42742300028304,28.614794000309352],[-81.42792200005033,28.61478400014241],[-81.42835399987045,28.61478300020453],[-81.4291949999445,28.614782000266622],[-81.4292319997544,28.614788999831728],[-81.42925299967081,28.614798999998126],[-81.42927799978517,28.614818000390617],[-81.42929799987667,28.614846000215657],[-81.42930600027258,28.61487899971826],[-81.4293070000975,28.61545399975786],[-81.43086100019907,28.615443999653777],[-81.43093800019196,28.6154509999633],[-81.43097800037494,28.61546499979233],[-81.4310119998118,28.61548999965149],[-81.43103399955312,28.615522999740282],[-81.43104399959886,28.61556100025987],[-81.431046000147,28.61606299964868],[-81.43103600010126,28.616103999748866],[-81.43101299963672,28.616141000133247],[-81.43097800037494,28.616170000318803],[-81.43093599964382,28.616188999674662],[-81.43088799996325,28.616195000010133],[-81.43034300016521,28.616194000085674],[-81.42957099968814,28.616199999632215],[-81.42948399964949,28.616213000225795],[-81.42945000021264,28.616227999877392],[-81.42941800042558,28.61625999981046],[-81.42991899984268,28.616521000108136],[-81.43057999999168,28.616876999891332],[-81.43128499962329,28.617243999893024],[-81.4313929995783,28.617310999660383],[-81.4315049997313,28.617140000063614],[-81.43175699962639,28.61678400038339],[-81.43182899959642,28.616671000030998],[-81.43188999969578,28.616564999792278],[-81.43192499985588,28.616489000254607],[-81.43194199957432,28.61642000011827],[-81.43195699964294,28.616225000104944],[-81.43196500003884,28.615886999960214],[-81.43196300038903,28.61584299999201],[-81.4319530003433,28.615571000352805],[-81.43196000001596,28.615311999925588],[-81.43197599990951,28.615275999970926],[-81.43200500022182,28.61524800026054],[-81.43204100020684,28.615230999813107],[-81.43210099958297,28.615216000019046],[-81.43253599977616,28.615195999764666],[-81.4328139996105,28.615170999835517],[-81.43331099972796,28.615095000077588],[-81.43332400014675,28.615092000272824],[-81.4337209998068,28.615018000329055],[-81.43389499988406,28.614975999868843],[-81.43395400033361,28.614948000078456],[-81.43407300015929,28.614804999624408],[-81.43411099979413,28.614760999991486],[-81.43443899985718,28.614381999898693]]]},"properties":{"block_id":"120950151032017","school_id":"sch_lockhart_middle","kids_est":7,"class":"red","shortest":{"len_m":2311.8,"mean_c":37.62,"peak_c":37.7,"dose":148.4},"coolest":{"len_m":2311.8,"mean_c":37.62,"peak_c":37.7,"dose":148.4},"delta_mean_c":0.0,"delta_dose_pct":0,"distance_mi":0.706,"status_now":"walk","status_rec":"bus_eligible","reason":"Coolest route mean 37.6C exceeds threshold (110 C-min dose, actual 148).","safe_until_hour":"13:00"}},{"type":"Feature","geometry":{"type":"Polygon","coordinates":[[[-81.4323409997825,28.61284800004514],[-81.43228700025412,28.612812999991174],[-81.43204500040478,28.61285199987034],[-81.4317859999387,28.61288599995536],[-81.42972800004698,28.613394999959304],[-81.42739999981852,28.614054000368615],[-81.42740999986425,28.614143000152396],[-81.42999400018574,28.613514000382178],[-81.4323409997825,28.61284800004514]]]},"properties":{"block_id":"120950151032022","school_id":"sch_lockhart_middle","kids_est":0,"class":"red","shortest":{"len_m":2112.7,"mean_c":37.61,"peak_c":37.7,"dose":135.3},"coolest":{"len_m":2112.7,"mean_c":37.61,"peak_c":37.7,"dose":135.3},"delta_mean_c":0.0,"delta_dose_pct":0,"distance_mi":0.707,"status_now":"walk","status_rec":"bus_eligible","reason":"Coolest route mean 37.6C exceeds threshold (110 C-min dose, actual 135).","safe_until_hour":"14:00"}},{"type":"Feature","geometry":{"type":"Polygon","coordinates":[[[-81.4262109995899,28.625929000190144],[-81.4262109995899,28.625881000370086],[-81.42620399991722,28.62579800007099],[-81.4261600004346,28.625736999989797],[-81.42607900024375,28.62571600032852],[-81.42598700018225,28.62571399987242],[-81.42589299957258,28.62571600032852],[-81.42581499975478,28.625743999613107],[-81.42577399974691,28.625806000311638],[-81.42576399970116,28.625887000151646],[-81.42576899972404,28.62596899976053],[-81.42577100027218,28.62605400037408],[-81.42577100027218,28.626148000174673],[-81.42577100027218,28.626238999616263],[-81.42577100027218,28.626319000082656],[-81.42578299996772,28.62636800031848],[-81.42620599956705,28.626366999702388],[-81.42620800011518,28.626328000111556],[-81.42620700029026,28.626273000097893],[-81.42620800011518,28.6261919997672],[-81.426209999765,28.626140999789772],[-81.4262109995899,28.626087000296923],[-81.4262109995899,28.626032999987697],[-81.4262109995899,28.625978999650766],[-81.4262109995899,28.625929000190144]]]},"properties":{"block_id":"120950151042014","school_id":"sch_lockhart_middle","kids_est":3,"class":"red","shortest":{"len_m":2121.9,"mean_c":37.53,"peak_c":37.7,"dose":133.0},"coolest":{"len_m":2121.9,"mean_c":37.53,"peak_c":37.7,"dose":133.0},"delta_mean_c":0.0,"delta_dose_pct":0,"distance_mi":0.395,"status_now":"walk","status_rec":"bus_eligible","reason":"Coolest route mean 37.5C exceeds threshold (110 C-min dose, actual 133).","safe_until_hour":"14:00"}},{"type":"Feature","geometry":{"type":"Polygon","coordinates":[[[-81.42404300009333,28.614746000130303],[-81.42524400001747,28.615087999744325],[-81.42380600026686,28.61348199961242],[-81.42377500030472,28.613446999769657],[-81.42303999963758,28.612624000128935],[-81.42280799983396,28.61236600028124],[-81.42272699964312,28.61225299990689],[-81.42268099961237,28.61227799974198],[-81.42259899959662,28.61232199962655],[-81.42262999955875,28.61236800020305],[-81.4226759995895,28.612434999926617],[-81.42292500000984,28.612787000326506],[-81.42321399971485,28.6131960000376],[-81.42327200033948,28.61327999999905],[-81.42332099984496,28.61335600028176],[-81.42299199995699,28.614283000102798],[-81.42297299969043,28.61432699993598],[-81.42293500005559,28.614420000042514],[-81.42339299981498,28.614551000163132],[-81.42404300009333,28.614746000130303]]]},"properties":{"block_id":"120950152022021","school_id":"sch_lockhart_middle","kids_est":0,"class":"red","shortest":{"len_m":2166.4,"mean_c":37.59,"peak_c":37.7,"dose":138.2},"coolest":{"len_m":2166.4,"mean_c":37.59,"peak_c":37.7,"dose":138.2},"delta_mean_c":0.0,"delta_dose_pct":0,"distance_mi":0.508,"status_now":"walk","status_rec":"bus_eligible","reason":"Coolest route mean 37.6C exceeds threshold (110 C-min dose, actual 138).","safe_until_hour":"13:00"}},{"type":"Feature","geometry":{"type":"Polygon","coordinates":[[[-81.42836899993907,28.610337000080477],[-81.42839300022851,28.61030699988104],[-81.42788900043837,28.609953999861197],[-81.42702400007487,28.60941500007817],[-81.42699999978542,28.609399000253],[-81.42690299970103,28.609337000118952],[-81.42686099986825,28.609397000274683],[-81.42684499997472,28.609421000011935],[-81.42680200031702,28.609481000119725],[-81.42692500034066,28.60955600000907],[-81.42814999965594,28.61036500031146],[-81.42826900037994,28.610462999878234],[-81.42829600014414,28.610429999776798],[-81.42834999967249,28.610362000371612],[-81.42836899993907,28.610337000080477]]]},"properties":{"block_id":"120950152022026","school_id":"sch_lockhart_middle","kids_est":0,"class":"red","shortest":{"len_m":2832.9,"mean_c":37.63,"peak_c":37.7,"dose":182.0},"coolest":{"len_m":2832.9,"mean_c":37.63,"peak_c":37.7,"dose":182.0},"delta_mean_c":0.0,"delta_dose_pct":0,"distance_mi":0.847,"status_now":"walk","status_rec":"bus_eligible","reason":"Coolest route mean 37.6C exceeds threshold (110 C-min dose, actual 182).","safe_until_hour":"13:00"}},{"type":"Feature","geometry":{"type":"Polygon","coordinates":[[[-81.41511299966918,28.625599999833423],[-81.41511900041527,28.624926999985462],[-81.41509000010296,28.62351199975527],[-81.41489500010928,28.623509000190957],[-81.41489500010928,28.623763999915408],[-81.41492299969836,28.62490899968656],[-81.41491400037587,28.625598999998527],[-81.41501399993497,28.625598999998527],[-81.41511299966918,28.625599999833423]]]},"properties":{"block_id":"120950151041000","school_id":"sch_lockhart_middle","kids_est":0,"class":"green","shortest":{"len_m":1428.9,"mean_c":37.59,"peak_c":37.7,"dose":91.3},"coolest":{"len_m":1428.9,"mean_c":37.59,"peak_c":37.7,"dose":91.3},"delta_mean_c":0.0,"delta_dose_pct":0,"distance_mi":0.496,"status_now":"walk","status_rec":"walk","reason":"Shortest route already under threshold (dose 91).","safe_until_hour":null}},{"type":"Feature","geometry":{"type":"Polygon","coordinates":[[[-81.4083559996628,28.62558999990707],[-81.40835400001296,28.625392999902576],[-81.40835099963992,28.624802999878984],[-81.408349999815,28.62460199980865],[-81.40826000030164,28.62460199980865],[-81.40826000030164,28.62465699990932],[-81.40790100027644,28.62465699990932],[-81.40790100027644,28.62462900033482],[-81.40754300007616,28.62462900033482],[-81.40754300007616,28.624560000027838],[-81.40744400034195,28.624560000027838],[-81.40744400034195,28.624795000350375],[-81.40744699981668,28.62539200006572],[-81.4074479996416,28.62559099974205],[-81.40762900028989,28.625589000072086],[-81.40765500022916,28.625589000072086],[-81.4080240003001,28.625594000035452],[-81.40817400008791,28.625592000365547],[-81.4083559996628,28.62558999990707]]]},"properties":{"block_id":"120950152041019","school_id":"sch_lockhart_middle","kids_est":0,"class":"red","shortest":{"len_m":3052.9,"mean_c":37.27,"peak_c":37.7,"dose":180.6},"coolest":{"len_m":3052.9,"mean_c":37.27,"peak_c":37.7,"dose":180.6},"delta_mean_c":0.0,"delta_dose_pct":0,"distance_mi":0.913,"status_now":"walk","status_rec":"bus_eligible","reason":"Coolest route mean 37.3C exceeds threshold (110 C-min dose, actual 181).","safe_until_hour":"12:00"}},{"type":"Feature","geometry":{"type":"Polygon","coordinates":[[[-81.43228700025412,28.612812999991174],[-81.43217799957586,28.612741999890858],[-81.43212099967445,28.6127059998439],[-81.42917300020319,28.613167999772674],[-81.42739999981852,28.614054000368615],[-81.42972800004698,28.613394999959304],[-81.4317859999387,28.61288599995536],[-81.43204500040478,28.61285199987034],[-81.43228700025412,28.612812999991174]]]},"properties":{"block_id":"120950152022023","school_id":"sch_lockhart_middle","kids_est":0,"class":"red","shortest":{"len_m":2113.0,"mean_c":37.61,"peak_c":37.7,"dose":135.3},"coolest":{"len_m":2113.0,"mean_c":37.61,"peak_c":37.7,"dose":135.3},"delta_mean_c":0.0,"delta_dose_pct":0,"distance_mi":0.716,"status_now":"walk","status_rec":"bus_eligible","reason":"Coolest route mean 37.6C exceeds threshold (110 C-min dose, actual 135).","safe_until_hour":"14:00"}},{"type":"Feature","geometry":{"type":"Polygon","coordinates":[[[-81.43069899981737,28.62688200031967],[-81.43069799999245,28.626741999820137],[-81.43069700016753,28.626325999667163],[-81.43069700016753,28.626186999832385],[-81.4306870001218,28.626144999897164],[-81.43066500038047,28.62611100016253],[-81.43063400041834,28.626084000017606],[-81.4305959998852,28.62606500008669],[-81.43055300022749,28.62605600003519],[-81.43022199979139,28.62605400037408],[-81.4300679998056,28.626055000204648],[-81.42984400039794,28.62605799969627],[-81.42820499990754,28.62606199980675],[-81.42815999970169,28.626070000027333],[-81.42811799986889,28.626088000127172],[-81.42808400043204,28.62611600010104],[-81.42806000014258,28.6261520002818],[-81.42804900027191,28.6261919997672],[-81.42804800044702,28.62688999968924],[-81.42857800017644,28.626887000221398],[-81.43016800026302,28.62688099970848],[-81.4302519999286,28.62688099970848],[-81.43069899981737,28.62688200031967]]]},"properties":{"block_id":"120950151032004","school_id":"sch_lockhart_middle","kids_est":24,"class":"red","shortest":{"len_m":2259.6,"mean_c":37.5,"peak_c":37.7,"dose":140.5},"coolest":{"len_m":2259.6,"mean_c":37.5,"peak_c":37.7,"dose":140.5},"delta_mean_c":0.0,"delta_dose_pct":0,"distance_mi":0.557,"status_now":"walk","status_rec":"bus_eligible","reason":"Coolest route mean 37.5C exceeds threshold (110 C-min dose, actual 140).","safe_until_hour":"13:00"}},{"type":"Feature","geometry":{"type":"Polygon","coordinates":[[[-81.42844900030501,28.610238999607525],[-81.42853999964328,28.610125000117247],[-81.42843099986334,28.61003300013402],[-81.42838700038072,28.610004999814542],[-81.42831600023563,28.609960999748047],[-81.42824199971746,28.609913999710407],[-81.42815899987679,28.609860999743454],[-81.4280750002112,28.609807999749748],[-81.42801499993674,28.60976900031765],[-81.4279420001418,28.60972200019411],[-81.42785699975299,28.60966700015709],[-81.42777899993519,28.609616000039704],[-81.42727400032012,28.609284999851123],[-81.42716700019,28.609214999722887],[-81.42704400016635,28.609134999631923],[-81.42693100018845,28.609296999733235],[-81.42690299970103,28.609337000118952],[-81.42699999978542,28.609399000253],[-81.42702400007487,28.60941500007817],[-81.42788900043837,28.609953999861197],[-81.42839300022851,28.61030699988104],[-81.42842900021353,28.610262999941042],[-81.42844900030501,28.610238999607525]]]},"properties":{"block_id":"120950124023000","school_id":"sch_lockhart_middle","kids_est":0,"class":"red","shortest":{"len_m":2832.9,"mean_c":37.63,"peak_c":37.7,"dose":182.0},"coolest":{"len_m":2832.9,"mean_c":37.63,"peak_c":37.7,"dose":182.0},"delta_mean_c":0.0,"delta_dose_pct":0,"distance_mi":0.861,"status_now":"walk","status_rec":"bus_eligible","reason":"Coolest route mean 37.6C exceeds threshold (110 C-min dose, actual 182).","safe_until_hour":"13:00"}},{"type":"Feature","geometry":{"type":"Polygon","coordinates":[[[-81.431046000147,28.61606299964868],[-81.43104399959886,28.61556100025987],[-81.43103399955312,28.615522999740282],[-81.4310119998118,28.61548999965149],[-81.43097800037494,28.61546499979233],[-81.43093800019196,28.6154509999633],[-81.43086100019907,28.615443999653777],[-81.4293070000975,28.61545399975786],[-81.42929899970156,28.61557200028313],[-81.42927600013535,28.615640000258363],[-81.42919900014246,28.615753000143],[-81.42915800013458,28.615813999716103],[-81.42899800030101,28.61603500014812],[-81.42941800042558,28.61625999981046],[-81.42945000021264,28.616227999877392],[-81.42948399964949,28.616213000225795],[-81.42957099968814,28.616199999632215],[-81.43034300016521,28.616194000085674],[-81.43088799996325,28.616195000010133],[-81.43093599964382,28.616188999674662],[-81.43097800037494,28.616170000318803],[-81.43101299963672,28.616141000133247],[-81.43103600010126,28.616103999748866],[-81.431046000147,28.61606299964868]]]},"properties":{"block_id":"120950151032021","school_id":"sch_lockhart_middle","kids_est":28,"class":"red","shortest":{"len_m":2109.9,"mean_c":37.62,"peak_c":37.7,"dose":135.1},"coolest":{"len_m":2109.9,"mean_c":37.62,"peak_c":37.7,"dose":135.1},"delta_mean_c":0.0,"delta_dose_pct":0,"distance_mi":0.604,"status_now":"walk","status_rec":"bus_eligible","reason":"Coolest route mean 37.6C exceeds threshold (110 C-min dose, actual 135).","safe_until_hour":"14:00"}},{"type":"Feature","geometry":{"type":"Polygon","coordinates":[[[-81.42509199968151,28.620211999774423],[-81.42508699965865,28.618936999926003],[-81.4250840001839,28.618904000121464],[-81.42505700041973,28.61882400031324],[-81.42502399990946,28.618773999810756],[-81.4248439999844,28.61858199993104],[-81.42479200010587,28.61853499980845],[-81.42473000018158,28.61849700036504],[-81.42466200040953,28.618468999936265],[-81.4245900004395,28.618452999913238],[-81.42451500009643,28.618449000301414],[-81.42416399956883,28.618454999719116],[-81.42416600011697,28.618945999799212],[-81.42416199991901,28.619123999673977],[-81.42416399956883,28.619327999664364],[-81.42416699994189,28.620211999774423],[-81.42435199988981,28.620211999774423],[-81.4249069997336,28.620211999774423],[-81.42509199968151,28.620211999774423]]]},"properties":{"block_id":"120950151041011","school_id":"sch_lockhart_middle","kids_est":0,"class":"green","shortest":{"len_m":865.6,"mean_c":37.67,"peak_c":37.7,"dose":55.8},"coolest":{"len_m":865.6,"mean_c":37.67,"peak_c":37.7,"dose":55.8},"delta_mean_c":0.0,"delta_dose_pct":0,"distance_mi":0.193,"status_now":"walk","status_rec":"walk","reason":"Shortest route already under threshold (dose 56).","safe_until_hour":null}},{"type":"Feature","geometry":{"type":"Polygon","coordinates":[[[-81.42416600011697,28.618945999799212],[-81.42416399956883,28.618454999719116],[-81.4241390003528,28.61845599962204],[-81.42409999999472,28.61845599962204],[-81.42351500001372,28.618459000119284],[-81.42351500001372,28.61919199971483],[-81.42351900021168,28.619231000379376],[-81.42353599993011,28.61926799966199],[-81.42356500024243,28.619297999667463],[-81.42360299987726,28.619318999823918],[-81.4236460004333,28.619329000347566],[-81.42416399956883,28.619327999664364],[-81.42416199991901,28.619123999673977],[-81.42416600011697,28.618945999799212]]]},"properties":{"block_id":"120950151041008","school_id":"sch_lockhart_middle","kids_est":10,"class":"green","shortest":{"len_m":865.6,"mean_c":37.67,"peak_c":37.7,"dose":55.8},"coolest":{"len_m":865.6,"mean_c":37.67,"peak_c":37.7,"dose":55.8},"delta_mean_c":0.0,"delta_dose_pct":0,"distance_mi":0.19,"status_now":"walk","status_rec":"walk","reason":"Shortest route already under threshold (dose 56).","safe_until_hour":null}},{"type":"Feature","geometry":{"type":"Polygon","coordinates":[[[-81.41991600043922,28.61575599992887],[-81.42000299957952,28.61536999995803],[-81.41907899966482,28.615374999619384],[-81.41908000038802,28.615418999783664],[-81.41909299990851,28.61645700039127],[-81.41908700006074,28.61658599970674],[-81.41906600014433,28.616756000286514],[-81.4190219997634,28.61694900026785],[-81.4189790001057,28.61708000038815],[-81.41892499967902,28.61720699989732],[-81.41886100010493,28.61733100030057],[-81.41878699958677,28.617451000119026],[-81.41866100008838,28.617619000265258],[-81.41856700037705,28.61772500022867],[-81.41846500026979,28.617823999934185],[-81.41829899969012,28.617960999986046],[-81.41818099968935,28.618042000358543],[-81.41799900011448,28.61814799989496],[-81.41780599977062,28.618238999962095],[-81.41767199987632,28.618289999835266],[-81.41747900043079,28.618349999607943],[-81.41728799973676,28.61839200029586],[-81.41709299974309,28.618417000246748],[-81.41696200022186,28.618424000358146],[-81.41665800044824,28.618421999763093],[-81.41553500034189,28.618401000215783],[-81.41503200037664,28.618401000215783],[-81.41504499989712,28.619772999926624],[-81.41538499965573,28.619772999926624],[-81.41669000023528,28.619772999926624],[-81.41693999958223,28.619772999926624],[-81.41712500042846,28.619770000255432],[-81.41712299988033,28.619611000212476],[-81.41711899968237,28.61926400008116],[-81.41712200005541,28.619135000112607],[-81.41712600025338,28.619015999750534],[-81.41714100032199,28.618980000277066],[-81.41716300006331,28.61895399977348],[-81.41719400002545,28.61893300033255],[-81.41723099983535,28.61892000007578],[-81.41738099962319,28.618918000278754],[-81.41764799958688,28.618917000380222],[-81.418163000146,28.61892099997427],[-81.41833200020041,28.61891900017726],[-81.41842699973664,28.61892000007578],[-81.41845600004896,28.618858999941114],[-81.41850600027769,28.618803999957436],[-81.41884900040935,28.618544999618127],[-81.41912999971842,28.618254000112966],[-81.41927299983357,28.618071999925764],[-81.41947899969789,28.617719999890607],[-81.41950399981224,28.617658999847443],[-81.41962299963794,28.61730199964704],[-81.4197039998288,28.61699900006215],[-81.41972899994315,28.616669000191198],[-81.41991600043922,28.61575599992887]]]},"properties":{"block_id":"120950151041017","school_id":"sch_lockhart_middle","kids_est":7,"class":"green","shortest":{"len_m":1072.1,"mean_c":37.63,"peak_c":37.7,"dose":69.1},"coolest":{"len_m":1072.1,"mean_c":37.63,"peak_c":37.7,"dose":69.1},"delta_mean_c":0.0,"delta_dose_pct":0,"distance_mi":0.409,"status_now":"walk","status_rec":"walk","reason":"Shortest route already under threshold (dose 69).","safe_until_hour":null}},{"type":"Feature","geometry":{"type":"Polygon","coordinates":[[[-81.42742499993285,28.618128000198915],[-81.42742699958269,28.616227999877392],[-81.4265129997137,28.61575799978611],[-81.42599300003002,28.615474999894428],[-81.42556799988257,28.615235000336096],[-81.42524400001747,28.615087999744325],[-81.42554699996619,28.615621000014592],[-81.42604499990854,28.616484999779328],[-81.42640099956071,28.617088999631925],[-81.42652299975946,28.617267000288816],[-81.42665699965374,28.617436999766095],[-81.42680399996684,28.61759899967993],[-81.42693200001337,28.61772799995827],[-81.42706699973257,28.61785199974631],[-81.42729799971124,28.618039999756277],[-81.42742499993285,28.618128000198915]]]},"properties":{"block_id":"120950151041025","school_id":"sch_lockhart_middle","kids_est":0,"class":"red","shortest":{"len_m":1766.0,"mean_c":37.6,"peak_c":37.7,"dose":112.9},"coolest":{"len_m":1766.0,"mean_c":37.6,"peak_c":37.7,"dose":112.9},"delta_mean_c":0.0,"delta_dose_pct":0,"distance_mi":0.419,"status_now":"walk","status_rec":"bus_eligible","reason":"Coolest route mean 37.6C exceeds threshold (110 C-min dose, actual 113).","safe_until_hour":"14:00"}},{"type":"Feature","geometry":{"type":"Polygon","coordinates":[[[-81.43212099967445,28.6127059998439],[-81.43197400025969,28.612609999921137],[-81.43002199977485,28.611490000122657],[-81.42826900037994,28.610462999878234],[-81.42814999965594,28.61036500031146],[-81.42692500034066,28.60955600000907],[-81.42680200031702,28.609481000119725],[-81.42626300036677,28.61025000018825],[-81.42613500032024,28.610433999694095],[-81.42575799985337,28.61063700002641],[-81.42499399977223,28.611050000117036],[-81.42406099963667,28.6115459999625],[-81.4232599997456,28.611970999998785],[-81.42272699964312,28.61225299990689],[-81.42280799983396,28.61236600028124],[-81.42303999963758,28.612624000128935],[-81.42377500030472,28.613446999769657],[-81.42380600026686,28.61348199961242],[-81.42524400001747,28.615087999744325],[-81.42538600030771,28.614871000222156],[-81.4254919997146,28.614757000238992],[-81.42561200026351,28.614656000129795],[-81.42574600015782,28.614567999931996],[-81.42584200041728,28.61451899970932],[-81.42604400008365,28.614434000009048],[-81.42619999971927,28.614380999956968],[-81.42739999981852,28.614054000368615],[-81.42917300020319,28.613167999772674],[-81.43212099967445,28.6127059998439]]]},"properties":{"block_id":"120950152022022","school_id":"sch_lockhart_middle","kids_est":0,"class":"red","shortest":{"len_m":3005.5,"mean_c":37.63,"peak_c":37.7,"dose":193.1},"coolest":{"len_m":3005.5,"mean_c":37.63,"peak_c":37.7,"dose":193.1},"delta_mean_c":0.0,"delta_dose_pct":0,"distance_mi":0.677,"status_now":"walk","status_rec":"bus_eligible","reason":"Coolest route mean 37.6C exceeds threshold (110 C-min dose, actual 193).","safe_until_hour":"12:00"}},{"type":"Feature","geometry":{"type":"Polygon","coordinates":[[[-81.4241390003528,28.61845599962204],[-81.42416399956883,28.618454999719116],[-81.42412900030705,28.616772999698473],[-81.42411699971316,28.616740000002466],[-81.42409699962168,28.616716000360373],[-81.42406400000974,28.61669199992425],[-81.4240270001998,28.616681000018236],[-81.42363899986228,28.616677000338935],[-81.42359600020458,28.616687000325552],[-81.42355900039465,28.616707000296042],[-81.42353000008234,28.616737000244648],[-81.42351300036388,28.616772999698473],[-81.42350800034103,28.616810999765743],[-81.42351500001372,28.618459000119284],[-81.42409999999472,28.61845599962204],[-81.4241390003528,28.61845599962204]]]},"properties":{"block_id":"120950151041009","school_id":"sch_lockhart_middle","kids_est":0,"class":"red","shortest":{"len_m":2280.9,"mean_c":37.59,"peak_c":37.7,"dose":145.6},"coolest":{"len_m":2280.9,"mean_c":37.59,"peak_c":37.7,"dose":145.6},"delta_mean_c":0.0,"delta_dose_pct":0,"distance_mi":0.272,"status_now":"walk","status_rec":"bus_eligible","reason":"Coolest route mean 37.6C exceeds threshold (110 C-min dose, actual 146).","safe_until_hour":"13:00"}},{"type":"Feature","geometry":{"type":"Polygon","coordinates":[[[-81.41836900001033,28.619810999696796],[-81.41836999983525,28.619767999686015],[-81.41811999958999,28.619767999686015],[-81.4173739999505,28.619769000365014],[-81.41712500042846,28.619770000255432],[-81.41693999958223,28.619772999926624],[-81.41669000023528,28.619772999926624],[-81.41538499965573,28.619772999926624],[-81.41504499989712,28.619772999926624],[-81.41506099979064,28.62162100029743],[-81.41507599985925,28.622157000129835],[-81.41508000005722,28.622753999864305],[-81.41509000010296,28.62351199975527],[-81.41511900041527,28.624926999985462],[-81.41514600017945,28.62493000029779],[-81.41523700041604,28.62493899965729],[-81.41547400024251,28.624926999985462],[-81.41553500034189,28.624926000144157],[-81.41712799990319,28.624916999995],[-81.41713999959876,28.624916999995],[-81.41747500023283,28.62500100004279],[-81.41764400028724,28.625045000116078],[-81.41767500024939,28.62500100004279],[-81.4177120000593,28.624740000322067],[-81.41784699977852,28.623799000262164],[-81.41789299980927,28.623486000373987],[-81.41794800006085,28.623102000148407],[-81.41811200009239,28.621952000246374],[-81.41809399965072,28.62178599967818],[-81.41808799980294,28.621587999759317],[-81.41808799980294,28.621566000183375],[-81.41808799980294,28.621525999723882],[-81.41809100017599,28.6214090002441],[-81.41809200000088,28.621370000388485],[-81.41809399965072,28.62124699989991],[-81.41809000035107,28.621227000005614],[-81.41801900020596,28.620866999679176],[-81.41803099990153,28.620806999767588],[-81.41806000021383,28.62066799972246],[-81.4181000003968,28.62047500026805],[-81.41813200018386,28.6203219998152],[-81.41813800003165,28.620174000149387],[-81.41815700029822,28.62009100006967],[-81.41823199974297,28.619964999994252],[-81.41826600007816,28.619922999935525],[-81.41828799981948,28.61989900023238],[-81.41835599959154,28.619837999877937],[-81.41836900001033,28.619810999696796]]]},"properties":{"block_id":"120950151041013","school_id":"sch_lockhart_middle","kids_est":245,"class":"green","shortest":{"len_m":1235.9,"mean_c":37.63,"peak_c":37.7,"dose":79.6},"coolest":{"len_m":1235.9,"mean_c":37.63,"peak_c":37.7,"dose":79.6},"delta_mean_c":0.0,"delta_dose_pct":0,"distance_mi":0.357,"status_now":"walk","status_rec":"walk","reason":"Shortest route already under threshold (dose 80).","safe_until_hour":null}},{"type":"Feature","geometry":{"type":"Polygon","coordinates":[[[-81.42742699958269,28.616227999877392],[-81.42742300028304,28.614794000309352],[-81.42742599975777,28.614366000041564],[-81.42741800026016,28.614220999697135],[-81.42740999986425,28.614143000152396],[-81.42739999981852,28.614054000368615],[-81.42619999971927,28.614380999956968],[-81.42604400008365,28.614434000009048],[-81.42584200041728,28.61451899970932],[-81.42574600015782,28.614567999931996],[-81.42561200026351,28.614656000129795],[-81.4254919997146,28.614757000238992],[-81.42538600030771,28.614871000222156],[-81.42524400001747,28.615087999744325],[-81.42556799988257,28.615235000336096],[-81.42599300003002,28.615474999894428],[-81.4265129997137,28.61575799978611],[-81.42742699958269,28.616227999877392]]]},"properties":{"block_id":"120950151041026","school_id":"sch_lockhart_middle","kids_est":3,"class":"red","shortest":{"len_m":1770.8,"mean_c":37.6,"peak_c":37.7,"dose":113.2},"coolest":{"len_m":1770.8,"mean_c":37.6,"peak_c":37.7,"dose":113.2},"delta_mean_c":0.0,"delta_dose_pct":0,"distance_mi":0.504,"status_now":"walk","status_rec":"bus_eligible","reason":"Coolest route mean 37.6C exceeds threshold (110 C-min dose, actual 113).","safe_until_hour":"14:00"}},{"type":"Feature","geometry":{"type":"Polygon","coordinates":[[[-81.4313929995783,28.617310999660383],[-81.43128499962329,28.617243999893024],[-81.43057999999168,28.616876999891332],[-81.42991899984268,28.616521000108136],[-81.42941800042558,28.61625999981046],[-81.42899800030101,28.61603500014812],[-81.42844599993195,28.615746999782264],[-81.42840300027426,28.615710000047653],[-81.42837300013703,28.61566400014631],[-81.42835800006841,28.6156129997864],[-81.42835399987045,28.615187000358617],[-81.42835800006841,28.614914999808995],[-81.42835399987045,28.61478300020453],[-81.42792200005033,28.61478400014241],[-81.42742300028304,28.614794000309352],[-81.42742699958269,28.616227999877392],[-81.42807199983814,28.616554999793994],[-81.42838800020566,28.616730999940195],[-81.4285129998791,28.616805000254065],[-81.43090300003186,28.618069000205985],[-81.43112800016276,28.617707000272183],[-81.4313929995783,28.617310999660383]]]},"properties":{"block_id":"120950151032020","school_id":"sch_lockhart_middle","kids_est":7,"class":"red","shortest":{"len_m":2109.9,"mean_c":37.62,"peak_c":37.7,"dose":135.1},"coolest":{"len_m":2109.9,"mean_c":37.62,"peak_c":37.7,"dose":135.1},"delta_mean_c":0.0,"delta_dose_pct":0,"distance_mi":0.53,"status_now":"walk","status_rec":"bus_eligible","reason":"Coolest route mean 37.6C exceeds threshold (110 C-min dose, actual 135).","safe_until_hour":"14:00"}},{"type":"Feature","geometry":{"type":"Polygon","coordinates":[[[-81.43399899964113,28.616363999722832],[-81.43400100018926,28.616329000051973],[-81.4339839995725,28.61628400034536],[-81.43390199955677,28.616167999680865],[-81.43388200036358,28.616129000244456],[-81.43386100044718,28.616088000154093],[-81.43383100030995,28.61600400007276],[-81.43380899967033,28.615887999887587],[-81.43380399964745,28.615710000047653],[-81.43381899971608,28.6153979996359],[-81.43384100035571,28.6152539998611],[-81.43384700020349,28.615230999813107],[-81.43389300023424,28.61507100005962],[-81.43392900021925,28.614987999889397],[-81.43395400033361,28.614948000078456],[-81.43389499988406,28.614975999868843],[-81.4337209998068,28.615018000329055],[-81.43332400014675,28.615092000272824],[-81.43331099972796,28.615095000077588],[-81.4328139996105,28.615170999835517],[-81.43253599977616,28.615195999764666],[-81.43210099958297,28.615216000019046],[-81.43204100020684,28.615230999813107],[-81.43200500022182,28.61524800026054],[-81.43197599990951,28.615275999970926],[-81.43196000001596,28.615311999925588],[-81.4319530003433,28.615571000352805],[-81.43196300038903,28.61584299999201],[-81.43196500003884,28.615886999960214],[-81.43195699964294,28.616225000104944],[-81.43194199957432,28.61642000011827],[-81.43192499985588,28.616489000254607],[-81.4323409997825,28.616482999935993],[-81.43359100011045,28.616468000320744],[-81.43386999976971,28.616464999766617],[-81.43391599980045,28.616453999836825],[-81.43395599998343,28.616431000051573],[-81.43398600012067,28.61639800024809],[-81.43399899964113,28.616363999722832]]]},"properties":{"block_id":"120950151032019","school_id":"sch_lockhart_middle","kids_est":10,"class":"red","shortest":{"len_m":2588.4,"mean_c":37.63,"peak_c":37.8,"dose":166.5},"coolest":{"len_m":2588.4,"mean_c":37.63,"peak_c":37.8,"dose":166.5},"delta_mean_c":0.0,"delta_dose_pct":0,"distance_mi":0.748,"status_now":"walk","status_rec":"bus_eligible","reason":"Coolest route mean 37.6C exceeds threshold (110 C-min dose, actual 166).","safe_until_hour":"13:00"}},{"type":"Feature","geometry":{"type":"Polygon","coordinates":[[[-81.42680200031702,28.609481000119725],[-81.42676700015691,28.609460000361874],[-81.42567099981474,28.60872999986291],[-81.42524499984239,28.60922199965896],[-81.42514299973514,28.6093480000055],[-81.42500700019102,28.609517999682723],[-81.42479799995365,28.60974999980043],[-81.42461499965553,28.609937000134163],[-81.42441899983696,28.610115000294428],[-81.42424999978256,28.610252000150332],[-81.42407300023055,28.61038000000967],[-81.4238869995594,28.61049999988399],[-81.42353699975503,28.610700000158566],[-81.42296699984263,28.611002999778083],[-81.42224999961714,28.61138600011559],[-81.422154000256,28.611436000192555],[-81.4222539998151,28.611578999713327],[-81.42236299959504,28.611734000220324],[-81.42255400028907,28.61200800026199],[-81.42262000041133,28.612102000019533],[-81.4226549996731,28.612151999755593],[-81.42272699964312,28.61225299990689],[-81.4232599997456,28.611970999998785],[-81.42406099963667,28.6115459999625],[-81.42499399977223,28.611050000117036],[-81.42575799985337,28.61063700002641],[-81.42613500032024,28.610433999694095],[-81.42626300036677,28.61025000018825],[-81.42680200031702,28.609481000119725]]]},"properties":{"block_id":"120950152022028","school_id":"sch_lockhart_middle","kids_est":0,"class":"red","shortest":{"len_m":3205.2,"mean_c":37.63,"peak_c":37.7,"dose":205.7},"coolest":{"len_m":3205.2,"mean_c":37.63,"peak_c":37.7,"dose":205.7},"delta_mean_c":0.0,"delta_dose_pct":0,"distance_mi":0.753,"status_now":"walk","status_rec":"bus_eligible","reason":"Coolest route mean 37.6C exceeds threshold (110 C-min dose, actual 206).","safe_until_hour":"11:00"}}]}