{"type":"FeatureCollection","features":[{"type":"Feature","geometry":{"type":"Polygon","coordinates":[[[-81.454,28.5744],[-81.44,28.5744],[-81.44,28.594],[-81.454,28.594],[-81.454,28.5744]]]},"properties":{"block_id":"120951234001004","school_id":"sch_maynard_evans_high","kids_est":28,"class":"green","shortest":{"len_m":690.8,"mean_c":35.62,"peak_c":36.82,"dose":25.1},"coolest":{"len_m":862.7,"mean_c":33.71,"peak_c":34.71,"dose":8.5},"delta_mean_c":-1.91,"delta_dose_pct":-66,"distance_mi":0.343,"status_now":"walk","status_rec":"walk","reason":"Shortest route already under threshold (dose 25).","safe_until_hour":null}}]}