{"type":"FeatureCollection","features":[{"type":"Feature","geometry":{"type":"Polygon","coordinates":[[[-81.39357700015177,28.60459700019129],[-81.39358200017465,28.604425999612463],[-81.39357200012891,28.604255000332667],[-81.39353199994594,28.603996999647283],[-81.3935219999002,28.60386599977209],[-81.39302399995782,28.60388000035658],[-81.39249800042636,28.60388899994261],[-81.39214600007386,28.603886999859448],[-81.39144300009208,28.603897000275097],[-81.39154699984915,28.60296800018603],[-81.39112599989967,28.6029739996993],[-81.38986300005124,28.60299399991481],[-81.38979899957882,28.602994999964924],[-81.38950800022398,28.60299299986469],[-81.38947800008677,28.602986000302256],[-81.38944799994952,28.60296800018603],[-81.38942100018535,28.602927999741357],[-81.38941799981231,28.602877000295937],[-81.38942200001027,28.60279500000678],[-81.38945600034546,28.602253000391187],[-81.38946800004102,28.60207300020019],[-81.38947899991169,28.601889000247105],[-81.38951400007178,28.601339000163854],[-81.38952599976733,28.60115599978182],[-81.38953599981309,28.60098399984335],[-81.38955400025475,28.600701999656046],[-81.38817500005536,28.600701999656046],[-81.38809600041263,28.6007059999437],[-81.38789499967287,28.600715999873373],[-81.38783100009876,28.600534000057316],[-81.38770100040242,28.600461000185547],[-81.38748399976915,28.600337000373585],[-81.38746899970052,28.60022799998547],[-81.38739300043085,28.60002900036018],[-81.38682199979523,28.600007000211956],[-81.38637099970852,28.599989000374094],[-81.38636800023379,28.600182999690965],[-81.38641400026455,28.6006489997741],[-81.38642699978502,28.601001000230415],[-81.38647399964069,28.60364299967518],[-81.38689200011542,28.603906999901117],[-81.38799299958217,28.603885999817816],[-81.38859099998196,28.60417999981357],[-81.38796199962002,28.6052490003889],[-81.38904500044171,28.60603500025125],[-81.38932400010097,28.60635000013788],[-81.38983799993689,28.60635000013788],[-81.38989099964031,28.607262000132376],[-81.39181899983569,28.607188000192718],[-81.39172500012437,28.60687399967726],[-81.39269000004698,28.606810999616474],[-81.39267900017634,28.60661199983993],[-81.39335500039392,28.606707999723724],[-81.39339399985369,28.606392000104027],[-81.39346900019675,28.60566000031895],[-81.39353399959577,28.605015999764372],[-81.39357700015177,28.60459700019129]]]},"properties":{"block_id":"120950153001006","school_id":"sch_pace_center_for_girls","kids_est":0,"class":"red","shortest":{"len_m":2016.9,"mean_c":37.62,"peak_c":37.7,"dose":129.1},"coolest":{"len_m":2016.9,"mean_c":37.62,"peak_c":37.7,"dose":129.1},"delta_mean_c":0.0,"delta_dose_pct":0,"distance_mi":0.304,"status_now":"walk","status_rec":"bus_eligible","reason":"Coolest route mean 37.6C exceeds threshold (110 C-min dose, actual 129).","safe_until_hour":"14:00"}},{"type":"Feature","geometry":{"type":"Polygon","coordinates":[[[-81.38519599972363,28.604318000348744],[-81.3852290002339,28.60387700023147],[-81.38512200010379,28.60387700023147],[-81.38480999993425,28.603880999609558],[-81.38470199997923,28.60388199965123],[-81.38454600034362,28.603883999734553],[-81.38438999980968,28.603885999817816],[-81.3843770002892,28.604072000296995],[-81.38436600041857,28.604228000088852],[-81.38436700024347,28.604286999969958],[-81.38438800015986,28.6042920001589],[-81.384419000122,28.604299999671966],[-81.38457200028289,28.604336000233705],[-81.3850309998672,28.604447000376517],[-81.38518499985298,28.604485000171078],[-81.38519599972363,28.604318000348744]]]},"properties":{"block_id":"120950190003046","school_id":"sch_pace_center_for_girls","kids_est":0,"class":"green","shortest":{"len_m":377.2,"mean_c":37.7,"peak_c":37.7,"dose":24.5},"coolest":{"len_m":377.2,"mean_c":37.7,"peak_c":37.7,"dose":24.5},"delta_mean_c":0.0,"delta_dose_pct":0,"distance_mi":0.187,"status_now":"walk","status_rec":"walk","reason":"Shortest route already under threshold (dose 24).","safe_until_hour":null}},{"type":"Feature","geometry":{"type":"Polygon","coordinates":[[[-81.38555300009901,28.59933699987475],[-81.38556300014476,28.599174000103794],[-81.38502800039245,28.599179999833723],[-81.38342599971199,28.599201000068785],[-81.3828919997846,28.599208999969495],[-81.38229599993294,28.59921599978346],[-81.38050900020288,28.5992410003548],[-81.3799900003441,28.59924800016663],[-81.3799419997652,28.5992310002847],[-81.3799200000239,28.599221000213696],[-81.37985700027471,28.59919899989634],[-81.37976299966506,28.599018999995106],[-81.37973199970293,28.598960000310928],[-81.37969200041826,28.599077999646138],[-81.37968599967216,28.599137000052796],[-81.37967999982439,28.599214999697377],[-81.37967899999948,28.59938099965837],[-81.37971099978652,28.59951800010331],[-81.37974799959645,28.599606000289146],[-81.37978600012961,28.599666999774225],[-81.37984100038118,28.599754999835284],[-81.37990199958223,28.599809000248538],[-81.37992699969658,28.599830999649473],[-81.3799409999403,28.599842999822656],[-81.3799560000089,28.599925000049335],[-81.3799629996816,28.599959000374586],[-81.37997199990244,28.600008000290508],[-81.38029599976754,28.600123999871577],[-81.38052099989842,28.600134999934035],[-81.38080100028093,28.60012900025862],[-81.38106300022174,28.600151000381235],[-81.38117899967438,28.600175999941424],[-81.38174299973899,28.600299999943353],[-81.38188000000633,28.600299999943353],[-81.38215399964272,28.600520999889394],[-81.3822790002145,28.600531999910302],[-81.3823779999487,28.600690999653],[-81.38246599981225,28.600856000366733],[-81.3826089999274,28.60093899987264],[-81.38262800019396,28.60101599968815],[-81.38263400004175,28.6011480000294],[-81.38269599996603,28.601169999938676],[-81.38275799989032,28.60120900019681],[-81.3828149997917,28.601274999872565],[-81.38292000027202,28.601451000382674],[-81.38301399998335,28.601554999971977],[-81.38359999978927,28.602028999966386],[-81.38368099998011,28.602121999919017],[-81.3837989999809,28.602281999678908],[-81.38386099990517,28.6023979999045],[-81.38389900043832,28.602502000133885],[-81.38389900043832,28.60251500005679],[-81.38391100013389,28.602688999961373],[-81.38388000017174,28.60283799986824],[-81.38384300036182,28.60292000012378],[-81.38369900042179,28.603134999787965],[-81.38359300011658,28.60324999981296],[-81.38326000003063,28.603552999625794],[-81.38318499968759,28.60362000023946],[-81.38305199961817,28.603740999991793],[-81.38295999955668,28.603824000373557],[-81.38288599993682,28.60389200006736],[-81.38278300000465,28.60398599998916],[-81.38295700008193,28.603983999907793],[-81.38356399980425,28.604126000069165],[-81.38365900023881,28.604148000143624],[-81.38366199971354,28.604354000115638],[-81.383757999973,28.60432499982239],[-81.38387299960075,28.604269000076613],[-81.38391100013389,28.604278999667212],[-81.38401800026402,28.60430799997317],[-81.38406799959442,28.604216999666228],[-81.3840459998531,28.60421100022387],[-81.38397999973087,28.6041959996449],[-81.3839610003626,28.604186000046322],[-81.38394899976872,28.60417999981357],[-81.38392399965436,28.604155999667707],[-81.38391799980658,28.604143999987077],[-81.38391100013389,28.604131000265767],[-81.38390600011101,28.604109000187695],[-81.38390799976084,28.604075999667668],[-81.38395999963937,28.603977999663503],[-81.3839889999517,28.60392499985653],[-81.38419900001396,28.60353400035035],[-81.38421099970955,28.603507999966496],[-81.38431100016697,28.603301999913214],[-81.38435200017484,28.603195000331084],[-81.38437599956598,28.603084999703583],[-81.38439599965746,28.60291499986961],[-81.3843980002056,28.60277200038543],[-81.38438599961172,28.602629999971597],[-81.3843620002206,28.602494999750103],[-81.38431600018984,28.602321000312987],[-81.38424900024269,28.60214499968264],[-81.38424400021982,28.602130999655692],[-81.38418800014334,28.602025999788427],[-81.3839889999517,28.601752999800375],[-81.38384500001165,28.601571000203002],[-81.38341400001643,28.601026000377047],[-81.3832709999013,28.600845000379806],[-81.3833339996505,28.60081900011929],[-81.38340099959765,28.600807000057568],[-81.38370199989652,28.60080199970279],[-81.38472000042088,28.600787000214506],[-81.38501400014876,28.60079600006545],[-81.38503400024024,28.60079700013648],[-81.38545099999178,28.600818000048477],[-81.38545799966445,28.600730000088866],[-81.38546400041055,28.60065199999132],[-81.38550000039557,28.60021900008588],[-81.3855029998703,28.600155999978266],[-81.38551299991605,28.599990999742786],[-81.38552200013689,28.59982700011724],[-81.38555300009901,28.59933699987475]]]},"properties":{"block_id":"120950190003031","school_id":"sch_pace_center_for_girls","kids_est":1,"class":"green","shortest":{"len_m":269.1,"mean_c":37.7,"peak_c":37.7,"dose":17.5},"coolest":{"len_m":269.9,"mean_c":37.7,"peak_c":37.7,"dose":17.4},"delta_mean_c":0.0,"delta_dose_pct":-1,"distance_mi":0.166,"status_now":"walk","status_rec":"walk","reason":"Shortest route already under threshold (dose 18).","safe_until_hour":null}},{"type":"Feature","geometry":{"type":"Polygon","coordinates":[[[-81.38764600015084,28.60595800017032],[-81.38769700020445,28.605877999965077],[-81.38714700038355,28.605508000392085],[-81.3870949996067,28.60559999960619],[-81.38715200040643,28.605946999928836],[-81.38728200010277,28.60602199997524],[-81.38733900000419,28.60605599990502],[-81.38738000001206,28.60608099963761],[-81.38743299971551,28.60611500033697],[-81.38748399976915,28.606151000276807],[-81.38764600015084,28.60595800017032]]]},"properties":{"block_id":"120950153001005","school_id":"sch_pace_center_for_girls","kids_est":1,"class":"green","shortest":{"len_m":727.6,"mean_c":37.7,"peak_c":37.7,"dose":47.3},"coolest":{"len_m":727.6,"mean_c":37.7,"peak_c":37.7,"dose":47.3},"delta_mean_c":0.0,"delta_dose_pct":0,"distance_mi":0.315,"status_now":"walk","status_rec":"walk","reason":"Shortest route already under threshold (dose 47).","safe_until_hour":null}},{"type":"Feature","geometry":{"type":"Polygon","coordinates":[[[-81.39180299994219,28.598590000039017],[-81.39181399981284,28.598408999789683],[-81.39139000038863,28.59841300016456],[-81.39011900014427,28.598427999991685],[-81.38969599964665,28.59843299967069],[-81.3896909996238,28.5984960000225],[-81.3896780001033,28.598688000335923],[-81.38967499973025,28.598751999836626],[-81.38966800005757,28.598868000015422],[-81.38964700014117,28.59921599978346],[-81.3896410002934,28.599333000323778],[-81.38974099985249,28.599337999959676],[-81.39006399989269,28.599333999620015],[-81.39133500013705,28.599318999922183],[-81.39175899956126,28.59931500037046],[-81.391768999607,28.599132999705475],[-81.39180299994219,28.598590000039017]]]},"properties":{"block_id":"120950153001014","school_id":"sch_pace_center_for_girls","kids_est":1,"class":"green","shortest":{"len_m":1407.9,"mean_c":37.62,"peak_c":37.7,"dose":90.2},"coolest":{"len_m":1407.9,"mean_c":37.62,"peak_c":37.7,"dose":90.2},"delta_mean_c":0.0,"delta_dose_pct":0,"distance_mi":0.357,"status_now":"walk","status_rec":"walk","reason":"Shortest route already under threshold (dose 90).","safe_until_hour":null}},{"type":"Feature","geometry":{"type":"Polygon","coordinates":[[[-81.39158899968194,28.60222999986255],[-81.39160100027581,28.602046000184384],[-81.39117399958025,28.602051999750362],[-81.39061799991156,28.602061000281665],[-81.38989400001337,28.60206799990565],[-81.38946800004102,28.60207300020019],[-81.38945600034546,28.602253000391187],[-81.38942200001027,28.60279500000678],[-81.38941799981231,28.602877000295937],[-81.38942100018535,28.602927999741357],[-81.38944799994952,28.60296800018603],[-81.38947800008677,28.602986000302256],[-81.38950800022398,28.60299299986469],[-81.38979899957882,28.602994999964924],[-81.38986300005124,28.60299399991481],[-81.39112599989967,28.6029739996993],[-81.39154699984915,28.60296800018603],[-81.39155600006998,28.602783000170696],[-81.3915650002908,28.602600999991214],[-81.39158899968194,28.60222999986255]]]},"properties":{"block_id":"120950153001008","school_id":"sch_pace_center_for_girls","kids_est":2,"class":"red","shortest":{"len_m":2082.3,"mean_c":37.62,"peak_c":37.7,"dose":133.3},"coolest":{"len_m":2082.3,"mean_c":37.62,"peak_c":37.7,"dose":133.3},"delta_mean_c":0.0,"delta_dose_pct":0,"distance_mi":0.302,"status_now":"walk","status_rec":"bus_eligible","reason":"Coolest route mean 37.6C exceeds threshold (110 C-min dose, actual 133).","safe_until_hour":"14:00"}},{"type":"Feature","geometry":{"type":"Polygon","coordinates":[[[-81.38966800005757,28.598868000015422],[-81.38967499973025,28.598751999836626],[-81.38928499974291,28.59875600019851],[-81.38811899997886,28.598770999976683],[-81.38772999981643,28.598775999639372],[-81.38773200036455,28.598986000242665],[-81.38773300018947,28.599043999824534],[-81.38774300023522,28.599087999730806],[-81.38775900012874,28.599133999792336],[-81.38779000009089,28.599195000340114],[-81.38781500020525,28.599233999753725],[-81.38785000036535,28.599269000388166],[-81.38798699973438,28.59937800019354],[-81.38804799983374,28.59943500026379],[-81.3880870001918,28.599476999839148],[-81.38813200039765,28.599531999689663],[-81.38816800038266,28.599588999676403],[-81.3882000001697,28.599655000369605],[-81.38842799977535,28.599589999758923],[-81.38847800000406,28.599580999804623],[-81.3886210001192,28.599556000102936],[-81.38876400023432,28.59954399989698],[-81.3893399999945,28.599539000270827],[-81.3896289996995,28.599538000187838],[-81.38963100024763,28.599495999848127],[-81.38963799992032,28.59937399985533],[-81.3896410002934,28.599333000323778],[-81.38964700014117,28.59921599978346],[-81.38966800005757,28.598868000015422]]]},"properties":{"block_id":"120950153001012","school_id":"sch_pace_center_for_girls","kids_est":5,"class":"green","shortest":{"len_m":1636.0,"mean_c":37.62,"peak_c":37.7,"dose":104.8},"coolest":{"len_m":1636.0,"mean_c":37.62,"peak_c":37.7,"dose":104.8},"delta_mean_c":0.0,"delta_dose_pct":0,"distance_mi":0.247,"status_now":"walk","status_rec":"walk","reason":"Shortest route already under threshold (dose 105).","safe_until_hour":null}},{"type":"Feature","geometry":{"type":"Polygon","coordinates":[[[-81.3861370002551,28.60642699993151],[-81.38609799989705,28.606219000041843],[-81.38604699984342,28.605998000250146],[-81.38604600001851,28.60598800003447],[-81.38603699979768,28.605925000231068],[-81.38596599965257,28.60589700039393],[-81.38550600024334,28.605868999760673],[-81.38507799972285,28.605883000078236],[-81.38507100005016,28.605999000271666],[-81.38506500020239,28.606082999679064],[-81.38505500015664,28.606249999850586],[-81.38505000013377,28.60633799991915],[-81.38504599993581,28.606422999861664],[-81.3850390002631,28.60654700037813],[-81.38525599999808,28.60654200029657],[-81.38590399972828,28.606526000033835],[-81.38589399968254,28.606425999914066],[-81.3861370002551,28.60642699993151]]]},"properties":{"block_id":"120950180002049","school_id":"sch_pace_center_for_girls","kids_est":0,"class":"green","shortest":{"len_m":615.0,"mean_c":37.7,"peak_c":37.7,"dose":40.0},"coolest":{"len_m":615.0,"mean_c":37.7,"peak_c":37.7,"dose":40.0},"delta_mean_c":0.0,"delta_dose_pct":0,"distance_mi":0.322,"status_now":"walk","status_rec":"walk","reason":"Shortest route already under threshold (dose 40).","safe_until_hour":null}},{"type":"Feature","geometry":{"type":"Polygon","coordinates":[[[-81.3853630001282,28.602050999691265],[-81.38538200039478,28.601748000279322],[-81.3851029998372,28.601746000155348],[-81.38478300017007,28.6017440000314],[-81.38426699978604,28.601749000341297],[-81.3839889999517,28.601752999800375],[-81.38418800014334,28.602025999788427],[-81.38424400021982,28.602130999655692],[-81.38424900024269,28.60214499968264],[-81.38431600018984,28.602321000312987],[-81.3843620002206,28.602494999750103],[-81.38438599961172,28.602629999971597],[-81.3843980002056,28.60277200038543],[-81.38439599965746,28.60291499986961],[-81.38437599956598,28.603084999703583],[-81.38435200017484,28.603195000331084],[-81.38431100016697,28.603301999913214],[-81.38421099970955,28.603507999966496],[-81.38419900001396,28.60353400035035],[-81.3839889999517,28.60392499985653],[-81.38395999963937,28.603977999663503],[-81.38390799976084,28.604075999667668],[-81.38390600011101,28.604109000187695],[-81.38391100013389,28.604131000265767],[-81.38391799980658,28.604143999987077],[-81.38392399965436,28.604155999667707],[-81.38394899976872,28.60417999981357],[-81.3839610003626,28.604186000046322],[-81.38397999973087,28.6041959996449],[-81.3840459998531,28.60421100022387],[-81.38406799959442,28.604216999666228],[-81.38410799977738,28.60422600001208],[-81.38422800032629,28.604254000294535],[-81.38426799961094,28.604263999886573],[-81.38429799974817,28.604271000152558],[-81.38436700024347,28.604286999969958],[-81.38436600041857,28.604228000088852],[-81.3843770002892,28.604072000296995],[-81.38438999980968,28.603885999817816],[-81.38454600034362,28.603883999734553],[-81.38470199997923,28.60388199965123],[-81.38480999993425,28.603880999609558],[-81.38512200010379,28.60387700023147],[-81.3852290002339,28.60387700023147],[-81.38523300043187,28.603820000204667],[-81.38524599995235,28.603655000201723],[-81.38527299971652,28.603273000118307],[-81.38535700028042,28.60212900032772],[-81.3853630001282,28.602050999691265]]]},"properties":{"block_id":"120950190003032","school_id":"sch_pace_center_for_girls","kids_est":0,"class":"green","shortest":{"len_m":183.8,"mean_c":37.7,"peak_c":37.7,"dose":12.0},"coolest":{"len_m":183.8,"mean_c":37.7,"peak_c":37.7,"dose":12.0},"delta_mean_c":0.0,"delta_dose_pct":0,"distance_mi":0.109,"status_now":"walk","status_rec":"walk","reason":"Shortest route already under threshold (dose 12).","safe_until_hour":null}},{"type":"Feature","geometry":{"type":"Polygon","coordinates":[[[-81.38666500033472,28.61029900003673],[-81.38666500033472,28.60925600013035],[-81.38664799971797,28.608725999880743],[-81.3866229996036,28.607969999733307],[-81.38660500006026,28.607433000038604],[-81.38660000003738,28.607273000236184],[-81.3865530001817,28.606041000378063],[-81.38647399964069,28.606030000145264],[-81.38639599982288,28.606010999740445],[-81.38641500008944,28.606627000074013],[-81.38642699978502,28.606973000147022],[-81.38643900037891,28.607899000302687],[-81.3864529997243,28.608225000125078],[-81.38646500031817,28.608476999904184],[-81.38647199999086,28.609121999739514],[-81.38647299981577,28.60925000018717],[-81.38648600023456,28.610116000276747],[-81.3864889997093,28.610279999615372],[-81.38666500033472,28.61029900003673]]]},"properties":{"block_id":"120950180002046","school_id":"sch_pace_center_for_girls","kids_est":0,"class":"green","shortest":{"len_m":1098.2,"mean_c":37.68,"peak_c":37.7,"dose":71.1},"coolest":{"len_m":1098.2,"mean_c":37.68,"peak_c":37.7,"dose":71.1},"delta_mean_c":0.0,"delta_dose_pct":0,"distance_mi":0.464,"status_now":"walk","status_rec":"walk","reason":"Shortest route already under threshold (dose 71).","safe_until_hour":null}},{"type":"Feature","geometry":{"type":"Polygon","coordinates":[[[-81.38117500037474,28.605140000364155],[-81.38117700002456,28.605019999887794],[-81.38117000035186,28.604722999775554],[-81.38116899962863,28.604666000207654],[-81.38115699993307,28.60462699965536],[-81.38113099999381,28.604595000121552],[-81.38104200030534,28.604541999837128],[-81.38059600024151,28.604456999950184],[-81.38040500044579,28.604418000108943],[-81.38016400042136,28.604368999883437],[-81.37928900001212,28.604198999760825],[-81.37902299987336,28.60413999983031],[-81.37850599966441,28.604016999668072],[-81.37826899983794,28.603948000014135],[-81.37820600008875,28.60392499985653],[-81.37762299975756,28.603713000361324],[-81.37757799955172,28.60370900018816],[-81.3775330002442,28.603717999788895],[-81.3774980000841,28.603736999819695],[-81.3774779999926,28.603752999718463],[-81.37745399970316,28.603787000382507],[-81.37744700003046,28.60381299990863],[-81.37744500038065,28.603839000217008],[-81.37743199996187,28.604078999787077],[-81.37742000026628,28.604198999760825],[-81.37740900039564,28.60431900038625],[-81.37742399956593,28.604414999999204],[-81.37742399956593,28.60442999975829],[-81.37743000031205,28.604765999636633],[-81.37743100013695,28.604779000068056],[-81.3775680004043,28.60479599984112],[-81.37770499977333,28.604837999639805],[-81.37798199978275,28.60492199997543],[-81.37816900027882,28.60496000038688],[-81.37838000016603,28.604979000193094],[-81.37902399969826,28.60503999971378],[-81.3804470002786,28.605196999674927],[-81.38110400022961,28.605270000199827],[-81.38113600001667,28.60526400002893],[-81.38116100013103,28.60524500027427],[-81.3811739996515,28.60521900031381],[-81.38117500037474,28.605140000364155]]]},"properties":{"block_id":"120950190003016","school_id":"sch_pace_center_for_girls","kids_est":0,"class":"green","shortest":{"len_m":1087.6,"mean_c":37.61,"peak_c":37.7,"dose":69.5},"coolest":{"len_m":1089.3,"mean_c":37.61,"peak_c":37.7,"dose":69.4},"delta_mean_c":0.0,"delta_dose_pct":0,"distance_mi":0.449,"status_now":"walk","status_rec":"walk","reason":"Shortest route already under threshold (dose 70).","safe_until_hour":null}},{"type":"Feature","geometry":{"type":"Polygon","coordinates":[[[-81.385152000241,28.604903000158874],[-81.38518499985298,28.604485000171078],[-81.3850309998672,28.604447000376517],[-81.38457200028289,28.604336000233705],[-81.384419000122,28.604299999671966],[-81.38438800015986,28.6042920001589],[-81.38436700024347,28.604286999969958],[-81.38429799974817,28.604271000152558],[-81.38426799961094,28.604263999886573],[-81.3842640003113,28.604382000363984],[-81.3842509998925,28.60457100007048],[-81.38418999979315,28.605491999971935],[-81.38418300012046,28.605613999959605],[-81.38417800009758,28.605721000232958],[-81.38460999991771,28.605717000136227],[-81.3850869999437,28.605720000208784],[-81.38511100023314,28.60530699966863],[-81.385152000241,28.604903000158874]]]},"properties":{"block_id":"120950190003014","school_id":"sch_pace_center_for_girls","kids_est":0,"class":"green","shortest":{"len_m":454.0,"mean_c":37.7,"peak_c":37.7,"dose":29.7},"coolest":{"len_m":455.7,"mean_c":37.7,"peak_c":37.7,"dose":29.6},"delta_mean_c":0.0,"delta_dose_pct":0,"distance_mi":0.25,"status_now":"walk","status_rec":"walk","reason":"Shortest route already under threshold (dose 30).","safe_until_hour":null}},{"type":"Feature","geometry":{"type":"Polygon","coordinates":[[[-81.38872400005135,28.60757400026386],[-81.38866799997484,28.60753500000233],[-81.38812400000172,28.60693499967499],[-81.38765899967132,28.6064900002225],[-81.3874670000507,28.606306000117847],[-81.38739300043085,28.60626200007938],[-81.38729899982121,28.606352000174223],[-81.38750700023367,28.606475999985875],[-81.38759799957194,28.606574000025983],[-81.38770300005226,28.606685000170323],[-81.38781400038033,28.606804000308397],[-81.3880870001918,28.60709600000325],[-81.38843500034635,28.607467000300407],[-81.38862600014205,28.607665000029076],[-81.38872400005135,28.60757400026386]]]},"properties":{"block_id":"120950153001001","school_id":"sch_pace_center_for_girls","kids_est":0,"class":"green","shortest":{"len_m":873.1,"mean_c":37.68,"peak_c":37.7,"dose":56.7},"coolest":{"len_m":873.1,"mean_c":37.68,"peak_c":37.7,"dose":56.7},"delta_mean_c":0.0,"delta_dose_pct":0,"distance_mi":0.401,"status_now":"walk","status_rec":"walk","reason":"Shortest route already under threshold (dose 57).","safe_until_hour":null}},{"type":"Feature","geometry":{"type":"Polygon","coordinates":[[[-81.38015500020055,28.6059210001421],[-81.38014199978176,28.605772999898914],[-81.3792649997227,28.605786000205736],[-81.37746799994686,28.605812000025857],[-81.3774770001677,28.605939999774577],[-81.37870800022908,28.605949999994827],[-81.38015500020055,28.6059210001421]]]},"properties":{"block_id":"120950190003005","school_id":"sch_pace_center_for_girls","kids_est":0,"class":"green","shortest":{"len_m":1141.5,"mean_c":37.6,"peak_c":37.7,"dose":72.8},"coolest":{"len_m":1143.2,"mean_c":37.6,"peak_c":37.7,"dose":72.7},"delta_mean_c":0.0,"delta_dose_pct":0,"distance_mi":0.511,"status_now":"walk","status_rec":"walk","reason":"Shortest route already under threshold (dose 73).","safe_until_hour":null}},{"type":"Feature","geometry":{"type":"Polygon","coordinates":[[[-81.38507100005016,28.605999000271666],[-81.38507799972285,28.605883000078236],[-81.38417300007471,28.60584199993169],[-81.3835529999336,28.605875999919714],[-81.38328900034296,28.605883000078236],[-81.38329000016788,28.606064000072436],[-81.38329000016788,28.606084999720473],[-81.383313999559,28.606899000003796],[-81.38332199995492,28.607171000018088],[-81.38318899988553,28.607179000100597],[-81.38315299990053,28.607179000100597],[-81.38278499965449,28.607187000182588],[-81.3826459997373,28.607187000182588],[-81.38247800040615,28.60718900020291],[-81.38231500019951,28.607190000213095],[-81.38182999977761,28.6071930002436],[-81.38166800029423,28.60719500026389],[-81.38154000024772,28.607196000274005],[-81.38115799975799,28.60720300034458],[-81.38103100043469,28.60720500036466],[-81.38103800010738,28.60750199976975],[-81.38104200030534,28.607646999925738],[-81.38104999980294,28.60839600004111],[-81.3810540000009,28.608695000014027],[-81.38150000006475,28.6086930000223],[-81.3816659997461,28.608696000009882],[-81.38169099986045,28.60870699996354],[-81.3817009999062,28.608710999946357],[-81.38172500019563,28.608737999826708],[-81.38175199995983,28.608837000117205],[-81.38175199995983,28.60888499984211],[-81.38173100004343,28.60915800022618],[-81.38173100004343,28.609197999876248],[-81.38176000035574,28.609197999876248],[-81.38194299975554,28.609192999920808],[-81.38199999965693,28.609191999929685],[-81.38206400012935,28.608659000157303],[-81.38209000006862,28.608451999953104],[-81.3821019997642,28.608351000090195],[-81.38213899957411,28.608011999840404],[-81.38219300000077,28.608010999838033],[-81.38229000008516,28.608009999835662],[-81.3825240004369,28.60800799983096],[-81.38275799989032,28.608005999826144],[-81.38275799989032,28.60796599972221],[-81.38275299986744,28.607625999801332],[-81.38297100032564,28.607623999789304],[-81.38298700021917,28.607623999789304],[-81.38322599969545,28.60762099977112],[-81.38333200000065,28.60761999976504],[-81.38341300019152,28.60761899975894],[-81.38373899970644,28.60761599974061],[-81.38383199959286,28.607614999734473],[-81.38439499983257,28.607608999697568],[-81.38480099971342,28.607604999672716],[-81.38497200031595,28.607599999641515],[-81.38497899998865,28.6074949997191],[-81.38500699957774,28.60709600000325],[-81.38501999999654,28.606915000209717],[-81.3850309998672,28.606691000260014],[-81.3850390002631,28.60654700037813],[-81.38504599993581,28.606422999861664],[-81.38505000013377,28.60633799991915],[-81.38505500015664,28.606249999850586],[-81.38506500020239,28.606082999679064],[-81.38507100005016,28.605999000271666]]]},"properties":{"block_id":"120950180002036","school_id":"sch_pace_center_for_girls","kids_est":0,"class":"green","shortest":{"len_m":839.8,"mean_c":37.67,"peak_c":37.7,"dose":54.6},"coolest":{"len_m":841.6,"mean_c":37.67,"peak_c":37.7,"dose":54.4},"delta_mean_c":0.0,"delta_dose_pct":0,"distance_mi":0.42,"status_now":"walk","status_rec":"walk","reason":"Shortest route already under threshold (dose 55).","safe_until_hour":null}},{"type":"Feature","geometry":{"type":"Polygon","coordinates":[[[-81.39382300019908,28.598564000009322],[-81.39383499989466,28.598382999715145],[-81.39342999983869,28.59838499990312],[-81.39221800004387,28.598403000015722],[-81.39181399981284,28.598408999789683],[-81.39180299994219,28.598590000039017],[-81.391768999607,28.599132999705475],[-81.39175899956126,28.59931500037046],[-81.39216199996739,28.599308999859513],[-81.39271699981116,28.599303000136988],[-81.39337299993728,28.59928700034936],[-81.3934089999223,28.59928700034936],[-81.39377700016833,28.599293000072787],[-81.39378800003898,28.599110000071352],[-81.39382300019908,28.598564000009322]]]},"properties":{"block_id":"120950153001020","school_id":"sch_pace_center_for_girls","kids_est":0,"class":"red","shortest":{"len_m":1845.7,"mean_c":37.59,"peak_c":37.7,"dose":117.2},"coolest":{"len_m":1845.7,"mean_c":37.59,"peak_c":37.7,"dose":117.2},"delta_mean_c":0.0,"delta_dose_pct":0,"distance_mi":0.47,"status_now":"walk","status_rec":"bus_eligible","reason":"Coolest route mean 37.6C exceeds threshold (110 C-min dose, actual 117).","safe_until_hour":"14:00"}},{"type":"Feature","geometry":{"type":"Polygon","coordinates":[[[-81.38596599965257,28.60589700039393],[-81.38597999989626,28.60574500002133],[-81.38567500029775,28.605724000305333],[-81.3850869999437,28.605720000208784],[-81.38507799972285,28.605883000078236],[-81.38550600024334,28.605868999760673],[-81.38596599965257,28.60589700039393]]]},"properties":{"block_id":"120950190003008","school_id":"sch_pace_center_for_girls","kids_est":0,"class":"green","shortest":{"len_m":644.1,"mean_c":37.7,"peak_c":37.7,"dose":41.9},"coolest":{"len_m":644.1,"mean_c":37.7,"peak_c":37.7,"dose":41.9},"delta_mean_c":0.0,"delta_dose_pct":0,"distance_mi":0.295,"status_now":"walk","status_rec":"walk","reason":"Shortest route already under threshold (dose 42).","safe_until_hour":null}},{"type":"Feature","geometry":{"type":"Polygon","coordinates":[[[-81.37250900043954,28.60467100037855],[-81.3724990003938,28.604662000070814],[-81.37085499988054,28.60316899986334],[-81.3717539996809,28.602741000339265],[-81.37055399958166,28.601335999966253],[-81.36902700014258,28.600601000229965],[-81.36891499998958,28.60053500013084],[-81.36887999982949,28.600500999991944],[-81.36886700030901,28.600496999696507],[-81.36887099960866,28.60051300008863],[-81.36892500003532,28.600753000157084],[-81.36892699968514,28.600792999852352],[-81.36892199966228,28.60086799963422],[-81.36892500003532,28.601892999700855],[-81.36893500008105,28.602550000387083],[-81.36895900037051,28.602550000387083],[-81.36901600027193,28.60255099965272],[-81.36910300031056,28.60255099965272],[-81.36920200004475,28.60255199970705],[-81.36936500025139,28.60255199970705],[-81.36938699999268,28.602552999761375],[-81.36945200029001,28.60256499962372],[-81.36944800009205,28.60232699986319],[-81.36944399989409,28.60200999962674],[-81.36944399989409,28.601612999713385],[-81.369444999719,28.60153699961061],[-81.36944800009205,28.601504999924465],[-81.36946700035863,28.60144399992887],[-81.3695009997955,28.601388000225],[-81.37005200033964,28.60172499964017],[-81.37029400018898,28.601873000064494],[-81.3703450002426,28.601913000122064],[-81.37049000000755,28.602053999868446],[-81.37087699962186,28.60245199974828],[-81.37089599988842,28.60247800039345],[-81.37090699975907,28.60252299970514],[-81.37089599988842,28.60256799978627],[-81.37087699962186,28.602593999614037],[-81.3702890001661,28.602925999639854],[-81.37019399973154,28.60299199981455],[-81.36991199969924,28.60321299961973],[-81.3698380000794,28.60325700014644],[-81.36975699988855,28.603285999945772],[-81.36972799957621,28.603762000104073],[-81.36974000017011,28.603884999776184],[-81.36976299973632,28.60397699962275],[-81.36982899985856,28.604133000344284],[-81.36996000027813,28.604419000145498],[-81.37004099957066,28.604574000175752],[-81.37010199967003,28.60466100003657],[-81.37017399964006,28.604741000379818],[-81.37050199970312,28.605022999980246],[-81.37065200038926,28.60513800030476],[-81.37081100039791,28.60524300021686],[-81.37101999973699,28.605368999815106],[-81.37123700037026,28.605517999864777],[-81.37127900020306,28.605561000189212],[-81.37130799961706,28.60561099988401],[-81.37132299968567,28.605665999678497],[-81.37133500027957,28.60576199963804],[-81.37134199995225,28.605850000115407],[-81.37199600042855,28.60584399997769],[-81.37201099959884,28.605805999885977],[-81.37201300014698,28.60568000002312],[-81.37204599975895,28.60568000002312],[-81.37208599994193,28.605608999833574],[-81.37209699981257,28.60555099993193],[-81.37212100010203,28.605451999699483],[-81.37215200006416,28.60534800002396],[-81.37214899969112,28.605300000260353],[-81.37212799977472,28.605272000256665],[-81.37210000018563,28.605214000168996],[-81.37210000018563,28.60514999987187],[-81.3720840002921,28.605100999987755],[-81.37204699958386,28.605038999683195],[-81.37201099959884,28.604999000026957],[-81.37200099955311,28.604968999880416],[-81.37200599957599,28.60495300016681],[-81.37182200035127,28.60480600017026],[-81.37250900043954,28.60467100037855]]]},"properties":{"block_id":"120950190003018","school_id":"sch_pace_center_for_girls","kids_est":1,"class":"red","shortest":{"len_m":2181.7,"mean_c":37.06,"peak_c":37.7,"dose":123.3},"coolest":{"len_m":2183.4,"mean_c":37.06,"peak_c":37.7,"dose":123.2},"delta_mean_c":0.0,"delta_dose_pct":0,"distance_mi":0.922,"status_now":"walk","status_rec":"bus_eligible","reason":"Coolest route mean 37.1C exceeds threshold (110 C-min dose, actual 123).","safe_until_hour":"14:00"}},{"type":"Feature","geometry":{"type":"Polygon","coordinates":[[[-81.39394600022273,28.596784999838427],[-81.39396399976607,28.596519999748985],[-81.39249699970313,28.59653999961534],[-81.39192299959278,28.596546000284338],[-81.39186800023951,28.59750400017669],[-81.39389099997115,28.597475000359193],[-81.39390900041279,28.59720299969572],[-81.39394600022273,28.596784999838427]]]},"properties":{"block_id":"120950153001025","school_id":"sch_pace_center_for_girls","kids_est":3,"class":"green","shortest":{"len_m":1529.1,"mean_c":37.61,"peak_c":37.7,"dose":97.6},"coolest":{"len_m":1529.1,"mean_c":37.61,"peak_c":37.7,"dose":97.6},"delta_mean_c":0.0,"delta_dose_pct":0,"distance_mi":0.538,"status_now":"walk","status_rec":"walk","reason":"Shortest route already under threshold (dose 98).","safe_until_hour":null}},{"type":"Feature","geometry":{"type":"Polygon","coordinates":[[[-81.39169300033731,28.60040000037264],[-81.3917050000329,28.60021800000935],[-81.39127999988544,28.600222000315423],[-81.39000699999127,28.6002379999607],[-81.38958299966875,28.600243999629832],[-81.38958199984384,28.600254000392216],[-81.38958000019402,28.600285999670582],[-81.38958000019402,28.600296999716097],[-81.38956900032336,28.60046799991617],[-81.38955400025475,28.600701999656046],[-81.38953599981309,28.60098399984335],[-81.38952599976733,28.60115599978182],[-81.3899249999755,28.60115599978182],[-81.38995000008987,28.60115499971426],[-81.39122499963386,28.601133999869617],[-81.39164999978131,28.601128000251222],[-81.39165999982706,28.600945000290473],[-81.39169300033731,28.60040000037264]]]},"properties":{"block_id":"120950153001007","school_id":"sch_pace_center_for_girls","kids_est":2,"class":"green","shortest":{"len_m":1580.4,"mean_c":37.62,"peak_c":37.7,"dose":101.2},"coolest":{"len_m":1580.4,"mean_c":37.62,"peak_c":37.7,"dose":101.2},"delta_mean_c":0.0,"delta_dose_pct":0,"distance_mi":0.306,"status_now":"walk","status_rec":"walk","reason":"Shortest route already under threshold (dose 101).","safe_until_hour":null}},{"type":"Feature","geometry":{"type":"Polygon","coordinates":[[[-81.38729899982121,28.606352000174223],[-81.38739300043085,28.60626200007938],[-81.3869740001312,28.60601599984728],[-81.3868760002219,28.605959000192236],[-81.3865940001896,28.605856000252793],[-81.38655200035682,28.6058460000236],[-81.3865530001817,28.606041000378063],[-81.38667700003028,28.606057999946948],[-81.38695999988748,28.60616899984772],[-81.38709600032995,28.606232000293478],[-81.38729899982121,28.606352000174223]]]},"properties":{"block_id":"120950153001004","school_id":"sch_pace_center_for_girls","kids_est":0,"class":"green","shortest":{"len_m":690.4,"mean_c":37.7,"peak_c":37.7,"dose":44.9},"coolest":{"len_m":690.4,"mean_c":37.7,"peak_c":37.7,"dose":44.9},"delta_mean_c":0.0,"delta_dose_pct":0,"distance_mi":0.323,"status_now":"walk","status_rec":"walk","reason":"Shortest route already under threshold (dose 45).","safe_until_hour":null}},{"type":"Feature","geometry":{"type":"Polygon","coordinates":[[[-81.38543699974807,28.601003999648906],[-81.38545099999178,28.600818000048477],[-81.38503400024024,28.60079700013648],[-81.38501400014876,28.60079600006545],[-81.38472000042088,28.600787000214506],[-81.38370199989652,28.60080199970279],[-81.38340099959765,28.600807000057568],[-81.3833339996505,28.60081900011929],[-81.3832709999013,28.600845000379806],[-81.38341400001643,28.601026000377047],[-81.38384500001165,28.601571000203002],[-81.3839889999517,28.601752999800375],[-81.38426699978604,28.601749000341297],[-81.38478300017007,28.6017440000314],[-81.3851029998372,28.601746000155348],[-81.38538200039478,28.601748000279322],[-81.38539499991525,28.601561000354685],[-81.38543699974807,28.601003999648906]]]},"properties":{"block_id":"120950190003033","school_id":"sch_pace_center_for_girls","kids_est":0,"class":"green","shortest":{"len_m":52.3,"mean_c":37.7,"peak_c":37.7,"dose":3.4},"coolest":{"len_m":52.3,"mean_c":37.7,"peak_c":37.7,"dose":3.4},"delta_mean_c":0.0,"delta_dose_pct":0,"distance_mi":0.073,"status_now":"walk","status_rec":"walk","reason":"Shortest route already under threshold (dose 3).","safe_until_hour":null}},{"type":"Feature","geometry":{"type":"Polygon","coordinates":[[[-81.39387900027559,28.597655999850943],[-81.39389099997115,28.597475000359193],[-81.39186800023951,28.59750400017669],[-81.39181399981284,28.598408999789683],[-81.39221800004387,28.598403000015722],[-81.39342999983869,28.59838499990312],[-81.39383499989466,28.598382999715145],[-81.3938449999404,28.59820099980231],[-81.39387900027559,28.597655999850943]]]},"properties":{"block_id":"120950153001021","school_id":"sch_pace_center_for_girls","kids_est":1,"class":"red","shortest":{"len_m":1744.3,"mean_c":37.59,"peak_c":37.7,"dose":110.9},"coolest":{"len_m":1744.3,"mean_c":37.59,"peak_c":37.7,"dose":110.9},"delta_mean_c":0.0,"delta_dose_pct":0,"distance_mi":0.5,"status_now":"walk","status_rec":"bus_eligible","reason":"Coolest route mean 37.6C exceeds threshold (110 C-min dose, actual 111).","safe_until_hour":"14:00"}},{"type":"Feature","geometry":{"type":"Polygon","coordinates":[[[-81.3864529997243,28.608225000125078],[-81.38643900037891,28.607899000302687],[-81.38642699978502,28.606973000147022],[-81.38641500008944,28.606627000074013],[-81.38639599982288,28.606010999740445],[-81.38603699979768,28.605925000231068],[-81.38604600001851,28.60598800003447],[-81.38604699984342,28.605998000250146],[-81.38609799989705,28.606219000041843],[-81.3861370002551,28.60642699993151],[-81.38589399968254,28.606425999914066],[-81.38590399972828,28.606526000033835],[-81.38525599999808,28.60654200029657],[-81.3850390002631,28.60654700037813],[-81.3850309998672,28.606691000260014],[-81.38501999999654,28.606915000209717],[-81.38500699957774,28.60709600000325],[-81.38508600011879,28.607093999981146],[-81.38595899997988,28.60707399975742],[-81.38625899955552,28.6070749997687],[-81.3863349997235,28.607476000367846],[-81.38636800023379,28.607724000346067],[-81.38642900033315,28.608105000017826],[-81.38643699983076,28.608189000107277],[-81.3864529997243,28.608225000125078]]]},"properties":{"block_id":"120950180002048","school_id":"sch_pace_center_for_girls","kids_est":0,"class":"green","shortest":{"len_m":695.5,"mean_c":37.7,"peak_c":37.7,"dose":45.2},"coolest":{"len_m":695.5,"mean_c":37.7,"peak_c":37.7,"dose":45.2},"delta_mean_c":0.0,"delta_dose_pct":0,"distance_mi":0.361,"status_now":"walk","status_rec":"walk","reason":"Shortest route already under threshold (dose 45).","safe_until_hour":null}},{"type":"Feature","geometry":{"type":"Polygon","coordinates":[[[-81.3820959999164,28.61158900018535],[-81.3820520004338,28.61012200017049],[-81.3820180000986,28.61011100036501],[-81.3817290003936,28.610022000319212],[-81.3817290003936,28.61000099988094],[-81.3817290003936,28.609765000375052],[-81.38173100004343,28.609197999876248],[-81.38173100004343,28.60915800022618],[-81.38175199995983,28.60888499984211],[-81.38175199995983,28.608837000117205],[-81.38172500019563,28.608737999826708],[-81.3817009999062,28.608710999946357],[-81.38169099986045,28.60870699996354],[-81.3816659997461,28.608696000009882],[-81.38150000006475,28.6086930000223],[-81.3810540000009,28.608695000014027],[-81.38105599965073,28.608829000160952],[-81.38104499978009,28.608871999918776],[-81.381017000191,28.608911999677694],[-81.38098500040394,28.608941000282027],[-81.380941000023,28.608961000150252],[-81.38088599977141,28.608970000089766],[-81.38082499967204,28.608964000130175],[-81.38047999989055,28.608833000139136],[-81.38038100015635,28.608797000329687],[-81.38016799972101,28.608720999902847],[-81.38019799985824,28.608625000281286],[-81.3802099995538,28.60852699978846],[-81.38020500042926,28.60831300011661],[-81.3801810001398,28.607072999746197],[-81.38017399956881,28.606659999792782],[-81.38016900044424,28.606500000390383],[-81.38015699985036,28.60601899991131],[-81.38015500020055,28.6059210001421],[-81.37870800022908,28.605949999994827],[-81.3774770001677,28.605939999774577],[-81.37746799994686,28.606152000296863],[-81.37745799990113,28.607299999697464],[-81.377462999924,28.607308999779214],[-81.37748600038853,28.607350000141924],[-81.37749499971106,28.60739299971655],[-81.37748899986326,28.60745800023218],[-81.37750999977965,28.607492999704526],[-81.37751900000049,28.60752999996778],[-81.37751099960457,28.607673000073977],[-81.3774980000841,28.607716000304993],[-81.37747499961955,28.607749999686547],[-81.3767950001023,28.608281000128226],[-81.37665700001006,28.608395000042407],[-81.37657599981921,28.60848199989366],[-81.3765070002222,28.60857799964589],[-81.37645100014572,28.60868000007521],[-81.3764000000921,28.6088100002623],[-81.37637699962755,28.60888099986586],[-81.37632399992413,28.609034999629657],[-81.37616699956529,28.609497999920563],[-81.37611600040997,28.609653000343794],[-81.37606100015839,28.609810999705484],[-81.37589899977668,28.61028500030767],[-81.37588600025619,28.610326000297515],[-81.37585199992103,28.610446000233562],[-81.3758369998524,28.610557000229765],[-81.3758369998524,28.61060000006891],[-81.3758369998524,28.6106700000628],[-81.37585399957085,28.610780999822293],[-81.37587899968518,28.610868000063366],[-81.37593300011187,28.61098900014285],[-81.375964000074,28.611043000302804],[-81.37599000001327,28.611086999916083],[-81.37604799973958,28.61117499987591],[-81.37596800027197,28.6111930001633],[-81.37591300002039,28.611197000051515],[-81.37574399996599,28.61119899999557],[-81.37482599989904,28.611210999659036],[-81.37466900043853,28.611213000391388],[-81.37466400041565,28.611720999860985],[-81.37479199956385,28.611719999893943],[-81.37511799997708,28.61171100019004],[-81.37532399984141,28.611706000354268],[-81.37535900000152,28.611705000387087],[-81.37547199997942,28.611701999696805],[-81.3754920000709,28.611700999729624],[-81.37555900001804,28.611698999795134],[-81.37569200008744,28.61169599989333],[-81.37574899998886,28.611710000222963],[-81.37580599989026,28.6117330002534],[-81.37582699980666,28.61173600015415],[-81.3759919996631,28.611734000220324],[-81.37608600027275,28.6117330002534],[-81.37612200025775,28.611741999955353],[-81.37615499986971,28.61176000014562],[-81.37634200036578,28.61174299992219],[-81.37690600043038,28.611691000056776],[-81.37697000000449,28.611686000220057],[-81.37709800005102,28.611684000285262],[-81.37764899969683,28.611675999757196],[-81.38002399978097,28.61162899969836],[-81.38116199995595,28.611606999613226],[-81.38120600033687,28.61160599964509],[-81.38173400041647,28.61159499999501],[-81.38180600038649,28.61159400002675],[-81.38183399997557,28.61159400002675],[-81.38197799991563,28.611591000121937],[-81.3820959999164,28.61158900018535]]]},"properties":{"block_id":"120950180002022","school_id":"sch_pace_center_for_girls","kids_est":3,"class":"green","shortest":{"len_m":1160.0,"mean_c":37.6,"peak_c":37.7,"dose":74.1},"coolest":{"len_m":1161.7,"mean_c":37.6,"peak_c":37.7,"dose":74.0},"delta_mean_c":0.0,"delta_dose_pct":0,"distance_mi":0.525,"status_now":"walk","status_rec":"walk","reason":"Shortest route already under threshold (dose 74).","safe_until_hour":null}},{"type":"Feature","geometry":{"type":"Polygon","coordinates":[[[-81.37743399961168,28.604879000178155],[-81.37743100013695,28.604779000068056],[-81.37743000031205,28.604765999636633],[-81.37742399956593,28.60442999975829],[-81.37742399956593,28.604414999999204],[-81.37740900039564,28.60431900038625],[-81.37738199973313,28.604235000357168],[-81.37734900012119,28.60416700009673],[-81.37728399982385,28.604074999627834],[-81.37710800009675,28.603903999776783],[-81.37708100033258,28.603878000273177],[-81.37600300043206,28.602796000058778],[-81.37585299974593,28.6026449999855],[-81.37565500027753,28.602452999803564],[-81.3756329996379,28.602430000107418],[-81.37551800001017,28.602312999860477],[-81.37545100006302,28.602243999876258],[-81.37520099981776,28.601997999700952],[-81.37516599965768,28.60197399984541],[-81.37514599956617,28.60195999979567],[-81.37508399964192,28.60193000035884],[-81.37501800041797,28.60190899988043],[-81.3749509995725,28.60189800000373],[-81.37472999963957,28.6018760002468],[-81.37465799966955,28.601868999821317],[-81.37449000033838,28.601862000184013],[-81.37430000036758,28.60186699969966],[-81.37419499988727,28.601877000307567],[-81.3741339997879,28.601886000065154],[-81.37406600001584,28.60189800000373],[-81.37401699961204,28.601911000001298],[-81.37396499973352,28.60194399962387],[-81.37391000038023,28.601997999700952],[-81.3736690003558,28.602200999771792],[-81.37356999972329,28.602338999751396],[-81.37344599987473,28.60253300025062],[-81.3734369996539,28.602559000087037],[-81.3734280003314,28.602614999955545],[-81.37343099980613,28.602671999847406],[-81.373471999814,28.602814000204482],[-81.37351199999698,28.602937000197628],[-81.37366299960972,28.602944999813918],[-81.3736900002722,28.602956000369705],[-81.37370799981557,28.602963999984496],[-81.37374700017361,28.60299199981455],[-81.3741339997879,28.60323499988542],[-81.37420499993303,28.60313899998299],[-81.37431299988805,28.603020999687022],[-81.37441900019327,28.602926999690606],[-81.37446600004893,28.602900999945252],[-81.37451899975238,28.60288499991673],[-81.37458400004971,28.602877000295937],[-81.37466199986751,28.60288599996789],[-81.37471100027132,28.60290300004724],[-81.37475499975393,28.602927999741357],[-81.37480599980755,28.6029749997496],[-81.37488699999842,28.60305000034018],[-81.37553700027675,28.603702999928156],[-81.3760679998311,28.60422700005048],[-81.3765409996591,28.60470499995685],[-81.37661199980421,28.604755000059004],[-81.37663000024588,28.604767999703114],[-81.3767309996299,28.604816999742532],[-81.37684899963065,28.604858000289138],[-81.37694700043828,28.604879000178155],[-81.37704699999738,28.604888999710766],[-81.37743399961168,28.604879000178155]]]},"properties":{"block_id":"120950190003017","school_id":"sch_pace_center_for_girls","kids_est":0,"class":"green","shortest":{"len_m":1770.5,"mean_c":37.34,"peak_c":37.7,"dose":106.7},"coolest":{"len_m":1772.2,"mean_c":37.34,"peak_c":37.7,"dose":106.6},"delta_mean_c":0.0,"delta_dose_pct":0,"distance_mi":0.629,"status_now":"walk","status_rec":"walk","reason":"Shortest route already under threshold (dose 107).","safe_until_hour":null}},{"type":"Feature","geometry":{"type":"Polygon","coordinates":[[[-81.39371199987099,28.600372999926975],[-81.39372299974166,28.600192000382428],[-81.39331900040891,28.600195999900716],[-81.39210800043904,28.600210000185456],[-81.39180200011727,28.600213999703122],[-81.3917050000329,28.60021800000935],[-81.39169300033731,28.60040000037264],[-81.39165999982706,28.600945000290473],[-81.39164999978131,28.601128000251222],[-81.39205300018743,28.60112199984386],[-81.39326499998225,28.601105000265076],[-81.39366900021331,28.601099999924468],[-81.39367900025904,28.600917999984826],[-81.39371199987099,28.600372999926975]]]},"properties":{"block_id":"120950153001017","school_id":"sch_pace_center_for_girls","kids_est":2,"class":"red","shortest":{"len_m":2048.3,"mean_c":37.58,"peak_c":37.7,"dose":129.9},"coolest":{"len_m":2048.3,"mean_c":37.58,"peak_c":37.7,"dose":129.9},"delta_mean_c":0.0,"delta_dose_pct":0,"distance_mi":0.43,"status_now":"walk","status_rec":"bus_eligible","reason":"Coolest route mean 37.6C exceeds threshold (110 C-min dose, actual 130).","safe_until_hour":"14:00"}},{"type":"Feature","geometry":{"type":"Polygon","coordinates":[[[-81.38961899965376,28.599678999966127],[-81.3896289996995,28.599538000187838],[-81.3893399999945,28.599539000270827],[-81.38876400023432,28.59954399989698],[-81.3886210001192,28.599556000102936],[-81.38847800000406,28.599580999804623],[-81.38842799977535,28.599589999758923],[-81.3882000001697,28.599655000369605],[-81.38822899958372,28.599717999988847],[-81.38824600020047,28.59977700003619],[-81.38831800017049,28.600016000129717],[-81.38832499984319,28.600096000066014],[-81.38831599962235,28.600161999652144],[-81.3883130001476,28.600194999824023],[-81.38829999972883,28.600241000189637],[-81.38827999963733,28.600287999822356],[-81.38838799959238,28.600308999836063],[-81.38853800027852,28.6003069996847],[-81.3893190000781,28.60029899986765],[-81.38958000019402,28.600296999716097],[-81.38958000019402,28.600285999670582],[-81.38958199984384,28.600254000392216],[-81.38958299966875,28.600243999629832],[-81.38959100006467,28.600101999743313],[-81.38961899965376,28.599678999966127]]]},"properties":{"block_id":"120950153001013","school_id":"sch_pace_center_for_girls","kids_est":0,"class":"green","shortest":{"len_m":1574.2,"mean_c":37.62,"peak_c":37.7,"dose":100.8},"coolest":{"len_m":1574.2,"mean_c":37.62,"peak_c":37.7,"dose":100.8},"delta_mean_c":0.0,"delta_dose_pct":0,"distance_mi":0.227,"status_now":"walk","status_rec":"walk","reason":"Shortest route already under threshold (dose 101).","safe_until_hour":null}},{"type":"Feature","geometry":{"type":"Polygon","coordinates":[[[-81.38561300037347,28.598355000234456],[-81.38562599989395,28.598150999736376],[-81.38507600007303,28.59815799962081],[-81.38342599971199,28.598182999655105],[-81.38287699971599,28.598191999729057],[-81.38287900026413,28.59839500005373],[-81.38288799958664,28.59900500034041],[-81.3828919997846,28.599208999969495],[-81.38342599971199,28.599201000068785],[-81.38502800039245,28.599179999833723],[-81.38556300014476,28.599174000103794],[-81.3855749998403,28.598969000318355],[-81.38559999995469,28.598551000386422],[-81.38561300037347,28.598355000234456]]]},"properties":{"block_id":"120950190003043","school_id":"sch_pace_center_for_girls","kids_est":0,"class":"green","shortest":{"len_m":252.6,"mean_c":37.7,"peak_c":37.7,"dose":16.4},"coolest":{"len_m":252.6,"mean_c":37.7,"peak_c":37.7,"dose":16.4},"delta_mean_c":0.0,"delta_dose_pct":0,"distance_mi":0.213,"status_now":"walk","status_rec":"walk","reason":"Shortest route already under threshold (dose 16).","safe_until_hour":null}},{"type":"Feature","geometry":{"type":"Polygon","coordinates":[[[-81.38971800028628,28.598074000187722],[-81.38972400013405,28.597985000198733],[-81.38923200003946,28.597987999703328],[-81.38909999979498,28.59798899980109],[-81.3872279996761,28.598013999875523],[-81.38708299991114,28.598016000070537],[-81.38660500006026,28.5980180002655],[-81.38652499969432,28.598041000138547],[-81.3862850003931,28.59811099982423],[-81.386326000401,28.598800000225314],[-81.38637099970852,28.599989000374094],[-81.38682199979523,28.600007000211956],[-81.38739300043085,28.60002900036018],[-81.38746899970052,28.60022799998547],[-81.38748399976915,28.600337000373585],[-81.38770100040242,28.600461000185547],[-81.38783100009876,28.600534000057316],[-81.38789499967287,28.600715999873373],[-81.38809600041263,28.6007059999437],[-81.38817500005536,28.600701999656046],[-81.38955400025475,28.600701999656046],[-81.38956900032336,28.60046799991617],[-81.38958000019402,28.600296999716097],[-81.3893190000781,28.60029899986765],[-81.38853800027852,28.6003069996847],[-81.38838799959238,28.600308999836063],[-81.38827999963733,28.600287999822356],[-81.38829999972883,28.600241000189637],[-81.3883130001476,28.600194999824023],[-81.38831599962235,28.600161999652144],[-81.38832499984319,28.600096000066014],[-81.38831800017049,28.600016000129717],[-81.38824600020047,28.59977700003619],[-81.38822899958372,28.599717999988847],[-81.3882000001697,28.599655000369605],[-81.38816800038266,28.599588999676403],[-81.38813200039765,28.599531999689663],[-81.3880870001918,28.599476999839148],[-81.38804799983374,28.59943500026379],[-81.38798699973438,28.59937800019354],[-81.38785000036535,28.599269000388166],[-81.38781500020525,28.599233999753725],[-81.38779000009089,28.599195000340114],[-81.38775900012874,28.599133999792336],[-81.38774300023522,28.599087999730806],[-81.38773300018947,28.599043999824534],[-81.38773200036455,28.598986000242665],[-81.38772999981643,28.598775999639372],[-81.38811899997886,28.598770999976683],[-81.38928499974291,28.59875600019851],[-81.38967499973025,28.598751999836626],[-81.3896780001033,28.598688000335923],[-81.3896909996238,28.5984960000225],[-81.38969599964665,28.59843299967069],[-81.38970099966953,28.598342999891354],[-81.38971800028628,28.598074000187722]]]},"properties":{"block_id":"120950153001011","school_id":"sch_pace_center_for_girls","kids_est":0,"class":"green","shortest":{"len_m":1693.3,"mean_c":37.62,"peak_c":37.7,"dose":108.6},"coolest":{"len_m":1693.3,"mean_c":37.62,"peak_c":37.7,"dose":108.6},"delta_mean_c":0.0,"delta_dose_pct":0,"distance_mi":0.215,"status_now":"walk","status_rec":"walk","reason":"Shortest route already under threshold (dose 109).","safe_until_hour":null}},{"type":"Feature","geometry":{"type":"Polygon","coordinates":[[[-81.38507799972285,28.605883000078236],[-81.3850869999437,28.605720000208784],[-81.38460999991771,28.605717000136227],[-81.38417800009758,28.605721000232958],[-81.38417300007471,28.60584199993169],[-81.38507799972285,28.605883000078236]]]},"properties":{"block_id":"120950190003007","school_id":"sch_pace_center_for_girls","kids_est":0,"class":"green","shortest":{"len_m":548.3,"mean_c":37.7,"peak_c":37.7,"dose":35.8},"coolest":{"len_m":550.5,"mean_c":37.7,"peak_c":37.7,"dose":35.6},"delta_mean_c":0.0,"delta_dose_pct":-1,"distance_mi":0.3,"status_now":"walk","status_rec":"walk","reason":"Shortest route already under threshold (dose 36).","safe_until_hour":null}},{"type":"Feature","geometry":{"type":"Polygon","coordinates":[[[-81.39181399981284,28.598408999789683],[-81.39186800023951,28.59750400017669],[-81.39045100040528,28.597518000031343],[-81.38975300044638,28.597521000337988],[-81.38974699970028,28.59761300023524],[-81.38972900015693,28.597891999739765],[-81.38972400013405,28.597985000198733],[-81.38971800028628,28.598074000187722],[-81.38970099966953,28.598342999891354],[-81.38969599964665,28.59843299967069],[-81.39011900014427,28.598427999991685],[-81.39139000038863,28.59841300016456],[-81.39181399981284,28.598408999789683]]]},"properties":{"block_id":"120950153001022","school_id":"sch_pace_center_for_girls","kids_est":1,"class":"green","shortest":{"len_m":1320.8,"mean_c":37.62,"peak_c":37.7,"dose":84.6},"coolest":{"len_m":1320.8,"mean_c":37.62,"peak_c":37.7,"dose":84.6},"delta_mean_c":0.0,"delta_dose_pct":0,"distance_mi":0.395,"status_now":"walk","status_rec":"walk","reason":"Shortest route already under threshold (dose 85).","safe_until_hour":null}},{"type":"Feature","geometry":{"type":"Polygon","coordinates":[[[-81.39186800023951,28.59750400017669],[-81.39192299959278,28.596546000284338],[-81.39155299969693,28.59654899983],[-81.39118899964886,28.59654099972688],[-81.3908329999967,28.596516000090737],[-81.39042499956771,28.59646299967516],[-81.3898549996553,28.59635799966584],[-81.38982700006622,28.59650099999072],[-81.3897910000812,28.596899999713948],[-81.38977199981463,28.597209999643333],[-81.38976799961668,28.59727199983497],[-81.3897559999211,28.597458000190453],[-81.38975300044638,28.597521000337988],[-81.39045100040528,28.597518000031343],[-81.39186800023951,28.59750400017669]]]},"properties":{"block_id":"120950153001024","school_id":"sch_pace_center_for_girls","kids_est":1,"class":"green","shortest":{"len_m":1237.9,"mean_c":37.63,"peak_c":37.7,"dose":79.4},"coolest":{"len_m":1237.9,"mean_c":37.63,"peak_c":37.7,"dose":79.4},"delta_mean_c":0.0,"delta_dose_pct":0,"distance_mi":0.44,"status_now":"walk","status_rec":"walk","reason":"Shortest route already under threshold (dose 79).","safe_until_hour":null}},{"type":"Feature","geometry":{"type":"Polygon","coordinates":[[[-81.38832800021622,28.60428099974297],[-81.38827200013972,28.60420299991535],[-81.38772399996864,28.60400199985003],[-81.38721599998051,28.60404700008637],[-81.3869530002148,28.60408600006533],[-81.38697099975815,28.604333000121684],[-81.38709600032995,28.604867999823696],[-81.38711800007124,28.604928000165817],[-81.38720299956172,28.605032000257065],[-81.38733399998131,28.605096999867477],[-81.38759199972417,28.6051989997332],[-81.38778599989293,28.60527600037033],[-81.38809300003959,28.60475099992557],[-81.38832800021622,28.60428099974297]]]},"properties":{"block_id":"120950153001003","school_id":"sch_pace_center_for_girls","kids_est":3,"class":"green","shortest":{"len_m":1179.3,"mean_c":37.68,"peak_c":37.7,"dose":76.4},"coolest":{"len_m":1179.3,"mean_c":37.68,"peak_c":37.7,"dose":76.4},"delta_mean_c":0.0,"delta_dose_pct":0,"distance_mi":0.239,"status_now":"walk","status_rec":"walk","reason":"Shortest route already under threshold (dose 76).","safe_until_hour":null}},{"type":"Feature","geometry":{"type":"Polygon","coordinates":[[[-81.38247800040615,28.60718900020291],[-81.38247000001022,28.606915000209717],[-81.38245499994159,28.606360000319107],[-81.38245099974363,28.606095999947517],[-81.38244800026891,28.605891000258897],[-81.38163499978396,28.605910999919104],[-81.38163800015701,28.606103000091384],[-81.38164400000478,28.606439000140075],[-81.3816590000734,28.606922000299015],[-81.38166800029423,28.60719500026389],[-81.38182999977761,28.6071930002436],[-81.38231500019951,28.607190000213095],[-81.38247800040615,28.60718900020291]]]},"properties":{"block_id":"120950180002038","school_id":"sch_pace_center_for_girls","kids_est":0,"class":"green","shortest":{"len_m":908.3,"mean_c":37.66,"peak_c":37.7,"dose":58.7},"coolest":{"len_m":910.0,"mean_c":37.66,"peak_c":37.7,"dose":58.6},"delta_mean_c":0.0,"delta_dose_pct":0,"distance_mi":0.409,"status_now":"walk","status_rec":"walk","reason":"Shortest route already under threshold (dose 59).","safe_until_hour":null}},{"type":"Feature","geometry":{"type":"Polygon","coordinates":[[[-81.38166800029423,28.60719500026389],[-81.3816590000734,28.606922000299015],[-81.38164400000478,28.606439000140075],[-81.38163800015701,28.606103000091384],[-81.38163499978396,28.605910999919104],[-81.38015500020055,28.6059210001421],[-81.38015699985036,28.60601899991131],[-81.38016900044424,28.606500000390383],[-81.38017399956881,28.606659999792782],[-81.3803359999505,28.606657999762316],[-81.38082499967204,28.606651999670742],[-81.38090000001512,28.606651999670742],[-81.38095699991652,28.606666999899076],[-81.38098100020598,28.606685000170323],[-81.38100899979507,28.60671899988553],[-81.3810189998408,28.606753000378408],[-81.3810189998408,28.60677899995925],[-81.38102800006165,28.60709800002538],[-81.38103100043469,28.60720500036466],[-81.38115799975799,28.60720300034458],[-81.38154000024772,28.607196000274005],[-81.38166800029423,28.60719500026389]]]},"properties":{"block_id":"120950180002035","school_id":"sch_pace_center_for_girls","kids_est":0,"class":"green","shortest":{"len_m":927.4,"mean_c":37.66,"peak_c":37.7,"dose":59.9},"coolest":{"len_m":929.1,"mean_c":37.66,"peak_c":37.7,"dose":59.8},"delta_mean_c":0.0,"delta_dose_pct":0,"distance_mi":0.441,"status_now":"walk","status_rec":"walk","reason":"Shortest route already under threshold (dose 60).","safe_until_hour":null}},{"type":"Feature","geometry":{"type":"Polygon","coordinates":[[[-81.38609100022435,28.601318000356027],[-81.38620199965413,28.600677000221044],[-81.38583799960605,28.60072699987382],[-81.38554700025122,28.600730000088866],[-81.38545799966445,28.600730000088866],[-81.38545099999178,28.600818000048477],[-81.38543699974807,28.601003999648906],[-81.38539499991525,28.601561000354685],[-81.38538200039478,28.601748000279322],[-81.3853630001282,28.602050999691265],[-81.38535700028042,28.60212900032772],[-81.38527299971652,28.603273000118307],[-81.38524599995235,28.603655000201723],[-81.38523300043187,28.603820000204667],[-81.3852290002339,28.60387700023147],[-81.38519599972363,28.604318000348744],[-81.38518499985298,28.604485000171078],[-81.385152000241,28.604903000158874],[-81.38511100023314,28.60530699966863],[-81.3850869999437,28.605720000208784],[-81.38567500029775,28.605724000305333],[-81.38597999989626,28.60574500002133],[-81.38601300040655,28.60541600030881],[-81.38604600001851,28.604700999821496],[-81.38606600010999,28.604377000179326],[-81.38606699993491,28.604356000189966],[-81.3860739996076,28.603999999768956],[-81.3860739996076,28.603585000265582],[-81.38606399956186,28.603174000105437],[-81.38603799962259,28.60241600011843],[-81.386030000125,28.601997999700952],[-81.38605100004139,28.601648000344113],[-81.38609100022435,28.601318000356027]]]},"properties":{"block_id":"120950190003013","school_id":"sch_pace_center_for_girls","kids_est":0,"class":"green","shortest":{"len_m":293.3,"mean_c":37.7,"peak_c":37.7,"dose":19.1},"coolest":{"len_m":293.3,"mean_c":37.7,"peak_c":37.7,"dose":19.1},"delta_mean_c":0.0,"delta_dose_pct":0,"distance_mi":0.128,"status_now":"walk","status_rec":"walk","reason":"Shortest route already under threshold (dose 19).","safe_until_hour":null}},{"type":"Feature","geometry":{"type":"Polygon","coordinates":[[[-81.3842640003113,28.604382000363984],[-81.38426799961094,28.604263999886573],[-81.38422800032629,28.604254000294535],[-81.38410799977738,28.60422600001208],[-81.38406799959442,28.604216999666228],[-81.38401800026402,28.60430799997317],[-81.38391100013389,28.604278999667212],[-81.38387299960075,28.604269000076613],[-81.383757999973,28.60432499982239],[-81.38366199971354,28.604354000115638],[-81.38365900023881,28.604148000143624],[-81.38356399980425,28.604126000069165],[-81.38295700008193,28.603983999907793],[-81.38278300000465,28.60398599998916],[-81.38275399969235,28.604012000254738],[-81.38237700012381,28.604085000025606],[-81.38220899989432,28.6041419999087],[-81.38197000041804,28.60417300033022],[-81.3817439995639,28.604153000339185],[-81.381526000004,28.60409599967336],[-81.3812430001468,28.604016999668072],[-81.38101800001589,28.603953000219136],[-81.38090000001512,28.60391899960882],[-81.38073799963341,28.603846999764624],[-81.38033299957746,28.603727000177507],[-81.37947999980784,28.603535999651605],[-81.37908700034578,28.603398999712944],[-81.37868200028981,28.603365999758626],[-81.37815800040819,28.60325700014644],[-81.3778219999492,28.60303699969482],[-81.37775900020002,28.602899999894245],[-81.37746600029705,28.602773999701185],[-81.37730399991534,28.60268599980227],[-81.37689300001159,28.60252699992347],[-81.37668700014729,28.60239499973709],[-81.37627600024355,28.60221399973187],[-81.37593300011187,28.601902000245783],[-81.37577900012607,28.60168500029972],[-81.37570799998097,28.601583000177502],[-81.37555200034537,28.60139099963246],[-81.37522799958195,28.60111600022479],[-81.37505299967975,28.601023000170517],[-81.37515200031227,28.600802999773755],[-81.37509600023579,28.600692999797047],[-81.37518400009932,28.600495000337432],[-81.37512100035013,28.600441000276685],[-81.37500300034935,28.600489999967806],[-81.37484299961748,28.600549000370428],[-81.37470500042353,28.600599000084163],[-81.37463099990538,28.600599000084163],[-81.37452499960015,28.60067099978785],[-81.37437499981235,28.60085300015529],[-81.37431899973583,28.600935000382577],[-81.37428199992591,28.601023000170517],[-81.37420699958284,28.601095000372396],[-81.37408199990936,28.60118899964156],[-81.37394499964202,28.601277000005496],[-81.37367100000563,28.60157400039395],[-81.37356499970043,28.60161800002958],[-81.3734149999126,28.60165099974416],[-81.37329100006403,28.601668000023313],[-81.37321599972097,28.601706000034202],[-81.37315999964449,28.601783000076438],[-81.37315299997178,28.601811000221215],[-81.37312899968232,28.601915000242872],[-81.37310399956796,28.60208600017612],[-81.37304800038979,28.602262000116575],[-81.37295399978015,28.60241600011843],[-81.37284199962716,28.6025259998689],[-81.37257999968634,28.602712999653615],[-81.37236200012644,28.602834999713384],[-81.37206900022349,28.602802000370573],[-81.37197600033707,28.602817999623028],[-81.37196999959097,28.602873000090927],[-81.37191299968956,28.60291699997132],[-81.37197600033707,28.602988999664095],[-81.37209400033785,28.60302199973687],[-81.37221900001131,28.603099000392103],[-81.37229400035439,28.60319200018642],[-81.37234399968479,28.603341000168715],[-81.37237499964692,28.603472999955315],[-81.37253700002863,28.603587999610333],[-81.37261800021948,28.60367100011295],[-81.37265599985432,28.603841000301145],[-81.37273100019738,28.603913000149515],[-81.37289299968077,28.604000999809493],[-81.37299899998598,28.604115999675308],[-81.37322999996466,28.604115999675308],[-81.37332899969887,28.604094000382766],[-81.37341699956242,28.60404500000616],[-81.37347900038502,28.603983999907793],[-81.37350399960106,28.603874000106348],[-81.3734850002328,28.60374700024963],[-81.37346000011846,28.60367000006927],[-81.37346000011846,28.603599000098797],[-81.37347900038502,28.603566000207238],[-81.37352899971542,28.603554999715314],[-81.37363500002061,28.603604000320423],[-81.37374100032584,28.603725000091192],[-81.37374700017361,28.60380799969695],[-81.37374100032584,28.60395600034207],[-81.37378499980846,28.60415999982381],[-81.37388500026587,28.60435800026426],[-81.37398400000008,28.604468000347683],[-81.37417800016884,28.604604999681136],[-81.37422800039755,28.604666000207654],[-81.37436499976658,28.604732000078073],[-81.37449000033838,28.60476999976957],[-81.37464500014907,28.604787000332774],[-81.37482599989904,28.60476699966988],[-81.37499999997631,28.60474899985876],[-81.37574200031615,28.60473800027936],[-81.37581099991313,28.604743999691557],[-81.37586100014184,28.604760000225674],[-81.37610999966388,28.605008000305823],[-81.37616599974037,28.60505200008079],[-81.3762100001213,28.60506299962736],[-81.37624699993121,28.605058000263796],[-81.3763099996804,28.60502500004184],[-81.37650300002426,28.605013999702674],[-81.3765399998342,28.605046999928078],[-81.37657099979631,28.605107000167962],[-81.37660900032948,28.60524500027427],[-81.37662100002504,28.60533299960731],[-81.37665799983496,28.605369999842615],[-81.37666500040598,28.605383000199243],[-81.37667100025375,28.60543199995184],[-81.37665799983496,28.60547600033798],[-81.37661500017725,28.605519999916947],[-81.37658400021512,28.605536000332886],[-81.37644000027507,28.605513999760362],[-81.37612200025775,28.6054869998401],[-81.37602199980033,28.605437000086308],[-81.37594800018049,28.605315999921125],[-81.37594800018049,28.605294000091224],[-81.37597900014262,28.605249999628864],[-81.37604100006692,28.60519000025932],[-81.37605399958737,28.605162000226297],[-81.37604100006692,28.60508000014311],[-81.37594800018049,28.60494699997786],[-81.37585399957085,28.60487600008163],[-81.37579199964655,28.604859000321508],[-81.37500099980122,28.604853000127125],[-81.37433999965222,28.60491899988008],[-81.37412799994011,28.604908000318495],[-81.37401599978713,28.604881000242486],[-81.37386599999931,28.604760000225674],[-81.37380999992281,28.604726999910135],[-81.37367900040154,28.604688000169105],[-81.37342999998121,28.60467199962402],[-81.37319300015474,28.604677999828684],[-81.37302400010036,28.604627999689864],[-81.37285699969577,28.604603999646336],[-81.37271199993081,28.604583999737336],[-81.3726059996256,28.604605999715908],[-81.3724990003938,28.604662000070814],[-81.37250900043954,28.60467100037855],[-81.37182200035127,28.60480600017026],[-81.37200599957599,28.60495300016681],[-81.37200099955311,28.604968999880416],[-81.37201099959884,28.604999000026957],[-81.37204699958386,28.605038999683195],[-81.3720840002921,28.605100999987755],[-81.37210000018563,28.60514999987187],[-81.37210000018563,28.605214000168996],[-81.37212799977472,28.605272000256665],[-81.37214899969112,28.605300000260353],[-81.37215200006416,28.60534800002396],[-81.37212100010203,28.605451999699483],[-81.37209699981257,28.60555099993193],[-81.37208599994193,28.605608999833574],[-81.37204599975895,28.60568000002312],[-81.37201300014698,28.60568000002312],[-81.37201099959884,28.605805999885977],[-81.37199600042855,28.60584399997769],[-81.37209400033785,28.60584399997769],[-81.37273600022027,28.605840999908672],[-81.37358599961682,28.60583799983957],[-81.37449000033838,28.605835999793452],[-81.37613700032637,28.605831999701163],[-81.37746799994686,28.605812000025857],[-81.3792649997227,28.605786000205736],[-81.38014199978176,28.605772999898914],[-81.38334299987132,28.605728999637222],[-81.38417800009758,28.605721000232958],[-81.38418300012046,28.605613999959605],[-81.38418999979315,28.605491999971935],[-81.3842509998925,28.60457100007048],[-81.3842640003113,28.604382000363984]],[[-81.38117700002456,28.605019999887794],[-81.38117500037474,28.605140000364155],[-81.3811739996515,28.60521900031381],[-81.38116100013103,28.60524500027427],[-81.38113600001667,28.60526400002893],[-81.38110400022961,28.605270000199827],[-81.3804470002786,28.605196999674927],[-81.37902399969826,28.60503999971378],[-81.37838000016603,28.604979000193094],[-81.37816900027882,28.60496000038688],[-81.37798199978275,28.60492199997543],[-81.37770499977333,28.604837999639805],[-81.3775680004043,28.60479599984112],[-81.37743100013695,28.604779000068056],[-81.37743399961168,28.604879000178155],[-81.37704699999738,28.604888999710766],[-81.37694700043828,28.604879000178155],[-81.37684899963065,28.604858000289138],[-81.3767309996299,28.604816999742532],[-81.37663000024588,28.604767999703114],[-81.37661199980421,28.604755000059004],[-81.3765409996591,28.60470499995685],[-81.3760679998311,28.60422700005048],[-81.37553700027675,28.603702999928156],[-81.37488699999842,28.60305000034018],[-81.37480599980755,28.6029749997496],[-81.37475499975393,28.602927999741357],[-81.37471100027132,28.60290300004724],[-81.37466199986751,28.60288599996789],[-81.37458400004971,28.602877000295937],[-81.37451899975238,28.60288499991673],[-81.37446600004893,28.602900999945252],[-81.37441900019327,28.602926999690606],[-81.37431299988805,28.603020999687022],[-81.37420499993303,28.60313899998299],[-81.3741339997879,28.60323499988542],[-81.37374700017361,28.60299199981455],[-81.37370799981557,28.602963999984496],[-81.3736900002722,28.602956000369705],[-81.37366299960972,28.602944999813918],[-81.37351199999698,28.602937000197628],[-81.373471999814,28.602814000204482],[-81.37343099980613,28.602671999847406],[-81.3734280003314,28.602614999955545],[-81.3734369996539,28.602559000087037],[-81.37344599987473,28.60253300025062],[-81.37356999972329,28.602338999751396],[-81.3736690003558,28.602200999771792],[-81.37391000038023,28.601997999700952],[-81.37396499973352,28.60194399962387],[-81.37401699961204,28.601911000001298],[-81.37406600001584,28.60189800000373],[-81.3741339997879,28.601886000065154],[-81.37419499988727,28.601877000307567],[-81.37430000036758,28.60186699969966],[-81.37449000033838,28.601862000184013],[-81.37465799966955,28.601868999821317],[-81.37472999963957,28.6018760002468],[-81.3749509995725,28.60189800000373],[-81.37501800041797,28.60190899988043],[-81.37508399964192,28.60193000035884],[-81.37514599956617,28.60195999979567],[-81.37516599965768,28.60197399984541],[-81.37520099981776,28.601997999700952],[-81.37545100006302,28.602243999876258],[-81.37551800001017,28.602312999860477],[-81.3756329996379,28.602430000107418],[-81.37565500027753,28.602452999803564],[-81.37585299974593,28.6026449999855],[-81.37600300043206,28.602796000058778],[-81.37708100033258,28.603878000273177],[-81.37710800009675,28.603903999776783],[-81.37728399982385,28.604074999627834],[-81.37734900012119,28.60416700009673],[-81.37738199973313,28.604235000357168],[-81.37740900039564,28.60431900038625],[-81.37742000026628,28.604198999760825],[-81.37743199996187,28.604078999787077],[-81.37744500038065,28.603839000217008],[-81.37744700003046,28.60381299990863],[-81.37745399970316,28.603787000382507],[-81.3774779999926,28.603752999718463],[-81.3774980000841,28.603736999819695],[-81.3775330002442,28.603717999788895],[-81.37757799955172,28.60370900018816],[-81.37762299975756,28.603713000361324],[-81.37820600008875,28.60392499985653],[-81.37826899983794,28.603948000014135],[-81.37850599966441,28.604016999668072],[-81.37902299987336,28.60413999983031],[-81.37928900001212,28.604198999760825],[-81.38016400042136,28.604368999883437],[-81.38040500044579,28.604418000108943],[-81.38059600024151,28.604456999950184],[-81.38104200030534,28.604541999837128],[-81.38113099999381,28.604595000121552],[-81.38115699993307,28.60462699965536],[-81.38116899962863,28.604666000207654],[-81.38117000035186,28.604722999775554],[-81.38117700002456,28.605019999887794]]]},"properties":{"block_id":"120950190003015","school_id":"sch_pace_center_for_girls","kids_est":2,"class":"red","shortest":{"len_m":1954.9,"mean_c":37.27,"peak_c":37.7,"dose":116.0},"coolest":{"len_m":1956.6,"mean_c":37.27,"peak_c":37.7,"dose":115.9},"delta_mean_c":0.0,"delta_dose_pct":0,"distance_mi":0.683,"status_now":"walk","status_rec":"bus_eligible","reason":"Coolest route mean 37.3C exceeds threshold (110 C-min dose, actual 116).","safe_until_hour":"14:00"}},{"type":"Feature","geometry":{"type":"Polygon","coordinates":[[[-81.3865530001817,28.606041000378063],[-81.38655200035682,28.6058460000236],[-81.386466999968,28.605825000327858],[-81.38638999997511,28.605805999885977],[-81.38621000005006,28.60576199963804],[-81.38597999989626,28.60574500002133],[-81.38596599965257,28.60589700039393],[-81.38603699979768,28.605925000231068],[-81.38639599982288,28.606010999740445],[-81.38647399964069,28.606030000145264],[-81.3865530001817,28.606041000378063]]]},"properties":{"block_id":"120950190003009","school_id":"sch_pace_center_for_girls","kids_est":0,"class":"green","shortest":{"len_m":626.2,"mean_c":37.7,"peak_c":37.7,"dose":40.7},"coolest":{"len_m":626.2,"mean_c":37.7,"peak_c":37.7,"dose":40.7},"delta_mean_c":0.0,"delta_dose_pct":0,"distance_mi":0.302,"status_now":"walk","status_rec":"walk","reason":"Shortest route already under threshold (dose 41).","safe_until_hour":null}},{"type":"Feature","geometry":{"type":"Polygon","coordinates":[[[-81.3917479996906,28.59949499976472],[-81.39175899956126,28.59931500037046],[-81.39133500013705,28.599318999922183],[-81.39006399989269,28.599333999620015],[-81.38974099985249,28.599337999959676],[-81.3896410002934,28.599333000323778],[-81.38963799992032,28.59937399985533],[-81.38963100024763,28.599495999848127],[-81.3896289996995,28.599538000187838],[-81.38961899965376,28.599678999966127],[-81.38959100006467,28.600101999743313],[-81.38958299966875,28.600243999629832],[-81.39000699999127,28.6002379999607],[-81.39127999988544,28.600222000315423],[-81.3917050000329,28.60021800000935],[-81.39171500007863,28.600037000197787],[-81.3917479996906,28.59949499976472]]]},"properties":{"block_id":"120950153001015","school_id":"sch_pace_center_for_girls","kids_est":5,"class":"green","shortest":{"len_m":1496.1,"mean_c":37.62,"peak_c":37.7,"dose":95.8},"coolest":{"len_m":1496.1,"mean_c":37.62,"peak_c":37.7,"dose":95.8},"delta_mean_c":0.0,"delta_dose_pct":0,"distance_mi":0.326,"status_now":"walk","status_rec":"walk","reason":"Shortest route already under threshold (dose 96).","safe_until_hour":null}},{"type":"Feature","geometry":{"type":"Polygon","coordinates":[[[-81.39376499957444,28.599472000209865],[-81.39377700016833,28.599293000072787],[-81.3934089999223,28.59928700034936],[-81.39337299993728,28.59928700034936],[-81.39271699981116,28.599303000136988],[-81.39216199996739,28.599308999859513],[-81.39175899956126,28.59931500037046],[-81.3917479996906,28.59949499976472],[-81.39171500007863,28.600037000197787],[-81.3917050000329,28.60021800000935],[-81.39180200011727,28.600213999703122],[-81.39210800043904,28.600210000185456],[-81.39331900040891,28.600195999900716],[-81.39372299974166,28.600192000382428],[-81.3937319999625,28.600011999815855],[-81.39374100018331,28.59984000037101],[-81.39376499957444,28.599472000209865]]]},"properties":{"block_id":"120950153001016","school_id":"sch_pace_center_for_girls","kids_est":3,"class":"red","shortest":{"len_m":1911.9,"mean_c":37.58,"peak_c":37.7,"dose":121.3},"coolest":{"len_m":1911.9,"mean_c":37.58,"peak_c":37.7,"dose":121.3},"delta_mean_c":0.0,"delta_dose_pct":0,"distance_mi":0.446,"status_now":"walk","status_rec":"bus_eligible","reason":"Coolest route mean 37.6C exceeds threshold (110 C-min dose, actual 121).","safe_until_hour":"14:00"}},{"type":"Feature","geometry":{"type":"Polygon","coordinates":[[[-81.38648600023456,28.610116000276747],[-81.38647299981577,28.60925000018717],[-81.38647199999086,28.609121999739514],[-81.38646500031817,28.608476999904184],[-81.3864529997243,28.608225000125078],[-81.38643699983076,28.608189000107277],[-81.38642900033315,28.608105000017826],[-81.38636800023379,28.607724000346067],[-81.3863349997235,28.607476000367846],[-81.38625899955552,28.6070749997687],[-81.38595899997988,28.60707399975742],[-81.38508600011879,28.607093999981146],[-81.38500699957774,28.60709600000325],[-81.38497899998865,28.6074949997191],[-81.38497200031595,28.607599999641515],[-81.3849610004453,28.60776399975346],[-81.38494100035382,28.60804899992085],[-81.38488100007936,28.60890399972715],[-81.38486600001075,28.609134999631923],[-81.38486099998788,28.609188999956338],[-81.38483900024657,28.609418000045064],[-81.38483500004861,28.60946800027015],[-81.38480900010936,28.609747999828794],[-81.3847990000636,28.609885000163345],[-81.38478999984278,28.610020000352765],[-81.38611700016362,28.6100969998223],[-81.38648600023456,28.610116000276747]]]},"properties":{"block_id":"120950180002047","school_id":"sch_pace_center_for_girls","kids_est":3,"class":"green","shortest":{"len_m":904.3,"mean_c":37.68,"peak_c":37.7,"dose":58.6},"coolest":{"len_m":904.3,"mean_c":37.68,"peak_c":37.7,"dose":58.6},"delta_mean_c":0.0,"delta_dose_pct":0,"distance_mi":0.49,"status_now":"walk","status_rec":"walk","reason":"Shortest route already under threshold (dose 59).","safe_until_hour":null}},{"type":"Feature","geometry":{"type":"Polygon","coordinates":[[[-81.38638999997511,28.605805999885977],[-81.38634899996721,28.60439099990701],[-81.38630799995933,28.603512000147344],[-81.38628899969275,28.602496999859827],[-81.38622900031662,28.600977000147143],[-81.38620199965413,28.600677000221044],[-81.38609100022435,28.601318000356027],[-81.38605100004139,28.601648000344113],[-81.386030000125,28.601997999700952],[-81.38603799962259,28.60241600011843],[-81.38606399956186,28.603174000105437],[-81.3860739996076,28.603585000265582],[-81.3860739996076,28.603999999768956],[-81.38606699993491,28.604356000189966],[-81.38606600010999,28.604377000179326],[-81.38604600001851,28.604700999821496],[-81.38601300040655,28.60541600030881],[-81.38597999989626,28.60574500002133],[-81.38621000005006,28.60576199963804],[-81.38638999997511,28.605805999885977]]]},"properties":{"block_id":"120950190003010","school_id":"sch_pace_center_for_girls","kids_est":0,"class":"green","shortest":{"len_m":293.3,"mean_c":37.7,"peak_c":37.7,"dose":19.1},"coolest":{"len_m":293.3,"mean_c":37.7,"peak_c":37.7,"dose":19.1},"delta_mean_c":0.0,"delta_dose_pct":0,"distance_mi":0.152,"status_now":"walk","status_rec":"walk","reason":"Shortest route already under threshold (dose 19).","safe_until_hour":null}},{"type":"Feature","geometry":{"type":"Polygon","coordinates":[[[-81.38620199965413,28.600677000221044],[-81.3861930003316,28.600141999686326],[-81.3861849999357,28.599655000369605],[-81.38613600043018,28.598557000151875],[-81.38609299987418,28.597908999838303],[-81.38604000017074,28.597686999819768],[-81.38601199968332,28.597563999991387],[-81.38584600000198,28.597120000394096],[-81.38568799981823,28.596830000010442],[-81.38568299979535,28.596964999622237],[-81.38568199997043,28.59703199970405],[-81.38568100014552,28.59714900030957],[-81.38567100009979,28.59734899997115],[-81.38566299970385,28.59754599973508],[-81.3856379995895,28.597949999925397],[-81.38562599989395,28.598150999736376],[-81.38561300037347,28.598355000234456],[-81.38559999995469,28.598551000386422],[-81.3855749998403,28.598969000318355],[-81.38556300014476,28.599174000103794],[-81.38555300009901,28.59933699987475],[-81.38552200013689,28.59982700011724],[-81.38551299991605,28.599990999742786],[-81.3855029998703,28.600155999978266],[-81.38550000039557,28.60021900008588],[-81.38546400041055,28.60065199999132],[-81.38545799966445,28.600730000088866],[-81.38554700025122,28.600730000088866],[-81.38583799960605,28.60072699987382],[-81.38620199965413,28.600677000221044]]]},"properties":{"block_id":"120950190003012","school_id":"sch_pace_center_for_girls","kids_est":0,"class":"green","shortest":{"len_m":238.3,"mean_c":37.7,"peak_c":37.7,"dose":15.4},"coolest":{"len_m":238.3,"mean_c":37.7,"peak_c":37.7,"dose":15.4},"delta_mean_c":0.0,"delta_dose_pct":0,"distance_mi":0.162,"status_now":"walk","status_rec":"walk","reason":"Shortest route already under threshold (dose 15).","safe_until_hour":null}},{"type":"Feature","geometry":{"type":"Polygon","coordinates":[[[-81.38417300007471,28.60584199993169],[-81.38417800009758,28.605721000232958],[-81.38334299987132,28.605728999637222],[-81.38014199978176,28.605772999898914],[-81.38015500020055,28.6059210001421],[-81.38163499978396,28.605910999919104],[-81.38244800026891,28.605891000258897],[-81.38269400031622,28.605881000032976],[-81.38295799990685,28.605891000258897],[-81.38328900034296,28.605883000078236],[-81.3835529999336,28.605875999919714],[-81.38417300007471,28.60584199993169]]]},"properties":{"block_id":"120950190003006","school_id":"sch_pace_center_for_girls","kids_est":0,"class":"green","shortest":{"len_m":762.3,"mean_c":37.68,"peak_c":37.7,"dose":49.5},"coolest":{"len_m":764.0,"mean_c":37.68,"peak_c":37.7,"dose":49.4},"delta_mean_c":0.0,"delta_dose_pct":0,"distance_mi":0.366,"status_now":"walk","status_rec":"walk","reason":"Shortest route already under threshold (dose 50).","safe_until_hour":null}},{"type":"Feature","geometry":{"type":"Polygon","coordinates":[[[-81.39163999973556,28.60131099989337],[-81.39164999978131,28.601128000251222],[-81.39122499963386,28.601133999869617],[-81.38995000008987,28.60115499971426],[-81.3899249999755,28.60115599978182],[-81.38952599976733,28.60115599978182],[-81.38951400007178,28.601339000163854],[-81.38947899991169,28.601889000247105],[-81.38946800004102,28.60207300020019],[-81.38989400001337,28.60206799990565],[-81.39061799991156,28.602061000281665],[-81.39117399958025,28.602051999750362],[-81.39160100027581,28.602046000184384],[-81.39160999959834,28.601862000184013],[-81.39163999973556,28.60131099989337]]]},"properties":{"block_id":"120950153001009","school_id":"sch_pace_center_for_girls","kids_est":1,"class":"red","shortest":{"len_m":1959.0,"mean_c":37.58,"peak_c":37.7,"dose":124.5},"coolest":{"len_m":1959.0,"mean_c":37.58,"peak_c":37.7,"dose":124.5},"delta_mean_c":0.0,"delta_dose_pct":0,"distance_mi":0.297,"status_now":"walk","status_rec":"bus_eligible","reason":"Coolest route mean 37.6C exceeds threshold (110 C-min dose, actual 124).","safe_until_hour":"14:00"}},{"type":"Feature","geometry":{"type":"Polygon","coordinates":[[[-81.38332199995492,28.607171000018088],[-81.383313999559,28.606899000003796],[-81.38329000016788,28.606084999720473],[-81.38329000016788,28.606064000072436],[-81.38328900034296,28.605883000078236],[-81.38295799990685,28.605891000258897],[-81.38269400031622,28.605881000032976],[-81.38244800026891,28.605891000258897],[-81.38245099974363,28.606095999947517],[-81.38245499994159,28.606360000319107],[-81.38247000001022,28.606915000209717],[-81.38247800040615,28.60718900020291],[-81.3826459997373,28.607187000182588],[-81.38278499965449,28.607187000182588],[-81.38315299990053,28.607179000100597],[-81.38318899988553,28.607179000100597],[-81.38332199995492,28.607171000018088]]]},"properties":{"block_id":"120950180002037","school_id":"sch_pace_center_for_girls","kids_est":1,"class":"green","shortest":{"len_m":734.6,"mean_c":37.68,"peak_c":37.7,"dose":47.9},"coolest":{"len_m":736.4,"mean_c":37.68,"peak_c":37.7,"dose":47.7},"delta_mean_c":0.0,"delta_dose_pct":0,"distance_mi":0.384,"status_now":"walk","status_rec":"walk","reason":"Shortest route already under threshold (dose 48).","safe_until_hour":null}},{"type":"Feature","geometry":{"type":"Polygon","coordinates":[[[-81.38655200035682,28.6058460000236],[-81.38651100034892,28.604391999943832],[-81.38647399964069,28.60364299967518],[-81.38642699978502,28.601001000230415],[-81.38641400026455,28.6006489997741],[-81.38636800023379,28.600182999690965],[-81.38637099970852,28.599989000374094],[-81.386326000401,28.598800000225314],[-81.3862850003931,28.59811099982423],[-81.3861649998442,28.59732900025878],[-81.38611299996566,28.597217999695538],[-81.3857070000848,28.5963610000056],[-81.38570200006194,28.596495000107844],[-81.38569899968887,28.596567000257053],[-81.38569399966602,28.596682999692607],[-81.38568799981823,28.596830000010442],[-81.38584600000198,28.597120000394096],[-81.38601199968332,28.597563999991387],[-81.38604000017074,28.597686999819768],[-81.38609299987418,28.597908999838303],[-81.38613600043018,28.598557000151875],[-81.3861849999357,28.599655000369605],[-81.3861930003316,28.600141999686326],[-81.38620199965413,28.600677000221044],[-81.38622900031662,28.600977000147143],[-81.38628899969275,28.602496999859827],[-81.38630799995933,28.603512000147344],[-81.38634899996721,28.60439099990701],[-81.38638999997511,28.605805999885977],[-81.386466999968,28.605825000327858],[-81.38655200035682,28.6058460000236]]]},"properties":{"block_id":"120950190003011","school_id":"sch_pace_center_for_girls","kids_est":0,"class":"green","shortest":{"len_m":54.6,"mean_c":37.7,"peak_c":37.7,"dose":3.5},"coolest":{"len_m":54.6,"mean_c":37.7,"peak_c":37.7,"dose":3.5},"delta_mean_c":0.0,"delta_dose_pct":0,"distance_mi":0.052,"status_now":"walk","status_rec":"walk","reason":"Shortest route already under threshold (dose 4).","safe_until_hour":null}}]}