{"type":"FeatureCollection","features":[{"type":"Feature","geometry":{"type":"Polygon","coordinates":[[[-81.4067,28.6078],[-81.398,28.6078],[-81.398,28.62115],[-81.4067,28.62115],[-81.4067,28.6078]]]},"properties":{"block_id":"120951238001006","school_id":"sch_aspire_academy_charter","kids_est":28,"class":"green","shortest":{"len_m":1182.0,"mean_c":36.55,"peak_c":37.75,"dose":58.3},"coolest":{"len_m":1469.7,"mean_c":34.01,"peak_c":35.01,"dose":20.7},"delta_mean_c":-2.54,"delta_dose_pct":-64,"distance_mi":0.588,"status_now":"walk","status_rec":"walk","reason":"Shortest route already under threshold (dose 58).","safe_until_hour":null}},{"type":"Feature","geometry":{"type":"Polygon","coordinates":[[[-81.398,28.6078],[-81.3893,28.6078],[-81.3893,28.62115],[-81.398,28.62115],[-81.398,28.6078]]]},"properties":{"block_id":"120951239001006","school_id":"sch_aspire_academy_charter","kids_est":30,"class":"green","shortest":{"len_m":791.9,"mean_c":38.08,"peak_c":39.28,"dose":55.9},"coolest":{"len_m":876.5,"mean_c":36.72,"peak_c":37.72,"dose":45.3},"delta_mean_c":-1.36,"delta_dose_pct":-19,"distance_mi":0.394,"status_now":"walk","status_rec":"walk","reason":"Shortest route already under threshold (dose 56).","safe_until_hour":null}}]}