{"type":"FeatureCollection","features":[{"type":"Feature","geometry":{"type":"Polygon","coordinates":[[[-81.426,28.496],[-81.412,28.496],[-81.412,28.5156],[-81.426,28.5156],[-81.426,28.496]]]},"properties":{"block_id":"120951236001000","school_id":"sch_legends_academy_charter","kids_est":44,"class":"yellow","shortest":{"len_m":3138.7,"mean_c":36.45,"peak_c":37.65,"dose":150.4},"coolest":{"len_m":3934.1,"mean_c":33.89,"peak_c":34.89,"dose":48.4},"delta_mean_c":-2.56,"delta_dose_pct":-68,"distance_mi":1.56,"status_now":"walk","status_rec":"reroute","reason":"Shortest route exceeds threshold, but coolest route mean 33.9C stays under it (dose 48).","safe_until_hour":null}},{"type":"Feature","geometry":{"type":"Polygon","coordinates":[[[-81.412,28.496],[-81.398,28.496],[-81.398,28.5156],[-81.412,28.5156],[-81.412,28.496]]]},"properties":{"block_id":"120951237001000","school_id":"sch_legends_academy_charter","kids_est":34,"class":"yellow","shortest":{"len_m":3348.6,"mean_c":37.15,"peak_c":38.35,"dose":193.0},"coolest":{"len_m":4130.5,"mean_c":34.31,"peak_c":35.31,"dose":74.9},"delta_mean_c":-2.84,"delta_dose_pct":-61,"distance_mi":1.665,"status_now":"walk","status_rec":"reroute","reason":"Shortest route exceeds threshold, but coolest route mean 34.3C stays under it (dose 75).","safe_until_hour":null}},{"type":"Feature","geometry":{"type":"Polygon","coordinates":[[[-81.426,28.5156],[-81.412,28.5156],[-81.412,28.5352],[-81.426,28.5352],[-81.426,28.5156]]]},"properties":{"block_id":"120951236001001","school_id":"sch_legends_academy_charter","kids_est":17,"class":"green","shortest":{"len_m":606.1,"mean_c":36.48,"peak_c":37.68,"dose":29.3},"coolest":{"len_m":752.8,"mean_c":34.0,"peak_c":35.0,"dose":10.5},"delta_mean_c":-2.48,"delta_dose_pct":-64,"distance_mi":0.301,"status_now":"walk","status_rec":"walk","reason":"Shortest route already under threshold (dose 29).","safe_until_hour":null}}]}