{"type":"FeatureCollection","features":[{"type":"Feature","geometry":{"type":"Polygon","coordinates":[[[-81.4502,28.59445],[-81.4415,28.59445],[-81.4415,28.6078],[-81.4502,28.6078],[-81.4502,28.59445]]]},"properties":{"block_id":"120951233001005","school_id":"sch_rosemont_elementary","kids_est":29,"class":"green","shortest":{"len_m":737.4,"mean_c":35.53,"peak_c":36.73,"dose":25.9},"coolest":{"len_m":810.0,"mean_c":34.93,"peak_c":35.93,"dose":21.7},"delta_mean_c":-0.6,"delta_dose_pct":-16,"distance_mi":0.367,"status_now":"walk","status_rec":"walk","reason":"Shortest route already under threshold (dose 26).","safe_until_hour":null}},{"type":"Feature","geometry":{"type":"Polygon","coordinates":[[[-81.4415,28.59445],[-81.4328,28.59445],[-81.4328,28.6078],[-81.4415,28.6078],[-81.4415,28.59445]]]},"properties":{"block_id":"120951234001005","school_id":"sch_rosemont_elementary","kids_est":36,"class":"green","shortest":{"len_m":562.2,"mean_c":35.58,"peak_c":36.78,"dose":20.1},"coolest":{"len_m":707.3,"mean_c":33.63,"peak_c":34.63,"dose":6.2},"delta_mean_c":-1.95,"delta_dose_pct":-69,"distance_mi":0.279,"status_now":"walk","status_rec":"walk","reason":"Shortest route already under threshold (dose 20).","safe_until_hour":null}},{"type":"Feature","geometry":{"type":"Polygon","coordinates":[[[-81.4328,28.59445],[-81.4241,28.59445],[-81.4241,28.6078],[-81.4328,28.6078],[-81.4328,28.59445]]]},"properties":{"block_id":"120951235001005","school_id":"sch_rosemont_elementary","kids_est":8,"class":"green","shortest":{"len_m":1532.2,"mean_c":35.99,"peak_c":37.19,"dose":63.6},"coolest":{"len_m":1930.6,"mean_c":33.71,"peak_c":34.71,"dose":19.1},"delta_mean_c":-2.28,"delta_dose_pct":-70,"distance_mi":0.762,"status_now":"walk","status_rec":"walk","reason":"Shortest route already under threshold (dose 64).","safe_until_hour":null}}]}