{"type":"FeatureCollection","features":[{"type":"Feature","geometry":{"type":"Polygon","coordinates":[[[-81.44675699996866,28.569617000374674],[-81.44675000029595,28.569477000096967],[-81.44673199985428,28.569056999724033],[-81.44673100002939,28.569031999864958],[-81.44670900028808,28.568972999921606],[-81.44667599977778,28.568932999954615],[-81.44664200034092,28.56891000002582],[-81.44658799991424,28.56889400034684],[-81.44621899984331,28.56889499993237],[-81.44618600023135,28.568896000306836],[-81.44482299992546,28.568915999904803],[-81.44435799959507,28.56892300015766],[-81.44436299961795,28.569069000253844],[-81.44437799968654,28.569507000115838],[-81.44438400043266,28.56965399976891],[-81.44485800008559,28.56964599998629],[-81.4462819995925,28.56962399979201],[-81.44675699996866,28.569617000374674]]]},"properties":{"block_id":"120950120002004","school_id":"sch_mollie_ray_elementary","kids_est":4,"class":"green","shortest":{"len_m":1327.7,"mean_c":38.73,"peak_c":38.9,"dose":106.0},"coolest":{"len_m":1327.7,"mean_c":38.73,"peak_c":38.9,"dose":106.0},"delta_mean_c":0.0,"delta_dose_pct":0,"distance_mi":0.258,"status_now":"walk","status_rec":"walk","reason":"Shortest route already under threshold (dose 106).","safe_until_hour":null}},{"type":"Feature","geometry":{"type":"Polygon","coordinates":[[[-81.45214700036954,28.569940000276578],[-81.45214599964629,28.569923000389533],[-81.45212499972989,28.568656000100844],[-81.4521180000572,28.568577000288084],[-81.45209999961554,28.568464000173147],[-81.45195400002568,28.56846899969905],[-81.45183799967472,28.56846099982633],[-81.45105199985225,28.568343000055116],[-81.45091299993508,28.56831699964649],[-81.45080199960701,28.568289999640125],[-81.45060499996352,28.568231999661524],[-81.4505199995747,28.5682040000413],[-81.45043000006133,28.56816799972964],[-81.45034899987047,28.568128999838347],[-81.44981400011818,28.567821000148584],[-81.44966000013238,28.567739999726953],[-81.4494709999865,28.567664999982235],[-81.44941499991002,28.567647000130236],[-81.44929100006145,28.567615000385725],[-81.44927500016792,28.56761200001471],[-81.44911500033436,28.567582999842575],[-81.44894700010487,28.567568999946996],[-81.44884699964742,28.56756699996177],[-81.44880700036279,28.56756699996177],[-81.44870400043062,28.56757200031925],[-81.44862900008754,28.567578000274526],[-81.44852899963011,28.567592999766806],[-81.44843499991879,28.56761299961241],[-81.44823300025242,28.567674000301547],[-81.448028000213,28.56775400038868],[-81.44786500000637,28.567819000168154],[-81.4479439996491,28.567977999677872],[-81.44797600033448,28.5680419997253],[-81.44808799958913,28.568265000387836],[-81.44815999955917,28.568408999849876],[-81.44818600039676,28.56845299995301],[-81.44821200033601,28.568497999627056],[-81.44829099997874,28.56859699994667],[-81.44833299981153,28.568642999936014],[-81.44839100043617,28.568692999833008],[-81.44844199959147,28.568736999817396],[-81.44873399966951,28.568930999995306],[-81.44885000002049,28.569008999957855],[-81.44901499987692,28.569118000365027],[-81.44915200014427,28.569194999817334],[-81.44931100015293,28.569264999772653],[-81.44946099994077,28.569313000210943],[-81.44983199966151,28.569398999692382],[-81.44988199989024,28.569407000282737],[-81.45074200023085,28.569460000135102],[-81.45090600026239,28.56947199983002],[-81.45106500027104,28.569490999738623],[-81.4511179999745,28.569503999798762],[-81.45117599970081,28.569533000230415],[-81.45123500015036,28.569572999969385],[-81.4512660001125,28.56959999964649],[-81.45131499961798,28.569659000027205],[-81.45136200037197,28.569746000381148],[-81.45139099978597,28.569780999786868],[-81.45142900031912,28.569812999661643],[-81.45147600017476,28.569843000373606],[-81.4515549998175,28.569875999805728],[-81.45160099984825,28.569886999877106],[-81.45176599970469,28.569909000016388],[-81.45204400043737,28.569935999607335],[-81.45214700036954,28.569940000276578]]]},"properties":{"block_id":"120950120001027","school_id":"sch_mollie_ray_elementary","kids_est":17,"class":"green","shortest":{"len_m":761.7,"mean_c":38.85,"peak_c":38.9,"dose":61.9},"coolest":{"len_m":761.7,"mean_c":38.85,"peak_c":38.9,"dose":61.9},"delta_mean_c":0.0,"delta_dose_pct":0,"distance_mi":0.153,"status_now":"walk","status_rec":"walk","reason":"Shortest route already under threshold (dose 62).","safe_until_hour":null}},{"type":"Feature","geometry":{"type":"Polygon","coordinates":[[[-81.44905300041006,28.566080999641592],[-81.449054000235,28.565945000214306],[-81.44904400018925,28.56587400001416],[-81.44903800034145,28.565824999970367],[-81.44901099967896,28.565736999914932],[-81.44897999971683,28.565671000022263],[-81.44894999957958,28.56560700011072],[-81.44890299972394,28.565508000133917],[-81.44881700040852,28.565365000266006],[-81.4487889999211,28.56531800001322],[-81.44873799986748,28.565245000149694],[-81.44862900008754,28.56510199992443],[-81.4485069998888,28.564909999824003],[-81.44839800010885,28.564695000101135],[-81.44838399986516,28.56466199983324],[-81.44833600018458,28.56454999987496],[-81.44826199966641,28.564414999675208],[-81.44819999974214,28.56431299968997],[-81.44818300002372,28.564288999911113],[-81.448104000381,28.56417799997515],[-81.44804599975635,28.564105999740878],[-81.44790400036446,28.563944999849692],[-81.44780599955686,28.563834999973555],[-81.44758899982187,28.563590999938288],[-81.44751900039996,28.56351200026803],[-81.44740499969886,28.56340400000367],[-81.44728400022333,28.563314000224704],[-81.44681999971785,28.562992000139857],[-81.44663700031806,28.56286499981835],[-81.44655100010434,28.562809000081415],[-81.44645300019505,28.562915999736035],[-81.44616299976681,28.563238999692658],[-81.44606599968243,28.56334700012634],[-81.44629400018638,28.56351400033031],[-81.4465360000357,28.563714999690607],[-81.44673799970208,28.563882999732797],[-81.44684400000729,28.563981999660253],[-81.44691599997732,28.56406600029078],[-81.4474149997446,28.564758000153496],[-81.44749199973748,28.56489400032577],[-81.4475279997225,28.56497800022832],[-81.44753299974538,28.565024999844027],[-81.44751900039996,28.56508399963405],[-81.44749199973748,28.565130999991336],[-81.44748099986684,28.565139999738403],[-81.44744999990469,28.565168999794853],[-81.44707900018392,28.565376000020027],[-81.44696299983296,28.565436000020583],[-81.44700300001594,28.565500999653867],[-81.44702599958215,28.56555100025487],[-81.44707300033615,28.565648000169467],[-81.44716000037478,28.56592199963248],[-81.44720100038266,28.566047999808315],[-81.44721899992601,28.566102999787667],[-81.44726800032981,28.566248000241025],[-81.44728000002537,28.56626800034227],[-81.44731199981243,28.566317999789867],[-81.4473300002541,28.566337999877792],[-81.44739300000327,28.566392999705624],[-81.4474149997446,28.5664120001702],[-81.44756500043074,28.56650799968305],[-81.44762700035501,28.56654799978295],[-81.44768500008134,28.566605999900773],[-81.44772799973904,28.566673000391557],[-81.4477539996783,28.5667629996649],[-81.44775899970118,28.56685600004286],[-81.44774299980766,28.56696700031006],[-81.4477179996933,28.56714400025931],[-81.44769900032504,28.567283999696283],[-81.44769799960181,28.567293000048178],[-81.44770000014994,28.567381000380397],[-81.44771600004348,28.567468000250976],[-81.44780399990702,28.56769000016608],[-81.44781499977768,28.56771599994067],[-81.44786500000637,28.567819000168154],[-81.448028000213,28.56775400038868],[-81.44823300025242,28.567674000301547],[-81.44843499991879,28.56761299961241],[-81.44852899963011,28.567592999766806],[-81.44862900008754,28.567578000274526],[-81.44870400043062,28.56757200031925],[-81.44868500016403,28.567326999880457],[-81.44868000014117,28.567229999935527],[-81.4486759999432,28.567118999945738],[-81.44867900031626,28.567005000239515],[-81.44869400038488,28.56689299961895],[-81.44870699990534,28.56683699965845],[-81.44875399976102,28.566704999633565],[-81.44883800032493,28.566539999764142],[-81.44893899970896,28.566386999682788],[-81.44900200035646,28.56627200036211],[-81.44902400009775,28.566214999671143],[-81.44905300041006,28.566080999641592]]]},"properties":{"block_id":"120950120001031","school_id":"sch_mollie_ray_elementary","kids_est":26,"class":"green","shortest":{"len_m":740.3,"mean_c":38.82,"peak_c":38.9,"dose":59.8},"coolest":{"len_m":740.3,"mean_c":38.82,"peak_c":38.9,"dose":59.8},"delta_mean_c":0.0,"delta_dose_pct":0,"distance_mi":0.387,"status_now":"walk","status_rec":"walk","reason":"Shortest route already under threshold (dose 60).","safe_until_hour":null}},{"type":"Feature","geometry":{"type":"Polygon","coordinates":[[[-81.44929199988634,28.564086999648964],[-81.44923800035801,28.563951999644242],[-81.44907599997627,28.563549999867114],[-81.44902300027286,28.56341600038921],[-81.44891600014273,28.563148000132497],[-81.44881900005834,28.56298399985079],[-81.4487949997689,28.56292499967251],[-81.44878399989823,28.56287900033971],[-81.44865900022478,28.562866999892936],[-81.44856899981309,28.56285300015904],[-81.44850000021611,28.562837000348107],[-81.44831899956783,28.56277399993483],[-81.44822900005447,28.562736999699588],[-81.44807900026665,28.562662999979047],[-81.44708699968153,28.562139000213506],[-81.44695799981011,28.56232199985891],[-81.44662700027231,28.562725000025637],[-81.44655100010434,28.562809000081415],[-81.44663700031806,28.56286499981835],[-81.44681999971785,28.562992000139857],[-81.44728400022333,28.563314000224704],[-81.44740499969886,28.56340400000367],[-81.44751900039996,28.56351200026803],[-81.44758899982187,28.563590999938288],[-81.44780599955686,28.563834999973555],[-81.44790400036446,28.563944999849692],[-81.44804599975635,28.564105999740878],[-81.448104000381,28.56417799997515],[-81.44818300002372,28.564288999911113],[-81.44819999974214,28.56431299968997],[-81.44826199966641,28.564414999675208],[-81.44846800042906,28.56434899974245],[-81.44908500019712,28.56415200011544],[-81.44929199988634,28.564086999648964]]]},"properties":{"block_id":"120950120001033","school_id":"sch_mollie_ray_elementary","kids_est":8,"class":"green","shortest":{"len_m":1046.2,"mean_c":38.72,"peak_c":38.9,"dose":83.1},"coolest":{"len_m":1046.2,"mean_c":38.72,"peak_c":38.9,"dose":83.1},"delta_mean_c":0.0,"delta_dose_pct":0,"distance_mi":0.525,"status_now":"walk","status_rec":"walk","reason":"Shortest route already under threshold (dose 83).","safe_until_hour":null}},{"type":"Feature","geometry":{"type":"Polygon","coordinates":[[[-81.45217499995861,28.572448999806667],[-81.45214700036954,28.569940000276578],[-81.45204400043737,28.569935999607335],[-81.45176599970469,28.569909000016388],[-81.45160099984825,28.569886999877106],[-81.4515549998175,28.569875999805728],[-81.45147600017476,28.569843000373606],[-81.45142900031912,28.569812999661643],[-81.45139099978597,28.569780999786868],[-81.45136200037197,28.569746000381148],[-81.45131499961798,28.569659000027205],[-81.4512660001125,28.56959999964649],[-81.45123500015036,28.569572999969385],[-81.45117599970081,28.569533000230415],[-81.4511179999745,28.569503999798762],[-81.45106500027104,28.569490999738623],[-81.45090600026239,28.56947199983002],[-81.45074200023085,28.569460000135102],[-81.44988199989024,28.569407000282737],[-81.44983199966151,28.569398999692382],[-81.44946099994077,28.569313000210943],[-81.44931100015293,28.569264999772653],[-81.44915200014427,28.569194999817334],[-81.44901499987692,28.569118000365027],[-81.44885000002049,28.569008999957855],[-81.44870799973026,28.569205000377305],[-81.44862900008754,28.569353000033537],[-81.448569999638,28.569529999914078],[-81.44855499956938,28.569604000328567],[-81.44854700007177,28.569675999956917],[-81.44854500042194,28.56974300007088],[-81.44858700025475,28.571628000122097],[-81.44859399992744,28.571894000180514],[-81.44860899999605,28.572302999667137],[-81.44914899977123,28.572295999639145],[-81.45027199987757,28.572282000370695],[-81.4504979998334,28.57228499981962],[-81.45058200039729,28.57230200011399],[-81.45076200032234,28.572349999955748],[-81.45115599960933,28.57245599982454],[-81.45119900016535,28.572464000182425],[-81.4512879998538,28.572469999858757],[-81.45162400031279,28.572487999674596],[-81.45167299981827,28.572487000123203],[-81.45197199956901,28.572460999949673],[-81.45217499995861,28.572448999806667]]]},"properties":{"block_id":"120950120001025","school_id":"sch_mollie_ray_elementary","kids_est":7,"class":"green","shortest":{"len_m":20.8,"mean_c":38.9,"peak_c":38.9,"dose":1.7},"coolest":{"len_m":20.8,"mean_c":38.9,"peak_c":38.9,"dose":1.7},"delta_mean_c":0.0,"delta_dose_pct":0,"distance_mi":0.055,"status_now":"walk","status_rec":"walk","reason":"Shortest route already under threshold (dose 2).","safe_until_hour":null}},{"type":"Feature","geometry":{"type":"Polygon","coordinates":[[[-81.44790199981631,28.572984000050937],[-81.44786300035656,28.572951000015756],[-81.44780899992989,28.572874999704258],[-81.44777600031793,28.572808000006884],[-81.4477539996783,28.572729000155903],[-81.4477250002643,28.57245500027278],[-81.44772299971616,28.572429999643276],[-81.44771500021857,28.57231200037865],[-81.44754000031638,28.572314999826734],[-81.44726699960658,28.57231999995857],[-81.4472249997738,28.572318000063646],[-81.44701899990947,28.572293999743763],[-81.44698499957428,28.572291000295095],[-81.44684499983221,28.57228699971519],[-81.44684400000729,28.572325999643105],[-81.44682899993867,28.57242200007173],[-81.44682200026598,28.572457999716832],[-81.44679100030383,28.572540000001904],[-81.44675500031883,28.57257899983611],[-81.44670699973993,28.572604999980484],[-81.44665099966345,28.57261700010564],[-81.44641600038511,28.57262000033394],[-81.44469599970388,28.572645999679256],[-81.44464499965025,28.572654000022712],[-81.44459799979458,28.572675000033826],[-81.44456099998466,28.572706999817328],[-81.4445359998703,28.572746999927432],[-81.44452499999964,28.572792000131727],[-81.44452499999964,28.572806999669613],[-81.44453099984743,28.573088999735205],[-81.44454300044131,28.573329999628694],[-81.44455900033483,28.573386000078084],[-81.44459500031985,28.573455999611824],[-81.44469300022914,28.573425999930016],[-81.44481000040501,28.57341599977123],[-81.44502600031508,28.573412000023023],[-81.44633500019427,28.573391999701837],[-81.44661700022657,28.5733879999527],[-81.44667199957983,28.573394000365244],[-81.44672199980855,28.573413999897145],[-81.44675799979356,28.573441999708812],[-81.4467800004332,28.57346599976682],[-81.44679200012875,28.57348799994666],[-81.44680600037246,28.573534999705824],[-81.44681999971785,28.57400699995024],[-81.44680899984719,28.57405199961566],[-81.44678600028097,28.574093999864477],[-81.44674400044818,28.574127999865784],[-81.44672099998364,28.574136999632266],[-81.44669000002152,28.5741510002317],[-81.4466470003638,28.574156999811816],[-81.44551800040965,28.57417300026829],[-81.44532199969277,28.574183999890405],[-81.44517799975272,28.57420200020193],[-81.44498899960682,28.574239999885208],[-81.44449700041056,28.574388000347916],[-81.44402600023236,28.574530000254917],[-81.4437759999871,28.574597999964727],[-81.4438179998199,28.57469099972879],[-81.44388099956909,28.574794000228213],[-81.443957999562,28.57489199982855],[-81.44401399963849,28.574948000235388],[-81.44436199979303,28.57525199989515],[-81.44453000002251,28.57539900019921],[-81.44470800029775,28.575261999879416],[-81.44483700016919,28.575175000142217],[-81.44491800036003,28.575130000168322],[-81.44493099988051,28.575123000328443],[-81.44500600022359,28.575088000333114],[-81.4450909997141,28.575055000169083],[-81.4452609995934,28.575000999663175],[-81.44535799967777,28.574978000272008],[-81.4455209998844,28.574958000248532],[-81.4456980003347,28.574951999925197],[-81.44636799980623,28.574943000228448],[-81.4464089998141,28.574943000228448],[-81.44685599970285,28.57494100038337],[-81.44703800017605,28.574938000221266],[-81.44745099972961,28.574933000213854],[-81.44758700017204,28.574933000213854],[-81.44777100029505,28.574933999742015],[-81.44777100029505,28.574883999655295],[-81.44777100029505,28.57473799973941],[-81.44777200011997,28.57468899987893],[-81.44776799992201,28.57452200005414],[-81.44775600022643,28.574023999966336],[-81.44775600022643,28.57400000003563],[-81.4477660002722,28.573858999740512],[-81.44777399976981,28.573769999764625],[-81.44777100029505,28.573675999646333],[-81.44776200007423,28.573272000061554],[-81.44776700009709,28.573208000039685],[-81.44778600036368,28.573143999978875],[-81.44779300003637,28.57313000003435],[-81.44781899997564,28.573084999974558],[-81.44790199981631,28.572984000050937]]]},"properties":{"block_id":"120950120001016","school_id":"sch_mollie_ray_elementary","kids_est":19,"class":"green","shortest":{"len_m":338.5,"mean_c":38.79,"peak_c":38.9,"dose":27.3},"coolest":{"len_m":338.5,"mean_c":38.79,"peak_c":38.9,"dose":27.3},"delta_mean_c":0.0,"delta_dose_pct":0,"distance_mi":0.218,"status_now":"walk","status_rec":"walk","reason":"Shortest route already under threshold (dose 27).","safe_until_hour":null}},{"type":"Feature","geometry":{"type":"Polygon","coordinates":[[[-81.45451700043078,28.572146000279865],[-81.45451999990551,28.571239999886856],[-81.45450499983691,28.571196999723945],[-81.45448300009559,28.571172999937215],[-81.45445399978328,28.57115600024939],[-81.45442100017131,28.571147999792032],[-81.45436099989685,28.571147999792032],[-81.45396900025969,28.571149999709178],[-81.45351800017299,28.571151999626313],[-81.45327700014856,28.571154000332328],[-81.45324600018643,28.5711620000003],[-81.45320400035364,28.57118399987305],[-81.45318900028501,28.571205999741156],[-81.45317500004131,28.571246999985114],[-81.45317500004131,28.571288999775934],[-81.45318900028501,28.57132499980867],[-81.45321400039937,28.57135599965171],[-81.45350099955623,28.571552999993028],[-81.45357800044745,28.57161999970068],[-81.45360299966349,28.57165399971261],[-81.45361899955702,28.57169299987519],[-81.45362199993006,28.57174899961814],[-81.45360900040959,28.571787999745503],[-81.4535769997242,28.571887999682403],[-81.45358000009728,28.57191999970529],[-81.4535969998157,28.571949000259966],[-81.45362799977785,28.57196999962287],[-81.45376500004518,28.5720049998666],[-81.45406299997103,28.572091000303388],[-81.45421000028412,28.572132000202522],[-81.45425499959164,28.572139999796132],[-81.45443600023994,28.572148000178057],[-81.45444899976039,28.572146999834505],[-81.45451700043078,28.572146000279865]]]},"properties":{"block_id":"120950121002005","school_id":"sch_mollie_ray_elementary","kids_est":16,"class":"green","shortest":{"len_m":769.4,"mean_c":38.81,"peak_c":38.9,"dose":62.0},"coolest":{"len_m":769.4,"mean_c":38.81,"peak_c":38.9,"dose":62.0},"delta_mean_c":0.0,"delta_dose_pct":0,"distance_mi":0.283,"status_now":"walk","status_rec":"walk","reason":"Shortest route already under threshold (dose 62).","safe_until_hour":null}},{"type":"Feature","geometry":{"type":"Polygon","coordinates":[[[-81.45451400005773,28.56786600009291],[-81.45450999985977,28.5678199997639],[-81.45448800011846,28.56774100011239],[-81.45446600037715,28.567694999728747],[-81.45442000034639,28.567627000291044],[-81.45434800037638,28.56754900009303],[-81.45418900036772,28.567376999613792],[-81.45399000017609,28.567168000176],[-81.45377799956566,28.566945000344568],[-81.45367999965637,28.566836000053367],[-81.45362699995293,28.566766999665884],[-81.45354999996005,28.56662500032689],[-81.45348899986067,28.566474999983672],[-81.45338099990563,28.566208999638157],[-81.45322100007206,28.56581400026334],[-81.45305799986544,28.565407000037744],[-81.45279799957444,28.564745999921026],[-81.45277900020618,28.56467400007529],[-81.45277900020618,28.56461300001411],[-81.45279500009973,28.564562000129754],[-81.4528140003663,28.56452899982017],[-81.45302000023062,28.56427599999573],[-81.45266600022828,28.564045000139416],[-81.45179099981904,28.563473999866225],[-81.45170799997838,28.563427000346863],[-81.45159199962742,28.56338200008238],[-81.45152800005333,28.563364999924815],[-81.45145199988535,28.563351000257164],[-81.45137900009041,28.563343999633634],[-81.45129100022686,28.56334700012634],[-81.45117599970081,28.563362000221613],[-81.45127699998315,28.563593999634964],[-81.45153200025129,28.564229000045568],[-81.45166500032066,28.564558999671707],[-81.45177699957534,28.56485000031248],[-81.45212399990498,28.565703000357924],[-81.45257699964152,28.566838999657556],[-81.45280500014546,28.567409000219648],[-81.45281600001611,28.56745299995197],[-81.45281600001611,28.567509000373615],[-81.452752000442,28.567723000273407],[-81.45306500043645,28.56779799997673],[-81.45307700013201,28.567801999938364],[-81.45315400012491,28.567827999685345],[-81.45398299960507,28.56823300004229],[-81.45428399990396,28.56838100027671],[-81.45434099980537,28.568275999838676],[-81.45440100007983,28.56817700000594],[-81.45446399982902,28.56807600010452],[-81.4544849997454,28.56803199984374],[-81.45449899998913,28.567990999924874],[-81.45451400005773,28.56786600009291]]]},"properties":{"block_id":"120950121002009","school_id":"sch_mollie_ray_elementary","kids_est":19,"class":"red","shortest":{"len_m":1421.5,"mean_c":38.85,"peak_c":38.9,"dose":115.5},"coolest":{"len_m":1421.5,"mean_c":38.85,"peak_c":38.9,"dose":115.5},"delta_mean_c":0.0,"delta_dose_pct":0,"distance_mi":0.395,"status_now":"walk","status_rec":"bus_eligible","reason":"Coolest route mean 38.9C exceeds threshold (110 C-min dose, actual 116).","safe_until_hour":"14:00"}},{"type":"Feature","geometry":{"type":"Polygon","coordinates":[[[-81.45125699989167,28.572592000303562],[-81.4512879998538,28.572469999858757],[-81.45119900016535,28.572464000182425],[-81.45115599960933,28.57245599982454],[-81.45076200032234,28.572349999955748],[-81.45058200039729,28.57230200011399],[-81.4504979998334,28.57228499981962],[-81.45027199987757,28.572282000370695],[-81.44914899977123,28.572295999639145],[-81.44860899999605,28.572302999667137],[-81.44842999989592,28.572304000009204],[-81.44789299959548,28.572309999694657],[-81.44771500021857,28.57231200037865],[-81.44772299971616,28.572429999643276],[-81.4477250002643,28.57245500027278],[-81.4477539996783,28.572729000155903],[-81.44777600031793,28.572808000006884],[-81.44780899992989,28.572874999704258],[-81.44786300035656,28.572951000015756],[-81.44790199981631,28.572984000050937],[-81.44797999963411,28.573034999797965],[-81.44805900017515,28.573067999806746],[-81.44815100023666,28.573088999735205],[-81.44818899987149,28.573091999950055],[-81.44834299985727,28.573091999950055],[-81.44854100022398,28.57308699985491],[-81.44871399957805,28.57308300009419],[-81.44959900003302,28.573072999902795],[-81.45043000006133,28.573058999948817],[-81.45053100034366,28.573064000045285],[-81.45091299993508,28.57308300009419],[-81.45119400014248,28.5730900000698],[-81.45119900016535,28.572963999648376],[-81.45120400018823,28.572851999848307],[-81.45122000008173,28.57273800004205],[-81.45125699989167,28.572592000303562]]]},"properties":{"block_id":"120950120001022","school_id":"sch_mollie_ray_elementary","kids_est":15,"class":"green","shortest":{"len_m":163.8,"mean_c":38.82,"peak_c":38.9,"dose":13.3},"coolest":{"len_m":163.8,"mean_c":38.82,"peak_c":38.9,"dose":13.3},"delta_mean_c":0.0,"delta_dose_pct":0,"distance_mi":0.128,"status_now":"walk","status_rec":"walk","reason":"Shortest route already under threshold (dose 13).","safe_until_hour":null}},{"type":"Feature","geometry":{"type":"Polygon","coordinates":[[[-81.44829099997874,28.56859699994667],[-81.44821200033601,28.568497999627056],[-81.44818600039676,28.56845299995301],[-81.44815999955917,28.568408999849876],[-81.44808799958913,28.568265000387836],[-81.44797600033448,28.5680419997253],[-81.4479439996491,28.567977999677872],[-81.44786500000637,28.567819000168154],[-81.44781499977768,28.56771599994067],[-81.44780399990702,28.56769000016608],[-81.44771600004348,28.567468000250976],[-81.44770000014994,28.567381000380397],[-81.44769799960181,28.567293000048178],[-81.44769900032504,28.567283999696283],[-81.4477179996933,28.56714400025931],[-81.44753299974538,28.56713299990119],[-81.44746800034636,28.56713499989467],[-81.4473939998282,28.567146000252592],[-81.44731000016262,28.567170999770706],[-81.44728900024622,28.567178000139666],[-81.44639000044586,28.56754500012178],[-81.44633199982121,28.567553000064116],[-81.44618799988118,28.567533999805576],[-81.44614900042141,28.56753300020706],[-81.44586900003894,28.567525999861726],[-81.44573699979446,28.567525999861726],[-81.44573400031972,28.56740199986607],[-81.44572799957362,28.56703100018341],[-81.44572799957362,28.56701399982637],[-81.44572000007602,28.566907999997778],[-81.44570699965723,28.56683499965932],[-81.44569099976371,28.56677800006226],[-81.44562100034182,28.566589999871475],[-81.44552400025744,28.566325999825494],[-81.4454859997243,28.566254999882414],[-81.44545800013522,28.56621299966018],[-81.44539000036315,28.56612600032999],[-81.44507399999564,28.565767000211018],[-81.44485399988763,28.565516999848796],[-81.44468400000831,28.565322999688583],[-81.44459699996966,28.56522400023359],[-81.44457000020549,28.565170000204752],[-81.44456000015975,28.565122999864872],[-81.44456400035772,28.564867999853902],[-81.4445769998782,28.564827000280264],[-81.44460000034273,28.564789999977787],[-81.44474199973462,28.56466599991408],[-81.4449359999034,28.56449800033279],[-81.44505899992704,28.56439099991962],[-81.44526499979136,28.56421299965489],[-81.4454089997314,28.564079000232066],[-81.44542100032528,28.56406400023898],[-81.44553199975503,28.563944999849692],[-81.44554699982365,28.563927999783125],[-81.44517100008004,28.56364700004809],[-81.44514500014076,28.56361400024057],[-81.44511099980556,28.56354399968217],[-81.44508900006426,28.56348400018091],[-81.44505499972908,28.56342199979245],[-81.4450210002922,28.56338099965547],[-81.44494299957607,28.56332100006129],[-81.44488499984976,28.563290999856864],[-81.44482600029853,28.563270999978815],[-81.44456199980957,28.56321699973683],[-81.44450499990818,28.56343299974953],[-81.44446800009824,28.563510000205696],[-81.44432499998311,28.56361000011976],[-81.44418799971575,28.563664999795318],[-81.44378199983491,28.563867000078485],[-81.44363899971977,28.56394000010886],[-81.44346499964249,28.564032999825653],[-81.44313400010469,28.564248000111924],[-81.44257300041313,28.56473199964803],[-81.4425919997814,28.564764999893963],[-81.44261100004796,28.564869999890423],[-81.44261699989575,28.565155999988217],[-81.44256699966704,28.565320999660674],[-81.44245500041235,28.56549700039375],[-81.44235499995493,28.565613000178047],[-81.44234300025936,28.565761000152484],[-81.44229300003065,28.565888000135242],[-81.44224299980192,28.565965000373183],[-81.44204199996048,28.56617599984499],[-81.44189999967027,28.566327999834293],[-81.44175099970735,28.56653700015143],[-81.44171300007251,28.566585999863772],[-81.44168799995816,28.566653000367292],[-81.4416700004148,28.566746000053485],[-81.441656999996,28.566983000282022],[-81.4416639996687,28.567120000337102],[-81.44162000018609,28.567350999755455],[-81.44147000039827,28.5676869997972],[-81.44140799957567,28.567979000061055],[-81.44122099997792,28.56825400014691],[-81.4411210004188,28.56834199967538],[-81.44062900032421,28.568749000383708],[-81.4400929998487,28.56902400003505],[-81.43997400002301,28.569067999881028],[-81.43893999960511,28.569437000321507],[-81.43892700008465,28.569441999801228],[-81.4387909996422,28.56956100028593],[-81.43946000018711,28.570858999922663],[-81.439501000195,28.570913000187883],[-81.43952799995917,28.57097399975286],[-81.43953399980695,28.571009999893363],[-81.43953999965473,28.571038000344835],[-81.43955399989844,28.57152299976859],[-81.4395589999213,28.571694999781993],[-81.43959499990632,28.57286900005103],[-81.43959499990632,28.57299900035036],[-81.43958599968548,28.573065000380137],[-81.43957099961689,28.573131000368505],[-81.43954999970047,28.573194999648347],[-81.43952200011138,28.573256999801057],[-81.43948899960112,28.57331700004135],[-81.43945000014136,28.573374000040648],[-81.43940499993552,28.573427999803947],[-81.43935600043002,28.573479000124646],[-81.43924299955381,28.573568000346672],[-81.43913799997183,28.57362599975062],[-81.43903300038986,28.573685000240392],[-81.43900300025261,28.573702000308526],[-81.43912700010117,28.57376200029496],[-81.43922800038351,28.57383200036737],[-81.43938599966896,28.573909000314405],[-81.43951700008851,28.573913000043717],[-81.43965199980772,28.573935999667714],[-81.43977700037951,28.573930000075006],[-81.43989899967993,28.57392399969301],[-81.44002199970359,28.57392399969301],[-81.44012999965861,28.57392399969301],[-81.44022300044335,28.573950999831407],[-81.44025400040549,28.573971000046313],[-81.4403260003755,28.574052999941095],[-81.44041000004111,28.574117000237827],[-81.44046500029269,28.57414199967751],[-81.4405239998439,28.574154999951816],[-81.44104000022794,28.574156000276286],[-81.44121299958199,28.574153999627345],[-81.44173099961584,28.5741510002317],[-81.44190499969312,28.5741510002317],[-81.44208100031854,28.574149000371587],[-81.44261199987287,28.574144999862327],[-81.4427890003232,28.574144000326683],[-81.44278599995013,28.5739559998855],[-81.4427829995771,28.573635999889447],[-81.44277400025459,28.573394000365244],[-81.4427680004068,28.573206999706205],[-81.44286399976795,28.57320199961652],[-81.44290700032397,28.57319599998193],[-81.44294699960862,28.573183000378034],[-81.44306600033264,28.573149000071307],[-81.44327100037204,28.573076999663886],[-81.4433249999004,28.573071000022185],[-81.44347600041145,28.57306700026085],[-81.44365899981123,28.573064000045285],[-81.4436489997655,28.57282899998726],[-81.4436210001764,28.572125999718],[-81.44361199995559,28.571892000277487],[-81.44432400015819,28.571880999626806],[-81.44646200041586,28.57184999993849],[-81.44661800005149,28.57184800003465],[-81.44665999988428,28.57184999993849],[-81.44670000006725,28.5718609998035],[-81.44673699987716,28.571880000069648],[-81.44676600018948,28.57190699994368],[-81.44678799993079,28.571938999960775],[-81.44680600037246,28.572006000211502],[-81.44681200022023,28.57211800012327],[-81.44683399996156,28.572210999712876],[-81.44684499983221,28.57228699971519],[-81.44698499957428,28.572291000295095],[-81.44701899990947,28.572293999743763],[-81.4472249997738,28.572318000063646],[-81.44726699960658,28.57231999995857],[-81.44754000031638,28.572314999826734],[-81.44771500021857,28.57231200037865],[-81.44771000019568,28.571878000166354],[-81.44770000014994,28.571522000208024],[-81.44765099974613,28.56967700032397],[-81.44766400016492,28.569524000070103],[-81.44769400030216,28.569358999887267],[-81.44771199984551,28.569302000079556],[-81.44775000037866,28.56920700033141],[-81.44776700009709,28.569171999945866],[-81.44780100043229,28.569105000257256],[-81.44785999998352,28.56900700000001],[-81.44792199990779,28.568921000198173],[-81.447992000228,28.56884100020937],[-81.44807199969563,28.568761999746542],[-81.4481970002674,28.5686589996532],[-81.44829099997874,28.56859699994667]],[[-81.4467679998393,28.57016199970998],[-81.44676899966422,28.570187999662704],[-81.44675000029595,28.57023500010719],[-81.44671000011299,28.570279999808076],[-81.44666999993001,28.57030399979845],[-81.44661600040165,28.570318999691022],[-81.44626300022423,28.570325000278608],[-81.44569999998453,28.570334999942247],[-81.44489900009346,28.570344000033195],[-81.44457400040345,28.5703490002587],[-81.44451900015186,28.570334999942247],[-81.44446999974808,28.570309000025855],[-81.44445700022759,28.570297999998598],[-81.44442600026545,28.5702579997463],[-81.44440699999888,28.57021199967411],[-81.44440299980093,28.57017999992068],[-81.44440199997601,28.5701630000724],[-81.4443879997323,28.569784999673132],[-81.44438400043266,28.56965399976891],[-81.44437799968654,28.569507000115838],[-81.44436299961795,28.569069000253844],[-81.44435799959507,28.56892300015766],[-81.44482299992546,28.568915999904803],[-81.44618600023135,28.568896000306836],[-81.44621899984331,28.56889499993237],[-81.44658799991424,28.56889400034684],[-81.44664200034092,28.56891000002582],[-81.44667599977778,28.568932999954615],[-81.44670900028808,28.568972999921606],[-81.44673100002939,28.569031999864958],[-81.44673199985428,28.569056999724033],[-81.44675000029595,28.569477000096967],[-81.44675699996866,28.569617000374674],[-81.44675899961848,28.5697529997899],[-81.4467679998393,28.57016199970998]],[[-81.4427680004068,28.572034999953612],[-81.44277400025459,28.57231200037865],[-81.442754999988,28.572378000050538],[-81.44271700035317,28.57243699966236],[-81.44267999964494,28.572473000091254],[-81.44263299978927,28.57249900026182],[-81.44258000008581,28.572511999950244],[-81.44156699958432,28.57252099985495],[-81.44115200038094,28.572524999637047],[-81.44059699963886,28.572522000194958],[-81.44059199961598,28.57238699996672],[-81.44057800027059,28.571981999820455],[-81.44057400007263,28.571846999688248],[-81.4415440000181,28.571839999629912],[-81.4425509997735,28.571833999917654],[-81.44262299974353,28.571853999746097],[-81.4426849996678,28.571892000277487],[-81.44273200042178,28.571942000208427],[-81.4427609998358,28.572002999965697],[-81.4427680004068,28.572034999953612]],[[-81.44272200037605,28.57092000030788],[-81.44271499980503,28.57098799998428],[-81.44269600043677,28.571035999636607],[-81.44266700012446,28.571078999865318],[-81.44262299974353,28.571113000052136],[-81.4425719996899,28.57113699985248],[-81.44251499978849,28.571149000145077],[-81.44165500034619,28.571154000332328],[-81.44054899995827,28.57116099964737],[-81.4405439999354,28.57102400012],[-81.44052899986679,28.57061499960605],[-81.44052499966882,28.57047899972716],[-81.44051999964594,28.570342999672555],[-81.44050499957734,28.569935000031627],[-81.44050100027769,28.569799999639695],[-81.4416069997673,28.569793000234124],[-81.44246000043523,28.569787999982193],[-81.44251200031376,28.569793000234124],[-81.44257599988786,28.569817000335565],[-81.44261699989575,28.569845000315574],[-81.44265299988076,28.569882999994732],[-81.44267700017019,28.56992700027038],[-81.44268899986577,28.56997499961778],[-81.44272200037605,28.57092000030788]]]},"properties":{"block_id":"120950120002000","school_id":"sch_mollie_ray_elementary","kids_est":79,"class":"green","shortest":{"len_m":1016.2,"mean_c":38.72,"peak_c":38.9,"dose":81.0},"coolest":{"len_m":1016.2,"mean_c":38.72,"peak_c":38.9,"dose":81.0},"delta_mean_c":0.0,"delta_dose_pct":0,"distance_mi":0.373,"status_now":"walk","status_rec":"walk","reason":"Shortest route already under threshold (dose 81).","safe_until_hour":null}},{"type":"Feature","geometry":{"type":"Polygon","coordinates":[[[-81.45074100040596,28.567813999822423],[-81.4507380000329,28.56775199961801],[-81.45072200013938,28.567674999898728],[-81.45068799980419,28.56757299991733],[-81.45044599995484,28.566969999910505],[-81.45032200010628,28.566659999981734],[-81.45011700006688,28.56672400004186],[-81.45005099994464,28.566750000055116],[-81.44997899997462,28.566780000062487],[-81.4499210002483,28.566808999667003],[-81.44987400039263,28.566840000051577],[-81.44982400016393,28.566878999631633],[-81.44977899995807,28.566923000374477],[-81.44970600016315,28.567015999822114],[-81.44964400023888,28.56712400032451],[-81.44952899971281,28.567385000357884],[-81.44941499991002,28.567647000130236],[-81.4494709999865,28.567664999982235],[-81.44966000013238,28.567739999726953],[-81.44981400011818,28.567821000148584],[-81.45034899987047,28.568128999838347],[-81.45043000006133,28.56816799972964],[-81.4505199995747,28.5682040000413],[-81.45060499996352,28.568231999661524],[-81.4506459999714,28.568134000169106],[-81.45072100031445,28.567918000337702],[-81.45072799998717,28.56789999973998],[-81.45074100040596,28.567813999822423]]]},"properties":{"block_id":"120950120001029","school_id":"sch_mollie_ray_elementary","kids_est":0,"class":"green","shortest":{"len_m":630.7,"mean_c":38.86,"peak_c":38.9,"dose":51.3},"coolest":{"len_m":630.7,"mean_c":38.86,"peak_c":38.9,"dose":51.3},"delta_mean_c":0.0,"delta_dose_pct":0,"distance_mi":0.235,"status_now":"walk","status_rec":"walk","reason":"Shortest route already under threshold (dose 51).","safe_until_hour":null}},{"type":"Feature","geometry":{"type":"Polygon","coordinates":[[[-81.44813699999295,28.56030700033889],[-81.4481470000387,28.560265000110043],[-81.44810000018303,28.560244999657],[-81.44776000042441,28.560039999725642],[-81.44744499988182,28.559931999843762],[-81.44737799993469,28.559893999727418],[-81.4472819996752,28.559820000375172],[-81.44714100010822,28.559724000284895],[-81.44708000000884,28.55969899978677],[-81.44701100041188,28.559681999823447],[-81.44693299969575,28.559679999688342],[-81.44679100030383,28.559700000248668],[-81.44671400031095,28.559702000383393],[-81.44666599973205,28.559691999709383],[-81.44659399976203,28.559659999913166],[-81.44639100027075,28.559514000176843],[-81.44619600027708,28.55940900036025],[-81.44617899966033,28.559397999982625],[-81.44614699987328,28.55935800032131],[-81.44611199971318,28.559268999915833],[-81.4458449997495,28.559373000196093],[-81.44554000015097,28.55949400037013],[-81.44550199961782,28.559625999971008],[-81.4454220001502,28.55992999971335],[-81.4449939996297,28.56156999995597],[-81.44476100000121,28.562464999916536],[-81.44456199980957,28.56321699973683],[-81.44482600029853,28.563270999978815],[-81.44488499984976,28.563290999856864],[-81.44494299957607,28.56332100006129],[-81.4450210002922,28.56338099965547],[-81.44505499972908,28.56342199979245],[-81.44508900006426,28.56348400018091],[-81.44511099980556,28.56354399968217],[-81.44514500014076,28.56361400024057],[-81.44517100008004,28.56364700004809],[-81.44554699982365,28.563927999783125],[-81.44564999975582,28.563811000085693],[-81.44596100010045,28.56346299991342],[-81.44606599968243,28.56334700012634],[-81.44616299976681,28.563238999692658],[-81.44645300019505,28.562915999736035],[-81.44655100010434,28.562809000081415],[-81.44662700027231,28.562725000025637],[-81.44695799981011,28.56232199985891],[-81.44708699968153,28.562139000213506],[-81.44751100000406,28.561528999886523],[-81.44773199993699,28.56125200026917],[-81.4479570000679,28.560898999640646],[-81.44807400024376,28.560624999724674],[-81.44813699999295,28.56030700033889]]]},"properties":{"block_id":"120950120002005","school_id":"sch_mollie_ray_elementary","kids_est":4,"class":"green","shortest":{"len_m":1337.2,"mean_c":38.56,"peak_c":38.9,"dose":103.2},"coolest":{"len_m":1337.2,"mean_c":38.56,"peak_c":38.9,"dose":103.2},"delta_mean_c":0.0,"delta_dose_pct":0,"distance_mi":0.674,"status_now":"walk","status_rec":"walk","reason":"Shortest route already under threshold (dose 103).","safe_until_hour":null}},{"type":"Feature","geometry":{"type":"Polygon","coordinates":[[[-81.44731199981243,28.566317999789867],[-81.44728000002537,28.56626800034227],[-81.44726800032981,28.566248000241025],[-81.44721899992601,28.566102999787667],[-81.44720100038266,28.566047999808315],[-81.44716000037478,28.56592199963248],[-81.44707300033615,28.565648000169467],[-81.44702599958215,28.56555100025487],[-81.44700300001594,28.565500999653867],[-81.44696299983296,28.565436000020583],[-81.44686200044896,28.56528600034947],[-81.44671299958773,28.565103000334954],[-81.44632199977548,28.56462100017934],[-81.44622999971396,28.564524999734125],[-81.44617500036068,28.564473999807205],[-81.4458520003205,28.56420900034577],[-81.44553199975503,28.563944999849692],[-81.44542100032528,28.56406400023898],[-81.4454089997314,28.564079000232066],[-81.44526499979136,28.56421299965489],[-81.44505899992704,28.56439099991962],[-81.4449359999034,28.56449800033279],[-81.4453529996549,28.56484899989955],[-81.44552900028032,28.56499700015944],[-81.44565999980156,28.565128000338476],[-81.4460990001927,28.565669999617132],[-81.446197000102,28.56579600009469],[-81.4462670004222,28.56591200033837],[-81.44636199995844,28.56611899989106],[-81.44642600043085,28.566258999902683],[-81.44659399976203,28.566613000307314],[-81.44673799970208,28.566553999796614],[-81.44717000042053,28.56638000005014],[-81.44722700032193,28.566357999961976],[-81.44731199981243,28.566317999789867]]]},"properties":{"block_id":"120950120001037","school_id":"sch_mollie_ray_elementary","kids_est":13,"class":"green","shortest":{"len_m":769.1,"mean_c":38.8,"peak_c":38.9,"dose":62.0},"coolest":{"len_m":769.1,"mean_c":38.8,"peak_c":38.9,"dose":62.0},"delta_mean_c":0.0,"delta_dose_pct":0,"distance_mi":0.429,"status_now":"walk","status_rec":"walk","reason":"Shortest route already under threshold (dose 62).","safe_until_hour":null}},{"type":"Feature","geometry":{"type":"Polygon","coordinates":[[[-81.4510970000581,28.57410700014471],[-81.45114899993662,28.57390400025809],[-81.45085900040674,28.57386300026065],[-81.4507170001165,28.57385500000914],[-81.45047400044226,28.573856999874838],[-81.45011600024198,28.573860999606136],[-81.44844199959147,28.573885999895577],[-81.44824400012307,28.573889000087693],[-81.44806800039598,28.573884000030425],[-81.4477660002722,28.573858999740512],[-81.44775600022643,28.57400000003563],[-81.44775600022643,28.574023999966336],[-81.44776799992201,28.57452200005414],[-81.44777200011997,28.57468899987893],[-81.44839999975868,28.57468099969024],[-81.44986000014895,28.574663999780324],[-81.44995999970804,28.57467199997031],[-81.4501389998082,28.574702999616004],[-81.45027900044859,28.574742000226127],[-81.45075700029946,28.574878999645314],[-81.45088299979786,28.57492000003569],[-81.45091600030813,28.574829000321365],[-81.4509430000723,28.574718999989425],[-81.4510970000581,28.57410700014471]]]},"properties":{"block_id":"120950120001020","school_id":"sch_mollie_ray_elementary","kids_est":17,"class":"green","shortest":{"len_m":683.8,"mean_c":38.72,"peak_c":38.9,"dose":54.4},"coolest":{"len_m":683.8,"mean_c":38.72,"peak_c":38.9,"dose":54.4},"delta_mean_c":0.0,"delta_dose_pct":0,"distance_mi":0.238,"status_now":"walk","status_rec":"walk","reason":"Shortest route already under threshold (dose 54).","safe_until_hour":null}},{"type":"Feature","geometry":{"type":"Polygon","coordinates":[[[-81.45011700006688,28.56672400004186],[-81.45032200010628,28.566659999981734],[-81.45011600024198,28.56614500005379],[-81.44949799975068,28.564600999765048],[-81.44929199988634,28.564086999648964],[-81.44908500019712,28.56415200011544],[-81.44846800042906,28.56434899974245],[-81.44826199966641,28.564414999675208],[-81.44833600018458,28.56454999987496],[-81.44838399986516,28.56466199983324],[-81.44839800010885,28.564695000101135],[-81.4485069998888,28.564909999824003],[-81.44862900008754,28.56510199992443],[-81.44873799986748,28.565245000149694],[-81.4487889999211,28.56531800001322],[-81.44881700040852,28.565365000266006],[-81.44890299972394,28.565508000133917],[-81.44894999957958,28.56560700011072],[-81.44897999971683,28.565671000022263],[-81.44901099967896,28.565736999914932],[-81.44903800034145,28.565824999970367],[-81.44904400018925,28.56587400001416],[-81.449054000235,28.565945000214306],[-81.44905300041006,28.566080999641592],[-81.44902400009775,28.566214999671143],[-81.44900200035646,28.56627200036211],[-81.44893899970896,28.566386999682788],[-81.44883800032493,28.566539999764142],[-81.44875399976102,28.566704999633565],[-81.44870699990534,28.56683699965845],[-81.44869400038488,28.56689299961895],[-81.44867900031626,28.567005000239515],[-81.4486759999432,28.567118999945738],[-81.44868000014117,28.567229999935527],[-81.44868500016403,28.567326999880457],[-81.44870400043062,28.56757200031925],[-81.44880700036279,28.56756699996177],[-81.44884699964742,28.56756699996177],[-81.44894700010487,28.567568999946996],[-81.44911500033436,28.567582999842575],[-81.44927500016792,28.56761200001471],[-81.44929100006145,28.567615000385725],[-81.44941499991002,28.567647000130236],[-81.44952899971281,28.567385000357884],[-81.44964400023888,28.56712400032451],[-81.44970600016315,28.567015999822114],[-81.44977899995807,28.566923000374477],[-81.44982400016393,28.566878999631633],[-81.44987400039263,28.566840000051577],[-81.4499210002483,28.566808999667003],[-81.44997899997462,28.566780000062487],[-81.45005099994464,28.566750000055116],[-81.45011700006688,28.56672400004186]]]},"properties":{"block_id":"120950120001028","school_id":"sch_mollie_ray_elementary","kids_est":12,"class":"green","shortest":{"len_m":745.9,"mean_c":38.83,"peak_c":38.9,"dose":60.4},"coolest":{"len_m":745.9,"mean_c":38.83,"peak_c":38.9,"dose":60.4},"delta_mean_c":0.0,"delta_dose_pct":0,"distance_mi":0.339,"status_now":"walk","status_rec":"walk","reason":"Shortest route already under threshold (dose 60).","safe_until_hour":null}},{"type":"Feature","geometry":{"type":"Polygon","coordinates":[[[-81.44753299974538,28.565024999844027],[-81.4475279997225,28.56497800022832],[-81.44749199973748,28.56489400032577],[-81.4474149997446,28.564758000153496],[-81.44691599997732,28.56406600029078],[-81.44684400000729,28.563981999660253],[-81.44673799970208,28.563882999732797],[-81.4465360000357,28.563714999690607],[-81.44629400018638,28.56351400033031],[-81.44606599968243,28.56334700012634],[-81.44596100010045,28.56346299991342],[-81.44564999975582,28.563811000085693],[-81.44554699982365,28.563927999783125],[-81.44553199975503,28.563944999849692],[-81.4458520003205,28.56420900034577],[-81.44617500036068,28.564473999807205],[-81.44622999971396,28.564524999734125],[-81.44632199977548,28.56462100017934],[-81.44671299958773,28.565103000334954],[-81.44686200044896,28.56528600034947],[-81.44696299983296,28.565436000020583],[-81.44707900018392,28.565376000020027],[-81.44744999990469,28.565168999794853],[-81.44748099986684,28.565139999738403],[-81.44749199973748,28.565130999991336],[-81.44751900039996,28.56508399963405],[-81.44753299974538,28.565024999844027]]]},"properties":{"block_id":"120950120001038","school_id":"sch_mollie_ray_elementary","kids_est":6,"class":"green","shortest":{"len_m":993.7,"mean_c":38.71,"peak_c":38.9,"dose":78.7},"coolest":{"len_m":993.7,"mean_c":38.71,"peak_c":38.9,"dose":78.7},"delta_mean_c":0.0,"delta_dose_pct":0,"distance_mi":0.475,"status_now":"walk","status_rec":"walk","reason":"Shortest route already under threshold (dose 79).","safe_until_hour":null}},{"type":"Feature","geometry":{"type":"Polygon","coordinates":[[[-81.45533699969012,28.56883900024833],[-81.45537199985021,28.568782000158937],[-81.45519299975008,28.56871999973597],[-81.45438900038425,28.568427000360465],[-81.45428399990396,28.56838100027671],[-81.45398299960507,28.56823300004229],[-81.45315400012491,28.567827999685345],[-81.45307700013201,28.567801999938364],[-81.45306500043645,28.56779799997673],[-81.452752000442,28.567723000273407],[-81.45262299967227,28.56769600011463],[-81.45256099974799,28.56769299974593],[-81.45247899973221,28.567702999659698],[-81.45218300035452,28.567794000014946],[-81.45189999959898,28.567893999803058],[-81.45206399963052,28.568329999851624],[-81.45209999961554,28.568464000173147],[-81.4521180000572,28.568577000288084],[-81.45228700011161,28.56858100022011],[-81.45237699962497,28.568593000015266],[-81.452604000304,28.568658000065383],[-81.45338900030157,28.56889899985231],[-81.45510599971144,28.569417999614178],[-81.45533699969012,28.56883900024833]]]},"properties":{"block_id":"120950121002007","school_id":"sch_mollie_ray_elementary","kids_est":4,"class":"red","shortest":{"len_m":2181.9,"mean_c":38.73,"peak_c":38.9,"dose":174.2},"coolest":{"len_m":2206.0,"mean_c":38.6,"peak_c":38.9,"dose":172.1},"delta_mean_c":-0.13,"delta_dose_pct":-1,"distance_mi":0.298,"status_now":"walk","status_rec":"bus_eligible","reason":"Coolest route mean 38.6C exceeds threshold (110 C-min dose, actual 172).","safe_until_hour":"13:00"}},{"type":"Feature","geometry":{"type":"Polygon","coordinates":[[[-81.45218300035452,28.573494000353502],[-81.45218599982927,28.573393000033548],[-81.45217499995861,28.572448999806667],[-81.45197199956901,28.572460999949673],[-81.45167299981827,28.572487000123203],[-81.45162400031279,28.572487999674596],[-81.4512879998538,28.572469999858757],[-81.45125699989167,28.572592000303562],[-81.45122000008173,28.57273800004205],[-81.45120400018823,28.572851999848307],[-81.45119900016535,28.572963999648376],[-81.45119400014248,28.5730900000698],[-81.45118800029469,28.573253000046797],[-81.45117099967794,28.57374200004031],[-81.45116900002813,28.57380500019845],[-81.45114899993662,28.57390400025809],[-81.4510970000581,28.57410700014471],[-81.4509430000723,28.574718999989425],[-81.45091600030813,28.574829000321365],[-81.45088299979786,28.57492000003569],[-81.45106699992085,28.574970999633106],[-81.45133100040984,28.575045999692232],[-81.45155099961956,28.575113999857404],[-81.45161699974177,28.57513300032497],[-81.45180099986479,28.575185999659617],[-81.45191899986557,28.574859000391925],[-81.45201000010216,28.57457400016498],[-81.45207200002645,28.574331999642972],[-81.45212100043025,28.574083999769186],[-81.45215999988999,28.57379599961471],[-81.45218300035452,28.573494000353502]]]},"properties":{"block_id":"120950120001021","school_id":"sch_mollie_ray_elementary","kids_est":12,"class":"green","shortest":{"len_m":620.6,"mean_c":38.79,"peak_c":38.9,"dose":50.0},"coolest":{"len_m":620.6,"mean_c":38.79,"peak_c":38.9,"dose":49.9},"delta_mean_c":0.0,"delta_dose_pct":0,"distance_mi":0.243,"status_now":"walk","status_rec":"walk","reason":"Shortest route already under threshold (dose 50).","safe_until_hour":null}},{"type":"Feature","geometry":{"type":"Polygon","coordinates":[[[-81.44680899984719,28.57405199961566],[-81.44681999971785,28.57400699995024],[-81.44680600037246,28.573534999705824],[-81.44679200012875,28.57348799994666],[-81.4467800004332,28.57346599976682],[-81.44675799979356,28.573441999708812],[-81.44672199980855,28.573413999897145],[-81.44667199957983,28.573394000365244],[-81.44661700022657,28.5733879999527],[-81.44633500019427,28.573391999701837],[-81.44502600031508,28.573412000023023],[-81.44481000040501,28.57341599977123],[-81.44469300022914,28.573425999930016],[-81.44459500031985,28.573455999611824],[-81.44450900010612,28.573496999767872],[-81.44442100024257,28.573549000385373],[-81.44433400020394,28.57357399996004],[-81.44386499967557,28.573585999974668],[-81.4436770002529,28.573592000375925],[-81.44368200027579,28.573740999711905],[-81.44369899999421,28.574190999792766],[-81.44370099964404,28.57421799986263],[-81.44371700043588,28.5743399998582],[-81.44372300028367,28.574388000347916],[-81.44375800044376,28.574547000186488],[-81.4437759999871,28.574597999964727],[-81.44402600023236,28.574530000254917],[-81.44449700041056,28.574388000347916],[-81.44498899960682,28.574239999885208],[-81.44517799975272,28.57420200020193],[-81.44532199969277,28.574183999890405],[-81.44551800040965,28.57417300026829],[-81.4466470003638,28.574156999811816],[-81.44669000002152,28.5741510002317],[-81.44672099998364,28.574136999632266],[-81.44674400044818,28.574127999865784],[-81.44678600028097,28.574093999864477],[-81.44680899984719,28.57405199961566]]]},"properties":{"block_id":"120950120001024","school_id":"sch_mollie_ray_elementary","kids_est":14,"class":"green","shortest":{"len_m":677.1,"mean_c":38.69,"peak_c":38.9,"dose":53.5},"coolest":{"len_m":677.1,"mean_c":38.69,"peak_c":38.9,"dose":53.5},"delta_mean_c":0.0,"delta_dose_pct":0,"distance_mi":0.332,"status_now":"walk","status_rec":"walk","reason":"Shortest route already under threshold (dose 54).","safe_until_hour":null}},{"type":"Feature","geometry":{"type":"Polygon","coordinates":[[[-81.44775899970118,28.56685600004286],[-81.4477539996783,28.5667629996649],[-81.44772799973904,28.566673000391557],[-81.44768500008134,28.566605999900773],[-81.44762700035501,28.56654799978295],[-81.44756500043074,28.56650799968305],[-81.4474149997446,28.5664120001702],[-81.44739300000327,28.566392999705624],[-81.4473300002541,28.566337999877792],[-81.44731199981243,28.566317999789867],[-81.44722700032193,28.566357999961976],[-81.44717000042053,28.56638000005014],[-81.44673799970208,28.566553999796614],[-81.44659399976203,28.566613000307314],[-81.44642200023289,28.566680999611293],[-81.44624599960748,28.56675200005586],[-81.44589900017618,28.566862999643796],[-81.44582999968087,28.566886000020006],[-81.44572000007602,28.566907999997778],[-81.44572799957362,28.56701399982637],[-81.44572799957362,28.56703100018341],[-81.44573400031972,28.56740199986607],[-81.44573699979446,28.567525999861726],[-81.44586900003894,28.567525999861726],[-81.44614900042141,28.56753300020706],[-81.44618799988118,28.567533999805576],[-81.44633199982121,28.567553000064116],[-81.44639000044586,28.56754500012178],[-81.44728900024622,28.567178000139666],[-81.44731000016262,28.567170999770706],[-81.4473939998282,28.567146000252592],[-81.44746800034636,28.56713499989467],[-81.44753299974538,28.56713299990119],[-81.4477179996933,28.56714400025931],[-81.44774299980766,28.56696700031006],[-81.44775899970118,28.56685600004286]]]},"properties":{"block_id":"120950120001032","school_id":"sch_mollie_ray_elementary","kids_est":7,"class":"green","shortest":{"len_m":746.3,"mean_c":38.81,"peak_c":38.9,"dose":60.3},"coolest":{"len_m":746.3,"mean_c":38.81,"peak_c":38.9,"dose":60.3},"delta_mean_c":0.0,"delta_dose_pct":0,"distance_mi":0.31,"status_now":"walk","status_rec":"walk","reason":"Shortest route already under threshold (dose 60).","safe_until_hour":null}},{"type":"Feature","geometry":{"type":"Polygon","coordinates":[[[-81.45083199974422,28.575053999853175],[-81.45088299979786,28.57492000003569],[-81.45075700029946,28.574878999645314],[-81.45027900044859,28.574742000226127],[-81.4501389998082,28.574702999616004],[-81.44995999970804,28.57467199997031],[-81.44986000014895,28.574663999780324],[-81.44839999975868,28.57468099969024],[-81.44777200011997,28.57468899987893],[-81.44777100029505,28.57473799973941],[-81.44777100029505,28.574883999655295],[-81.44777100029505,28.574933999742015],[-81.44777299994489,28.575045999692232],[-81.44778100034081,28.57538199961641],[-81.44778399981554,28.575493999878564],[-81.44835600027608,28.575483000393426],[-81.4488519996703,28.575475000265115],[-81.44989899960866,28.575462000153937],[-81.45002800037842,28.57546799965928],[-81.45007100003613,28.575475000265115],[-81.45013600033344,28.575485999751095],[-81.45019700043282,28.575500000171008],[-81.45063199972769,28.575591000093773],[-81.45068199995642,28.57545599985933],[-81.45083199974422,28.575053999853175]]]},"properties":{"block_id":"120950120001017","school_id":"sch_mollie_ray_elementary","kids_est":5,"class":"green","shortest":{"len_m":843.1,"mean_c":38.37,"peak_c":38.9,"dose":63.2},"coolest":{"len_m":843.1,"mean_c":38.37,"peak_c":38.9,"dose":63.2},"delta_mean_c":0.0,"delta_dose_pct":0,"distance_mi":0.293,"status_now":"walk","status_rec":"walk","reason":"Shortest route already under threshold (dose 63).","safe_until_hour":null}},{"type":"Feature","geometry":{"type":"Polygon","coordinates":[[[-81.44277400025459,28.57231200037865],[-81.4427680004068,28.572034999953612],[-81.4427609998358,28.572002999965697],[-81.44273200042178,28.571942000208427],[-81.4426849996678,28.571892000277487],[-81.44262299974353,28.571853999746097],[-81.4425509997735,28.571833999917654],[-81.4415440000181,28.571839999629912],[-81.44057400007263,28.571846999688248],[-81.44057800027059,28.571981999820455],[-81.44059199961598,28.57238699996672],[-81.44059699963886,28.572522000194958],[-81.44115200038094,28.572524999637047],[-81.44156699958432,28.57252099985495],[-81.44258000008581,28.572511999950244],[-81.44263299978927,28.57249900026182],[-81.44267999964494,28.572473000091254],[-81.44271700035317,28.57243699966236],[-81.442754999988,28.572378000050538],[-81.44277400025459,28.57231200037865]]]},"properties":{"block_id":"120950120002002","school_id":"sch_mollie_ray_elementary","kids_est":10,"class":"green","shortest":{"len_m":1183.0,"mean_c":38.56,"peak_c":38.9,"dose":91.8},"coolest":{"len_m":1183.0,"mean_c":38.56,"peak_c":38.9,"dose":91.8},"delta_mean_c":0.0,"delta_dose_pct":0,"distance_mi":0.48,"status_now":"walk","status_rec":"walk","reason":"Shortest route already under threshold (dose 92).","safe_until_hour":null}},{"type":"Feature","geometry":{"type":"Polygon","coordinates":[[[-81.45118800029469,28.573253000046797],[-81.45119400014248,28.5730900000698],[-81.45091299993508,28.57308300009419],[-81.45053100034366,28.573064000045285],[-81.45043000006133,28.573058999948817],[-81.44959900003302,28.573072999902795],[-81.44871399957805,28.57308300009419],[-81.44854100022398,28.57308699985491],[-81.44834299985727,28.573091999950055],[-81.44818899987149,28.573091999950055],[-81.44815100023666,28.573088999735205],[-81.44805900017515,28.573067999806746],[-81.44797999963411,28.573034999797965],[-81.44790199981631,28.572984000050937],[-81.44781899997564,28.573084999974558],[-81.44779300003637,28.57313000003435],[-81.44778600036368,28.573143999978875],[-81.44776700009709,28.573208000039685],[-81.44776200007423,28.573272000061554],[-81.44777100029505,28.573675999646333],[-81.44777399976981,28.573769999764625],[-81.4477660002722,28.573858999740512],[-81.44806800039598,28.573884000030425],[-81.44824400012307,28.573889000087693],[-81.44844199959147,28.573885999895577],[-81.45011600024198,28.573860999606136],[-81.45047400044226,28.573856999874838],[-81.4507170001165,28.57385500000914],[-81.45085900040674,28.57386300026065],[-81.45114899993662,28.57390400025809],[-81.45116900002813,28.57380500019845],[-81.45117099967794,28.57374200004031],[-81.45118800029469,28.573253000046797]]]},"properties":{"block_id":"120950120001019","school_id":"sch_mollie_ray_elementary","kids_est":18,"class":"green","shortest":{"len_m":163.8,"mean_c":38.82,"peak_c":38.9,"dose":13.3},"coolest":{"len_m":163.8,"mean_c":38.82,"peak_c":38.9,"dose":13.3},"delta_mean_c":0.0,"delta_dose_pct":0,"distance_mi":0.182,"status_now":"walk","status_rec":"walk","reason":"Shortest route already under threshold (dose 13).","safe_until_hour":null}},{"type":"Feature","geometry":{"type":"Polygon","coordinates":[[[-81.44885000002049,28.569008999957855],[-81.44873399966951,28.568930999995306],[-81.44844199959147,28.568736999817396],[-81.44839100043617,28.568692999833008],[-81.44833299981153,28.568642999936014],[-81.44829099997874,28.56859699994667],[-81.4481970002674,28.5686589996532],[-81.44807199969563,28.568761999746542],[-81.447992000228,28.56884100020937],[-81.44792199990779,28.568921000198173],[-81.44785999998352,28.56900700000001],[-81.44780100043229,28.569105000257256],[-81.44776700009709,28.569171999945866],[-81.44775000037866,28.56920700033141],[-81.44771199984551,28.569302000079556],[-81.44769400030216,28.569358999887267],[-81.44766400016492,28.569524000070103],[-81.44765099974613,28.56967700032397],[-81.44770000014994,28.571522000208024],[-81.44771000019568,28.571878000166354],[-81.44771500021857,28.57231200037865],[-81.44789299959548,28.572309999694657],[-81.44842999989592,28.572304000009204],[-81.44860899999605,28.572302999667137],[-81.44859399992744,28.571894000180514],[-81.44858700025475,28.571628000122097],[-81.44854500042194,28.56974300007088],[-81.44854700007177,28.569675999956917],[-81.44855499956938,28.569604000328567],[-81.448569999638,28.569529999914078],[-81.44862900008754,28.569353000033537],[-81.44870799973026,28.569205000377305],[-81.44885000002049,28.569008999957855]]]},"properties":{"block_id":"120950120001026","school_id":"sch_mollie_ray_elementary","kids_est":5,"class":"green","shortest":{"len_m":148.1,"mean_c":38.9,"peak_c":38.9,"dose":12.1},"coolest":{"len_m":148.1,"mean_c":38.9,"peak_c":38.9,"dose":12.1},"delta_mean_c":0.0,"delta_dose_pct":0,"distance_mi":0.079,"status_now":"walk","status_rec":"walk","reason":"Shortest route already under threshold (dose 12).","safe_until_hour":null}},{"type":"Feature","geometry":{"type":"Polygon","coordinates":[[[-81.44271499980503,28.57098799998428],[-81.44272200037605,28.57092000030788],[-81.44268899986577,28.56997499961778],[-81.44267700017019,28.56992700027038],[-81.44265299988076,28.569882999994732],[-81.44261699989575,28.569845000315574],[-81.44257599988786,28.569817000335565],[-81.44251200031376,28.569793000234124],[-81.44246000043523,28.569787999982193],[-81.4416069997673,28.569793000234124],[-81.44050100027769,28.569799999639695],[-81.44050499957734,28.569935000031627],[-81.44051999964594,28.570342999672555],[-81.44052499966882,28.57047899972716],[-81.44052899986679,28.57061499960605],[-81.4405439999354,28.57102400012],[-81.44054899995827,28.57116099964737],[-81.44165500034619,28.571154000332328],[-81.44251499978849,28.571149000145077],[-81.4425719996899,28.57113699985248],[-81.44262299974353,28.571113000052136],[-81.44266700012446,28.571078999865318],[-81.44269600043677,28.571035999636607],[-81.44271499980503,28.57098799998428]]]},"properties":{"block_id":"120950120002001","school_id":"sch_mollie_ray_elementary","kids_est":8,"class":"red","shortest":{"len_m":1552.1,"mean_c":38.53,"peak_c":38.9,"dose":119.7},"coolest":{"len_m":1552.1,"mean_c":38.53,"peak_c":38.9,"dose":119.7},"delta_mean_c":0.0,"delta_dose_pct":0,"distance_mi":0.475,"status_now":"walk","status_rec":"bus_eligible","reason":"Coolest route mean 38.5C exceeds threshold (110 C-min dose, actual 120).","safe_until_hour":"14:00"}},{"type":"Feature","geometry":{"type":"Polygon","coordinates":[[[-81.44684400000729,28.572325999643105],[-81.44684499983221,28.57228699971519],[-81.44683399996156,28.572210999712876],[-81.44681200022023,28.57211800012327],[-81.44680600037246,28.572006000211502],[-81.44678799993079,28.571938999960775],[-81.44676600018948,28.57190699994368],[-81.44673699987716,28.571880000069648],[-81.44670000006725,28.5718609998035],[-81.44665999988428,28.57184999993849],[-81.44661800005149,28.57184800003465],[-81.44646200041586,28.57184999993849],[-81.44432400015819,28.571880999626806],[-81.44361199995559,28.571892000277487],[-81.4436210001764,28.572125999718],[-81.4436489997655,28.57282899998726],[-81.44365899981123,28.573064000045285],[-81.44366200018429,28.573168999649784],[-81.44367300005496,28.573486000073924],[-81.4436770002529,28.573592000375925],[-81.44386499967557,28.573585999974668],[-81.44433400020394,28.57357399996004],[-81.44442100024257,28.573549000385373],[-81.44450900010612,28.573496999767872],[-81.44459500031985,28.573455999611824],[-81.44455900033483,28.573386000078084],[-81.44454300044131,28.573329999628694],[-81.44453099984743,28.573088999735205],[-81.44452499999964,28.572806999669613],[-81.44452499999964,28.572792000131727],[-81.4445359998703,28.572746999927432],[-81.44456099998466,28.572706999817328],[-81.44459799979458,28.572675000033826],[-81.44464499965025,28.572654000022712],[-81.44469599970388,28.572645999679256],[-81.44641600038511,28.57262000033394],[-81.44665099966345,28.57261700010564],[-81.44670699973993,28.572604999980484],[-81.44675500031883,28.57257899983611],[-81.44679100030383,28.572540000001904],[-81.44682200026598,28.572457999716832],[-81.44682899993867,28.57242200007173],[-81.44684400000729,28.572325999643105]]]},"properties":{"block_id":"120950120001023","school_id":"sch_mollie_ray_elementary","kids_est":11,"class":"red","shortest":{"len_m":1499.8,"mean_c":38.47,"peak_c":38.9,"dose":113.7},"coolest":{"len_m":1499.8,"mean_c":38.47,"peak_c":38.9,"dose":113.7},"delta_mean_c":0.0,"delta_dose_pct":0,"distance_mi":0.294,"status_now":"walk","status_rec":"bus_eligible","reason":"Coolest route mean 38.5C exceeds threshold (110 C-min dose, actual 114).","safe_until_hour":"14:00"}},{"type":"Feature","geometry":{"type":"Polygon","coordinates":[[[-81.44676899966422,28.570187999662704],[-81.4467679998393,28.57016199970998],[-81.44675899961848,28.5697529997899],[-81.44675699996866,28.569617000374674],[-81.4462819995925,28.56962399979201],[-81.44485800008559,28.56964599998629],[-81.44438400043266,28.56965399976891],[-81.4443879997323,28.569784999673132],[-81.44440199997601,28.5701630000724],[-81.44440299980093,28.57017999992068],[-81.44440699999888,28.57021199967411],[-81.44442600026545,28.5702579997463],[-81.44445700022759,28.570297999998598],[-81.44446999974808,28.570309000025855],[-81.44451900015186,28.570334999942247],[-81.44457400040345,28.5703490002587],[-81.44489900009346,28.570344000033195],[-81.44569999998453,28.570334999942247],[-81.44626300022423,28.570325000278608],[-81.44661600040165,28.570318999691022],[-81.44666999993001,28.57030399979845],[-81.44671000011299,28.570279999808076],[-81.44675000029595,28.57023500010719],[-81.44676899966422,28.570187999662704]]]},"properties":{"block_id":"120950120002003","school_id":"sch_mollie_ray_elementary","kids_est":8,"class":"red","shortest":{"len_m":1404.5,"mean_c":38.74,"peak_c":38.9,"dose":112.3},"coolest":{"len_m":1404.5,"mean_c":38.74,"peak_c":38.9,"dose":112.3},"delta_mean_c":0.0,"delta_dose_pct":0,"distance_mi":0.24,"status_now":"walk","status_rec":"bus_eligible","reason":"Coolest route mean 38.7C exceeds threshold (110 C-min dose, actual 112).","safe_until_hour":"14:00"}},{"type":"Feature","geometry":{"type":"Polygon","coordinates":[[[-81.45521200001664,28.569539999653273],[-81.45510599971144,28.569417999614178],[-81.45338900030157,28.56889899985231],[-81.452604000304,28.568658000065383],[-81.45237699962497,28.568593000015266],[-81.45228700011161,28.56858100022011],[-81.4521180000572,28.568577000288084],[-81.45212499972989,28.568656000100844],[-81.45214599964629,28.569923000389533],[-81.45214700036954,28.569940000276578],[-81.45252200028824,28.569940000276578],[-81.45271300008395,28.569933999667043],[-81.45288100031345,28.569914999838414],[-81.45321199985123,28.569877999747074],[-81.45368600040247,28.56983099993206],[-81.45377400026602,28.569845000315574],[-81.45408600043555,28.569925000329977],[-81.45455400024069,28.570046000206627],[-81.45460799976908,28.570050999657354],[-81.45467899991418,28.570040999966718],[-81.45472800031797,28.57002200015741],[-81.45480500031088,28.569964000344555],[-81.45486999970989,28.569905000134852],[-81.4549209997635,28.569834999816404],[-81.45502700006872,28.569604000328567],[-81.45508700034317,28.569587999966163],[-81.45521200001664,28.569539999653273]]]},"properties":{"block_id":"120950121002006","school_id":"sch_mollie_ray_elementary","kids_est":6,"class":"green","shortest":{"len_m":780.7,"mean_c":38.9,"peak_c":38.9,"dose":64.0},"coolest":{"len_m":780.7,"mean_c":38.9,"peak_c":38.9,"dose":64.0},"delta_mean_c":0.0,"delta_dose_pct":0,"distance_mi":0.26,"status_now":"walk","status_rec":"walk","reason":"Shortest route already under threshold (dose 64).","safe_until_hour":null}},{"type":"Feature","geometry":{"type":"Polygon","coordinates":[[[-81.45666700038402,28.5702449997794],[-81.45665999981301,28.57023100023806],[-81.4566520003154,28.57021800026779],[-81.45664999976727,28.570205000295893],[-81.45661399978225,28.57013399981433],[-81.456559000429,28.570053000384323],[-81.45645700032172,28.569942000216713],[-81.45642299998656,28.569910999957095],[-81.45633500012299,28.569847000257493],[-81.45623100036592,28.569786000039144],[-81.45609800029654,28.569730000040348],[-81.45606899998421,28.569718000374856],[-81.45550200044488,28.56954299996933],[-81.45541500040625,28.5695209997535],[-81.45535299958364,28.56951699985722],[-81.45528700035972,28.5695229997016],[-81.45521200001664,28.569539999653273],[-81.45526300007027,28.569793000234124],[-81.45526300007027,28.569977000346185],[-81.45517699985653,28.57053100025852],[-81.45519399957497,28.570904999712038],[-81.45531499994881,28.571107000298365],[-81.45531499994881,28.57205799998818],[-81.45511300028244,28.572213999952766],[-81.45503799993938,28.57233500035266],[-81.45499699993148,28.572538000111166],[-81.45504899981002,28.572545000123053],[-81.4551240001531,28.57256800004612],[-81.45519000027534,28.57260699986996],[-81.45522700008527,28.572640000012974],[-81.45545999971377,28.572966000319887],[-81.45550699956944,28.573004999996186],[-81.45554299955445,28.57302099983894],[-81.45556400036915,28.573031000035268],[-81.45562600029342,28.573043000111827],[-81.45568999986753,28.573039999895588],[-81.45599199999133,28.572958000000174],[-81.45596799970187,28.57287999980949],[-81.45593199971687,28.572809999892492],[-81.4558360003557,28.57262400011227],[-81.45580700004341,28.5725459996739],[-81.45579699999766,28.572478000215597],[-81.4557939996246,28.57236099976847],[-81.45579100014987,28.572201999781644],[-81.45579000032495,28.572052999843876],[-81.45578699995191,28.571606999902],[-81.45578699995191,28.571459000260635],[-81.45578299975396,28.570893000180565],[-81.45579100014987,28.57084000026108],[-81.45581000041645,28.570780000186033],[-81.4558360003557,28.570734000342043],[-81.45587999983833,28.570679999984957],[-81.45591499999844,28.570647000016113],[-81.45596400040223,28.570615999964158],[-81.45654600001019,28.57027799987439],[-81.45663899989663,28.570250000009604],[-81.45666700038402,28.5702449997794]]]},"properties":{"block_id":"120950121001013","school_id":"sch_mollie_ray_elementary","kids_est":8,"class":"green","shortest":{"len_m":1070.6,"mean_c":38.77,"peak_c":38.9,"dose":85.9},"coolest":{"len_m":1070.6,"mean_c":38.77,"peak_c":38.9,"dose":85.8},"delta_mean_c":0.0,"delta_dose_pct":0,"distance_mi":0.379,"status_now":"walk","status_rec":"walk","reason":"Shortest route already under threshold (dose 86).","safe_until_hour":null}},{"type":"Feature","geometry":{"type":"Polygon","coordinates":[[[-81.45281600001611,28.567509000373615],[-81.45281600001611,28.56745299995197],[-81.45280500014546,28.567409000219648],[-81.45257699964152,28.566838999657556],[-81.45212399990498,28.565703000357924],[-81.45177699957534,28.56485000031248],[-81.45166500032066,28.564558999671707],[-81.45153200025129,28.564229000045568],[-81.45127699998315,28.563593999634964],[-81.45117599970081,28.563362000221613],[-81.4511320002182,28.56336900005494],[-81.45100900019455,28.56340100030157],[-81.45019900008263,28.563653999862524],[-81.45042800041149,28.56422099985054],[-81.45054200021433,28.56451500030734],[-81.45076499979707,28.565060000031018],[-81.45127600015824,28.566345000302157],[-81.45157400008408,28.567071999687354],[-81.45189999959898,28.567893999803058],[-81.45218300035452,28.567794000014946],[-81.45247899973221,28.567702999659698],[-81.45256099974799,28.56769299974593],[-81.45262299967227,28.56769600011463],[-81.452752000442,28.567723000273407],[-81.45281600001611,28.567509000373615]]]},"properties":{"block_id":"120950121002011","school_id":"sch_mollie_ray_elementary","kids_est":13,"class":"green","shortest":{"len_m":1166.6,"mean_c":38.86,"peak_c":38.9,"dose":94.9},"coolest":{"len_m":1166.6,"mean_c":38.86,"peak_c":38.9,"dose":94.9},"delta_mean_c":0.0,"delta_dose_pct":0,"distance_mi":0.38,"status_now":"walk","status_rec":"walk","reason":"Shortest route already under threshold (dose 95).","safe_until_hour":null}},{"type":"Feature","geometry":{"type":"Polygon","coordinates":[[[-81.45679899973018,28.570967999991222],[-81.45674900039978,28.570571999976643],[-81.45671500006459,28.57041599994413],[-81.45666700038402,28.5702449997794],[-81.45663899989663,28.570250000009604],[-81.45654600001019,28.57027799987439],[-81.45596400040223,28.570615999964158],[-81.45591499999844,28.570647000016113],[-81.45587999983833,28.570679999984957],[-81.4558360003557,28.570734000342043],[-81.45581000041645,28.570780000186033],[-81.45579100014987,28.57084000026108],[-81.45578299975396,28.570893000180565],[-81.45578699995191,28.571459000260635],[-81.45585200024925,28.571454000087876],[-81.45593000006706,28.57143000035977],[-81.45666400001097,28.571002000213845],[-81.45672199973728,28.57098000030309],[-81.45679899973018,28.570967999991222]]]},"properties":{"block_id":"120950121001016","school_id":"sch_mollie_ray_elementary","kids_est":2,"class":"green","shortest":{"len_m":1176.0,"mean_c":38.76,"peak_c":38.9,"dose":94.3},"coolest":{"len_m":1176.0,"mean_c":38.76,"peak_c":38.9,"dose":94.2},"delta_mean_c":0.0,"delta_dose_pct":0,"distance_mi":0.416,"status_now":"walk","status_rec":"walk","reason":"Shortest route already under threshold (dose 94).","safe_until_hour":null}},{"type":"Feature","geometry":{"type":"Polygon","coordinates":[[[-81.45209999961554,28.568464000173147],[-81.45206399963052,28.568329999851624],[-81.45189999959898,28.567893999803058],[-81.45157400008408,28.567071999687354],[-81.45127600015824,28.566345000302157],[-81.45076499979707,28.565060000031018],[-81.45054200021433,28.56451500030734],[-81.45042800041149,28.56422099985054],[-81.45019900008263,28.563653999862524],[-81.45002500000537,28.56322099987258],[-81.44993200011895,28.562937000112658],[-81.44988000024041,28.562725000025637],[-81.44906500010565,28.562866000250157],[-81.44892100016558,28.56287999998237],[-81.44878399989823,28.56287900033971],[-81.4487949997689,28.56292499967251],[-81.44881900005834,28.56298399985079],[-81.44891600014273,28.563148000132497],[-81.44902300027286,28.56341600038921],[-81.44907599997627,28.563549999867114],[-81.44923800035801,28.563951999644242],[-81.44929199988634,28.564086999648964],[-81.44949799975068,28.564600999765048],[-81.45011600024198,28.56614500005379],[-81.45032200010628,28.566659999981734],[-81.45044599995484,28.566969999910505],[-81.45068799980419,28.56757299991733],[-81.45072200013938,28.567674999898728],[-81.4507380000329,28.56775199961801],[-81.45074100040596,28.567813999822423],[-81.45072799998717,28.56789999973998],[-81.45072100031445,28.567918000337702],[-81.4506459999714,28.568134000169106],[-81.45060499996352,28.568231999661524],[-81.45080199960701,28.568289999640125],[-81.45091299993508,28.56831699964649],[-81.45105199985225,28.568343000055116],[-81.45183799967472,28.56846099982633],[-81.45195400002568,28.56846899969905],[-81.45209999961554,28.568464000173147]]]},"properties":{"block_id":"120950120001030","school_id":"sch_mollie_ray_elementary","kids_est":12,"class":"green","shortest":{"len_m":1179.9,"mean_c":38.85,"peak_c":38.9,"dose":95.9},"coolest":{"len_m":1179.9,"mean_c":38.85,"peak_c":38.9,"dose":95.9},"delta_mean_c":0.0,"delta_dose_pct":0,"distance_mi":0.361,"status_now":"walk","status_rec":"walk","reason":"Shortest route already under threshold (dose 96).","safe_until_hour":null}},{"type":"Feature","geometry":{"type":"Polygon","coordinates":[[[-81.44659399976203,28.566613000307314],[-81.44642600043085,28.566258999902683],[-81.44636199995844,28.56611899989106],[-81.4462670004222,28.56591200033837],[-81.446197000102,28.56579600009469],[-81.4460990001927,28.565669999617132],[-81.44565999980156,28.565128000338476],[-81.44552900028032,28.56499700015944],[-81.4453529996549,28.56484899989955],[-81.4449359999034,28.56449800033279],[-81.44474199973462,28.56466599991408],[-81.44460000034273,28.564789999977787],[-81.4445769998782,28.564827000280264],[-81.44456400035772,28.564867999853902],[-81.44456000015975,28.565122999864872],[-81.44457000020549,28.565170000204752],[-81.44459699996966,28.56522400023359],[-81.44468400000831,28.565322999688583],[-81.44485399988763,28.565516999848796],[-81.44507399999564,28.565767000211018],[-81.44539000036315,28.56612600032999],[-81.44545800013522,28.56621299966018],[-81.4454859997243,28.566254999882414],[-81.44552400025744,28.566325999825494],[-81.44562100034182,28.566589999871475],[-81.44569099976371,28.56677800006226],[-81.44570699965723,28.56683499965932],[-81.44572000007602,28.566907999997778],[-81.44582999968087,28.566886000020006],[-81.44589900017618,28.566862999643796],[-81.44624599960748,28.56675200005586],[-81.44642200023289,28.566680999611293],[-81.44659399976203,28.566613000307314]]]},"properties":{"block_id":"120950120001036","school_id":"sch_mollie_ray_elementary","kids_est":11,"class":"green","shortest":{"len_m":822.1,"mean_c":38.81,"peak_c":38.9,"dose":66.4},"coolest":{"len_m":822.1,"mean_c":38.81,"peak_c":38.9,"dose":66.4},"delta_mean_c":0.0,"delta_dose_pct":0,"distance_mi":0.422,"status_now":"walk","status_rec":"walk","reason":"Shortest route already under threshold (dose 66).","safe_until_hour":null}},{"type":"Feature","geometry":{"type":"Polygon","coordinates":[[[-81.45531499994881,28.57205799998818],[-81.45531499994881,28.571107000298365],[-81.45519399957497,28.570904999712038],[-81.45517699985653,28.57053100025852],[-81.45526300007027,28.569977000346185],[-81.45526300007027,28.569793000234124],[-81.45521200001664,28.569539999653273],[-81.45508700034317,28.569587999966163],[-81.45502700006872,28.569604000328567],[-81.4549209997635,28.569834999816404],[-81.45486999970989,28.569905000134852],[-81.45480500031088,28.569964000344555],[-81.45472800031797,28.57002200015741],[-81.45467899991418,28.570040999966718],[-81.45460799976908,28.570050999657354],[-81.45455400024069,28.570046000206627],[-81.45408600043555,28.569925000329977],[-81.45377400026602,28.569845000315574],[-81.45368600040247,28.56983099993206],[-81.45321199985123,28.569877999747074],[-81.45288100031345,28.569914999838414],[-81.45271300008395,28.569933999667043],[-81.45252200028824,28.569940000276578],[-81.45214700036954,28.569940000276578],[-81.45217499995861,28.572448999806667],[-81.45269499964228,28.57240499979677],[-81.45283199990963,28.57241399971065],[-81.45290800007763,28.572430999984146],[-81.45311800013991,28.572525999977003],[-81.4531809998891,28.572541000341733],[-81.45322699991986,28.572543999783278],[-81.45390700033542,28.572541999892604],[-81.45402199996315,28.572541999892604],[-81.45436900029279,28.572540000001904],[-81.4545120004079,28.572538999662076],[-81.45499699993148,28.572538000111166],[-81.45503799993938,28.57233500035266],[-81.45511300028244,28.572213999952766],[-81.45531499994881,28.57205799998818]],[[-81.45451999990551,28.571239999886856],[-81.45451700043078,28.572146000279865],[-81.45444899976039,28.572146999834505],[-81.45443600023994,28.572148000178057],[-81.45425499959164,28.572139999796132],[-81.45421000028412,28.572132000202522],[-81.45406299997103,28.572091000303388],[-81.45376500004518,28.5720049998666],[-81.45362799977785,28.57196999962287],[-81.4535969998157,28.571949000259966],[-81.45358000009728,28.57191999970529],[-81.4535769997242,28.571887999682403],[-81.45360900040959,28.571787999745503],[-81.45362199993006,28.57174899961814],[-81.45361899955702,28.57169299987519],[-81.45360299966349,28.57165399971261],[-81.45357800044745,28.57161999970068],[-81.45350099955623,28.571552999993028],[-81.45321400039937,28.57135599965171],[-81.45318900028501,28.57132499980867],[-81.45317500004131,28.571288999775934],[-81.45317500004131,28.571246999985114],[-81.45318900028501,28.571205999741156],[-81.45320400035364,28.57118399987305],[-81.45324600018643,28.5711620000003],[-81.45327700014856,28.571154000332328],[-81.45351800017299,28.571151999626313],[-81.45396900025969,28.571149999709178],[-81.45436099989685,28.571147999792032],[-81.45442100017131,28.571147999792032],[-81.45445399978328,28.57115600024939],[-81.45448300009559,28.571172999937215],[-81.45450499983691,28.571196999723945],[-81.45451999990551,28.571239999886856]]]},"properties":{"block_id":"120950121002004","school_id":"sch_mollie_ray_elementary","kids_est":5,"class":"green","shortest":{"len_m":1043.6,"mean_c":38.87,"peak_c":38.9,"dose":85.3},"coolest":{"len_m":1043.6,"mean_c":38.87,"peak_c":38.9,"dose":85.3},"delta_mean_c":0.0,"delta_dose_pct":0,"distance_mi":0.26,"status_now":"walk","status_rec":"walk","reason":"Shortest route already under threshold (dose 85).","safe_until_hour":null}}]}