{"type":"FeatureCollection","features":[{"type":"Feature","geometry":{"type":"Polygon","coordinates":[[[-81.426,28.6136],[-81.412,28.6136],[-81.412,28.6332],[-81.426,28.6332],[-81.426,28.6136]]]},"properties":{"block_id":"120951236001006","school_id":"sch_lockhart_middle","kids_est":44,"class":"green","shortest":{"len_m":497.0,"mean_c":36.99,"peak_c":38.19,"dose":27.5},"coolest":{"len_m":617.0,"mean_c":34.16,"peak_c":35.16,"dose":9.9},"delta_mean_c":-2.83,"delta_dose_pct":-64,"distance_mi":0.247,"status_now":"walk","status_rec":"walk","reason":"Shortest route already under threshold (dose 28).","safe_until_hour":null}}]}