{"type":"FeatureCollection","features":[{"type":"Feature","geometry":{"type":"Polygon","coordinates":[[[-81.46765099960362,28.55389099972386],[-81.46765399997669,28.553056000204435],[-81.46765099960362,28.552173999777363],[-81.46662399975673,28.552173999777363],[-81.46663100032774,28.552492000058393],[-81.46662999960454,28.552517999641832],[-81.46662499958165,28.553569000009446],[-81.46662499958165,28.553919999723327],[-81.46765099960362,28.55389099972386]]]},"properties":{"block_id":"120950122022026","school_id":"sch_robinswood_middle","kids_est":9,"class":"green","shortest":{"len_m":1076.7,"mean_c":38.65,"peak_c":38.7,"dose":84.5},"coolest":{"len_m":1078.8,"mean_c":38.6,"peak_c":38.7,"dose":83.5},"delta_mean_c":-0.05,"delta_dose_pct":-1,"distance_mi":0.54,"status_now":"walk","status_rec":"walk","reason":"Shortest route already under threshold (dose 84).","safe_until_hour":null}},{"type":"Feature","geometry":{"type":"Polygon","coordinates":[[[-81.4676620003726,28.563174999880157],[-81.46766099964935,28.56268799977317],[-81.46766099964935,28.561229999898078],[-81.46766099964935,28.561125999874513],[-81.46728999992861,28.561123000107443],[-81.46718000032375,28.56123400010936],[-81.46720700008792,28.562784999959593],[-81.46727599968492,28.562784999959593],[-81.46727599968492,28.563179999657336],[-81.46745999980791,28.563178000377686],[-81.4676620003726,28.563174999880157]]]},"properties":{"block_id":"120950122022007","school_id":"sch_robinswood_middle","kids_est":9,"class":"green","shortest":{"len_m":624.6,"mean_c":38.73,"peak_c":38.8,"dose":49.8},"coolest":{"len_m":624.6,"mean_c":38.73,"peak_c":38.8,"dose":49.8},"delta_mean_c":0.0,"delta_dose_pct":0,"distance_mi":0.213,"status_now":"walk","status_rec":"walk","reason":"Shortest route already under threshold (dose 50).","safe_until_hour":null}},{"type":"Feature","geometry":{"type":"Polygon","coordinates":[[[-81.46867800034883,28.556067999814207],[-81.46867900017374,28.55570499968569],[-81.46825900004916,28.55570499968569],[-81.46765300015177,28.555706999896316],[-81.46765300015177,28.555725999922853],[-81.46765200032685,28.557534999784057],[-81.46790199967378,28.55752900004528],[-81.46867599980068,28.55752300030609],[-81.46867599980068,28.55715899997428],[-81.46867800034883,28.556067999814207]]]},"properties":{"block_id":"120950122011011","school_id":"sch_robinswood_middle","kids_est":6,"class":"green","shortest":{"len_m":476.3,"mean_c":38.7,"peak_c":38.7,"dose":37.6},"coolest":{"len_m":476.3,"mean_c":38.7,"peak_c":38.7,"dose":37.6},"delta_mean_c":0.0,"delta_dose_pct":0,"distance_mi":0.29,"status_now":"walk","status_rec":"walk","reason":"Shortest route already under threshold (dose 38).","safe_until_hour":null}},{"type":"Feature","geometry":{"type":"Polygon","coordinates":[[[-81.47589999978729,28.555402999794467],[-81.4758989999624,28.555360000262016],[-81.47588300006885,28.554506000313637],[-81.47588300006885,28.55446499986007],[-81.47588999974155,28.554167000047944],[-81.4756110000823,28.554173999703732],[-81.47550499977709,28.55418799980288],[-81.47544700005076,28.554196999696533],[-81.47523699998848,28.55424299966711],[-81.47508899985048,28.554261000233346],[-81.47492499981895,28.554268999607316],[-81.47474599971879,28.554264000195893],[-81.47435999992942,28.55421599999557],[-81.47417199960844,28.554193000006915],[-81.47410499966131,28.55417599994344],[-81.47404600011008,28.554144000048602],[-81.47400099990422,28.554104999695113],[-81.47397300031514,28.554074000294055],[-81.47395999989634,28.554051000274374],[-81.47394900002568,28.554019000341533],[-81.4739089998427,28.553846999845515],[-81.47384899956826,28.553627000177723],[-81.47383299967473,28.5535669997582],[-81.47382000015426,28.5535379996615],[-81.47377699959824,28.55348600020279],[-81.47373099956748,28.55345300036605],[-81.47367899968896,28.553436999915444],[-81.47360199969606,28.553430999943114],[-81.47318199957148,28.553431999675507],[-81.47292300000372,28.553433000196957],[-81.47281400022376,28.553445000141025],[-81.47266600008578,28.55348600020279],[-81.47256800017647,28.553527999980062],[-81.47246400041941,28.553583999920004],[-81.4720200000054,28.553825000293923],[-81.47190399965443,28.553644000329847],[-81.47187900043839,28.553595000116086],[-81.47186099999672,28.553548000131116],[-81.47185099995097,28.553515000313816],[-81.4718309998595,28.553446999605583],[-81.47182199963868,28.55336999967889],[-81.47181999998884,28.55296199973231],[-81.47182900020968,28.55289400024509],[-81.47187199986737,28.55275300007758],[-81.47188500028618,28.552671999895967],[-81.47188899958583,28.552462999665607],[-81.47189500033191,28.55215199987628],[-81.47073399969243,28.552163999966385],[-81.47073500041563,28.552823999659452],[-81.47073700006547,28.553462000322526],[-81.47073299986751,28.554670000390225],[-81.47073399969243,28.554980999843586],[-81.47073500041563,28.555280000222783],[-81.4707320000426,28.55570000034252],[-81.4707250003699,28.55605999978788],[-81.47072799984463,28.55714200038973],[-81.47073000039278,28.55750300012112],[-81.47093799990691,28.557500000250847],[-81.47116399986272,28.557498000074293],[-81.47156200024598,28.557497000380515],[-81.47177099958503,28.557497000380515],[-81.47177099958503,28.55750899986143],[-81.47177099958503,28.55754600035637],[-81.47177099958503,28.55755900031389],[-81.47187900043839,28.55757500013807],[-81.47195200023333,28.557578000006192],[-81.47196300010398,28.557577000313174],[-81.47254600043516,28.557567000226303],[-81.4726750003066,28.557565999744142],[-81.47270100024588,28.557570999787746],[-81.47273399985782,28.557591999652683],[-81.47275399994932,28.557623000384982],[-81.47275499977421,28.55794899987205],[-81.47275899997217,28.559040000264023],[-81.47276099962201,28.559403999614936],[-81.47301300041539,28.559398999658352],[-81.47377099975044,28.559385000252206],[-81.47402400036877,28.559380999970664],[-81.47428700013448,28.559376000012982],[-81.47471499975666,28.559368999914103],[-81.474964000177,28.559368999914103],[-81.47507600033,28.5593639999559],[-81.47533999992064,28.559354000038745],[-81.47545000042382,28.559353000362588],[-81.47578299961143,28.55934999975603],[-81.47589399993952,28.55934999975603],[-81.47589200028968,28.558984000070108],[-81.4758860004419,28.557889000337525],[-81.47588499971867,28.55752399999969],[-81.47588399989377,28.55732200016792],[-81.47588300006885,28.557030000319866],[-81.47588700026682,28.556718999817928],[-81.47589099956647,28.556519000214898],[-81.47572499988512,28.55651700001963],[-81.47541299971557,28.55651799972277],[-81.47442000020389,28.556522999816135],[-81.4743659997772,28.55650199973795],[-81.47433499981507,28.556479000248643],[-81.47430300002803,28.556434999873748],[-81.47429299998227,28.556400999679106],[-81.47428899978432,28.556281000389394],[-81.4742879999594,28.556150000245943],[-81.47428600030959,28.555673000255556],[-81.47460799962654,28.555668000121816],[-81.47557400027239,28.555655999642063],[-81.47570899999158,28.55565499993079],[-81.47589599958933,28.55565900035391],[-81.47589999978729,28.555402999794467]]]},"properties":{"block_id":"120950122011014","school_id":"sch_robinswood_middle","kids_est":42,"class":"green","shortest":{"len_m":1131.4,"mean_c":38.54,"peak_c":38.7,"dose":87.1},"coolest":{"len_m":1131.4,"mean_c":38.54,"peak_c":38.7,"dose":87.1},"delta_mean_c":0.0,"delta_dose_pct":0,"distance_mi":0.343,"status_now":"walk","status_rec":"walk","reason":"Shortest route already under threshold (dose 87).","safe_until_hour":null}},{"type":"Feature","geometry":{"type":"Polygon","coordinates":[[[-81.46766099964935,28.561125999874513],[-81.46766099964935,28.560743999922604],[-81.46746400000588,28.560745000374567],[-81.46687599965182,28.560752000381985],[-81.46667999983323,28.560755000159574],[-81.46668300020627,28.560919999630638],[-81.46669300025204,28.56141499964808],[-81.46669699955169,28.56158100010657],[-81.46670400012268,28.561897999936367],[-81.46670999997048,28.562141999951553],[-81.46671699964315,28.5622859999021],[-81.46671599981825,28.562540000211186],[-81.4667049999476,28.56271600007205],[-81.46668999987898,28.56284999965225],[-81.46665700026702,28.563165999965005],[-81.46677699991763,28.56317900001751],[-81.46685700028355,28.563181999725927],[-81.46696000021572,28.563185999863013],[-81.46727599968492,28.563179999657336],[-81.46727599968492,28.562784999959593],[-81.46720700008792,28.562784999959593],[-81.46718000032375,28.56123400010936],[-81.46728999992861,28.561123000107443],[-81.46766099964935,28.561125999874513]]]},"properties":{"block_id":"120950122022006","school_id":"sch_robinswood_middle","kids_est":18,"class":"green","shortest":{"len_m":624.6,"mean_c":38.73,"peak_c":38.8,"dose":49.8},"coolest":{"len_m":624.6,"mean_c":38.73,"peak_c":38.8,"dose":49.8},"delta_mean_c":0.0,"delta_dose_pct":0,"distance_mi":0.226,"status_now":"walk","status_rec":"walk","reason":"Shortest route already under threshold (dose 50).","safe_until_hour":null}},{"type":"Feature","geometry":{"type":"Polygon","coordinates":[[[-81.466621000282,28.556504999636655],[-81.46662299993181,28.55574700015584],[-81.46590599970635,28.555769000094873],[-81.46559600008493,28.55578200027183],[-81.46467299999513,28.555810000040648],[-81.46458199975854,28.55581200024929],[-81.46456300039027,28.55582300021259],[-81.46456300039027,28.555937000194746],[-81.46456800041314,28.5585170002938],[-81.46456800041314,28.558624000366372],[-81.46456800041314,28.558944999931533],[-81.46456900023806,28.558998000318603],[-81.46457799956057,28.559033000142804],[-81.4645869997814,28.559048999742945],[-81.46461199989575,28.55907700022084],[-81.46464500040605,28.559097000106785],[-81.46470399995728,28.559109000194297],[-81.46477099990442,28.559109000194297],[-81.46538400037285,28.559109000194297],[-81.46558900041225,28.55910999987276],[-81.46559100006208,28.5584079999532],[-81.46559899955967,28.55670899964956],[-81.46560600013069,28.55667800022616],[-81.46561899965116,28.556647999706428],[-81.46566100038228,28.55659400001188],[-81.46568800014646,28.556572999947853],[-81.46571900010859,28.556554999776974],[-81.46575300044378,28.556541999695412],[-81.46578799970557,28.5565339997051],[-81.46591900012514,28.556528999612258],[-81.466621000282,28.556504999636655]]]},"properties":{"block_id":"120950122022015","school_id":"sch_robinswood_middle","kids_est":63,"class":"green","shortest":{"len_m":604.6,"mean_c":38.75,"peak_c":38.8,"dose":48.3},"coolest":{"len_m":607.7,"mean_c":38.73,"peak_c":38.8,"dose":48.2},"delta_mean_c":-0.02,"delta_dose_pct":0,"distance_mi":0.376,"status_now":"walk","status_rec":"walk","reason":"Shortest route already under threshold (dose 48).","safe_until_hour":null}},{"type":"Feature","geometry":{"type":"Polygon","coordinates":[[[-81.46559500026004,28.554316000059448],[-81.46559699990985,28.553950000231353],[-81.46539000022062,28.553953999930197],[-81.46477099990442,28.553968000058607],[-81.46467399982005,28.55397100002951],[-81.46456500004011,28.553974000000323],[-81.46456500004011,28.555562999625298],[-81.46456300039027,28.55582300021259],[-81.46458199975854,28.55581200024929],[-81.46467299999513,28.555810000040648],[-81.46559600008493,28.55578200027183],[-81.46559400043512,28.55541500030306],[-81.46559299971189,28.555208000214368],[-81.46559500026004,28.554316000059448]]]},"properties":{"block_id":"120950122022021","school_id":"sch_robinswood_middle","kids_est":15,"class":"green","shortest":{"len_m":1163.5,"mean_c":38.69,"peak_c":38.7,"dose":91.7},"coolest":{"len_m":1164.5,"mean_c":38.66,"peak_c":38.7,"dose":91.5},"delta_mean_c":-0.03,"delta_dose_pct":0,"distance_mi":0.494,"status_now":"walk","status_rec":"walk","reason":"Shortest route already under threshold (dose 92).","safe_until_hour":null}},{"type":"Feature","geometry":{"type":"Polygon","coordinates":[[[-81.464565999865,28.55359099961447],[-81.46456500004011,28.553258000330597],[-81.46456199966704,28.55256599982718],[-81.46456099984215,28.552225999884065],[-81.46354099966796,28.55223499994541],[-81.46353999984304,28.553366999690862],[-81.46353900001812,28.55401400012918],[-81.46445799990998,28.553986999609904],[-81.46454699959844,28.553985000155667],[-81.46456500004011,28.553974000000323],[-81.46456500004011,28.553621999946824],[-81.464565999865,28.55359099961447]]]},"properties":{"block_id":"120950122022028","school_id":"sch_robinswood_middle","kids_est":0,"class":"green","shortest":{"len_m":1312.4,"mean_c":38.74,"peak_c":38.8,"dose":104.8},"coolest":{"len_m":1318.9,"mean_c":38.65,"peak_c":38.7,"dose":103.4},"delta_mean_c":-0.09,"delta_dose_pct":-1,"distance_mi":0.628,"status_now":"walk","status_rec":"walk","reason":"Shortest route already under threshold (dose 105).","safe_until_hour":null}},{"type":"Feature","geometry":{"type":"Polygon","coordinates":[[[-81.46456099984215,28.552225999884065],[-81.46456099984215,28.552181000354697],[-81.46455900019231,28.552045000327546],[-81.46401199984614,28.552052000124387],[-81.4635370003683,28.552067999996375],[-81.46354099966796,28.55218999963089],[-81.46354099966796,28.55223499994541],[-81.46456099984215,28.552225999884065]]]},"properties":{"block_id":"120950147013003","school_id":"sch_robinswood_middle","kids_est":0,"class":"red","shortest":{"len_m":1443.8,"mean_c":38.72,"peak_c":38.8,"dose":114.9},"coolest":{"len_m":1446.6,"mean_c":38.54,"peak_c":38.7,"dose":111.2},"delta_mean_c":-0.18,"delta_dose_pct":-3,"distance_mi":0.682,"status_now":"walk","status_rec":"bus_eligible","reason":"Coolest route mean 38.5C exceeds threshold (110 C-min dose, actual 111).","safe_until_hour":"14:00"}},{"type":"Feature","geometry":{"type":"Polygon","coordinates":[[[-81.48047900025135,28.5610959998334],[-81.48047800042643,28.56092399985374],[-81.48046699965748,28.560841999984632],[-81.48044400009125,28.56076200016628],[-81.48041099958095,28.560685000066705],[-81.48036700009835,28.560612000145728],[-81.48029400030342,28.560522000346356],[-81.48028599990751,28.56051199975027],[-81.4802220003334,28.560454000218993],[-81.48015100018829,28.560402999897402],[-81.48003099963937,28.560343000183618],[-81.47990500014099,28.560298999845735],[-81.47981700027744,28.56027999985553],[-81.47972699986575,28.560272999816764],[-81.47947400014577,28.56028699989389],[-81.47919100028855,28.56031099979628],[-81.47888499996681,28.56032099962247],[-81.47849900017742,28.56032099962247],[-81.47831699970423,28.56032099962247],[-81.4778780002114,28.560324999868293],[-81.47787599966325,28.5600150000916],[-81.47787300018852,28.55908599969654],[-81.47787300018852,28.55895600035645],[-81.47788700043222,28.558826000066784],[-81.4778990001278,28.55877900005001],[-81.47779799984546,28.558756000269184],[-81.47749700044488,28.558689000261502],[-81.47739699998746,28.558667000143686],[-81.47730900012391,28.558957999716338],[-81.47727599961362,28.55903000031613],[-81.47720700001666,28.559129000074165],[-81.47714799956711,28.559185999868735],[-81.47707999979505,28.55923499984739],[-81.47697199984002,28.55928899976523],[-81.47692300033454,28.559307000257714],[-81.4767090000743,28.559332000059918],[-81.47649399998913,28.559344999796938],[-81.47626800003333,28.55934299965543],[-81.47608100043557,28.559337999695984],[-81.47589399993952,28.55934999975603],[-81.47589800013748,28.559495000045004],[-81.47589800013748,28.559931000173034],[-81.47589800013748,28.559948999766732],[-81.47590099961221,28.560077000119986],[-81.47590200033544,28.560222000196486],[-81.47590499981017,28.560659999796833],[-81.4759070003583,28.560806000310624],[-81.4759070003583,28.560869000323837],[-81.47590800018322,28.56106000024626],[-81.47590900000813,28.56112399976685],[-81.47610999984958,28.561123000107443],[-81.47671300027226,28.561118999891953],[-81.47691499993863,28.561118999891953],[-81.4770899998408,28.561116999784147],[-81.47761700009549,28.561113000357448],[-81.47779299982258,28.561113000357448],[-81.47797100009781,28.56111100024953],[-81.4785050000252,28.56110700003358],[-81.47868400012533,28.56110600037407],[-81.47886099967735,28.561104999925558],[-81.47939200013,28.561102000157945],[-81.47957000040523,28.561102000157945],[-81.4797510001552,28.561100000049823],[-81.48029699977816,28.5610959998334],[-81.48047900025135,28.5610959998334]]]},"properties":{"block_id":"120950149081009","school_id":"sch_robinswood_middle","kids_est":57,"class":"green","shortest":{"len_m":584.4,"mean_c":38.57,"peak_c":38.7,"dose":45.2},"coolest":{"len_m":584.4,"mean_c":38.57,"peak_c":38.7,"dose":45.2},"delta_mean_c":0.0,"delta_dose_pct":0,"distance_mi":0.447,"status_now":"walk","status_rec":"walk","reason":"Shortest route already under threshold (dose 45).","safe_until_hour":null}},{"type":"Feature","geometry":{"type":"Polygon","coordinates":[[[-81.46669699955169,28.56158100010657],[-81.46669300025204,28.56141499964808],[-81.46668300020627,28.560919999630638],[-81.46667999983323,28.560755000159574],[-81.46601700003443,28.56076499994359],[-81.46584499960697,28.5607679997208],[-81.46352700032257,28.56081899986555],[-81.46346600022319,28.56082300009244],[-81.46340500012383,28.560834000321154],[-81.46334700039749,28.560851000098506],[-81.46328700012305,28.560869999985595],[-81.46316800029736,28.560932999960553],[-81.463107000198,28.56097600037268],[-81.46269000044649,28.561351999961612],[-81.46283400038652,28.56147300022778],[-81.46326600020664,28.561836999844193],[-81.4634109999716,28.561958999993234],[-81.46357599982805,28.561811999847937],[-81.46365100017113,28.561761000184315],[-81.46371800011828,28.56172200028567],[-81.46377699966949,28.561693999722362],[-81.46389899986823,28.561654999798833],[-81.46399599995262,28.561638000151337],[-81.46410399990765,28.561631999857404],[-81.46419900034219,28.561629000104812],[-81.46442100010006,28.561624999908556],[-81.4645099997885,28.561622000155765],[-81.4646000002002,28.561620999712137],[-81.46477900030034,28.561615999860916],[-81.4648689998137,28.561615000206242],[-81.46523399968669,28.5616080002562],[-81.46633099985377,28.56158699961446],[-81.46669699955169,28.56158100010657]]]},"properties":{"block_id":"120950122022004","school_id":"sch_robinswood_middle","kids_est":30,"class":"green","shortest":{"len_m":813.1,"mean_c":38.75,"peak_c":38.8,"dose":65.0},"coolest":{"len_m":813.1,"mean_c":38.75,"peak_c":38.8,"dose":65.0},"delta_mean_c":0.0,"delta_dose_pct":0,"distance_mi":0.343,"status_now":"walk","status_rec":"walk","reason":"Shortest route already under threshold (dose 65).","safe_until_hour":null}},{"type":"Feature","geometry":{"type":"Polygon","coordinates":[[[-81.46877000041033,28.55963899967173],[-81.46876700003727,28.55950499994871],[-81.46876600021237,28.559378000153863],[-81.46867599980068,28.559378999829793],[-81.46765800017464,28.559403999614936],[-81.46765800017464,28.559910999656584],[-81.46857700006649,28.559898999660444],[-81.46867199960272,28.559898999660444],[-81.46868599984643,28.55986999972996],[-81.4687260000294,28.55979299976689],[-81.46875399961849,28.559717000209158],[-81.46877000041033,28.55963899967173]]]},"properties":{"block_id":"120950122011009","school_id":"sch_robinswood_middle","kids_est":9,"class":"green","shortest":{"len_m":256.2,"mean_c":38.7,"peak_c":38.7,"dose":20.4},"coolest":{"len_m":256.2,"mean_c":38.7,"peak_c":38.7,"dose":20.4},"delta_mean_c":0.0,"delta_dose_pct":0,"distance_mi":0.138,"status_now":"walk","status_rec":"walk","reason":"Shortest route already under threshold (dose 20).","safe_until_hour":null}},{"type":"Feature","geometry":{"type":"Polygon","coordinates":[[[-81.47276099962201,28.559403999614936],[-81.47275899997217,28.559040000264023],[-81.47275499977421,28.55794899987205],[-81.47275399994932,28.557623000384982],[-81.47273399985782,28.557591999652683],[-81.47270100024588,28.557570999787746],[-81.4726750003066,28.557565999744142],[-81.47254600043516,28.557567000226303],[-81.47196300010398,28.557577000313174],[-81.47195200023333,28.557578000006192],[-81.47187900043839,28.55757500013807],[-81.47177099958503,28.55755900031389],[-81.47177099958503,28.557930999936367],[-81.47177099958503,28.559048999742945],[-81.47177200030828,28.559422000087704],[-81.47196899995177,28.559417999807568],[-81.47256300015361,28.559407000219966],[-81.47276099962201,28.559403999614936]]]},"properties":{"block_id":"120950122011005","school_id":"sch_robinswood_middle","kids_est":18,"class":"green","shortest":{"len_m":197.1,"mean_c":38.65,"peak_c":38.7,"dose":15.4},"coolest":{"len_m":197.1,"mean_c":38.65,"peak_c":38.7,"dose":15.4},"delta_mean_c":0.0,"delta_dose_pct":0,"distance_mi":0.174,"status_now":"walk","status_rec":"walk","reason":"Shortest route already under threshold (dose 15).","safe_until_hour":null}},{"type":"Feature","geometry":{"type":"Polygon","coordinates":[[[-81.47177200030828,28.559422000087704],[-81.47177099958503,28.559048999742945],[-81.47177099958503,28.557930999936367],[-81.47177099958503,28.55755900031389],[-81.47177099958503,28.55754600035637],[-81.47177099958503,28.55750899986143],[-81.47177099958503,28.557497000380515],[-81.47156200024598,28.557497000380515],[-81.47116399986272,28.557498000074293],[-81.47093799990691,28.557500000250847],[-81.47073000039278,28.55750300012112],[-81.47073000039278,28.55787499994154],[-81.4707320000426,28.55899300034279],[-81.47073299986751,28.55936600009702],[-81.47093999955673,28.559383000111453],[-81.47128199986349,28.55941099971149],[-81.47156300007089,28.55942099962317],[-81.47158200033746,28.559422000087704],[-81.47177200030828,28.559422000087704]]]},"properties":{"block_id":"120950122011006","school_id":"sch_robinswood_middle","kids_est":3,"class":"green","shortest":{"len_m":0.0,"mean_c":0.0,"peak_c":null,"dose":0.0},"coolest":{"len_m":0.0,"mean_c":0.0,"peak_c":null,"dose":0.0},"delta_mean_c":0.0,"delta_dose_pct":0,"distance_mi":0.143,"status_now":"walk","status_rec":"walk","reason":"Shortest route already under threshold (dose 0).","safe_until_hour":null}},{"type":"Feature","geometry":{"type":"Polygon","coordinates":[[[-81.47073299986751,28.55936600009702],[-81.4707320000426,28.55899300034279],[-81.47073000039278,28.55787499994154],[-81.47073000039278,28.55750300012112],[-81.47052399963013,28.557503999814887],[-81.46990900041021,28.557511000037795],[-81.46970400037081,28.55751300021412],[-81.46970400037081,28.557882999829896],[-81.46970699984553,28.558714000210458],[-81.46970400037081,28.558996000170506],[-81.46970099999776,28.559366999773054],[-81.46990699986208,28.559361999814765],[-81.47041900004815,28.55935899999747],[-81.47052600017828,28.559361000138683],[-81.47073299986751,28.55936600009702]]]},"properties":{"block_id":"120950122011007","school_id":"sch_robinswood_middle","kids_est":30,"class":"green","shortest":{"len_m":305.7,"mean_c":38.7,"peak_c":38.7,"dose":24.1},"coolest":{"len_m":305.7,"mean_c":38.7,"peak_c":38.7,"dose":24.1},"delta_mean_c":0.0,"delta_dose_pct":0,"distance_mi":0.133,"status_now":"walk","status_rec":"walk","reason":"Shortest route already under threshold (dose 24).","safe_until_hour":null}},{"type":"Feature","geometry":{"type":"Polygon","coordinates":[[[-81.46765099960362,28.552129000225783],[-81.46765099960362,28.55200200021276],[-81.4668460004129,28.552000999677723],[-81.4655650001228,28.552030000197746],[-81.46535800043357,28.552034999715236],[-81.46455900019231,28.552045000327546],[-81.46456099984215,28.552181000354697],[-81.46456099984215,28.552225999884065],[-81.46557099997058,28.55219299965244],[-81.46662399975673,28.552173999777363],[-81.46765099960362,28.552173999777363],[-81.46765099960362,28.552129000225783]]]},"properties":{"block_id":"120950147013004","school_id":"sch_robinswood_middle","kids_est":0,"class":"green","shortest":{"len_m":1276.4,"mean_c":38.61,"peak_c":38.7,"dose":99.6},"coolest":{"len_m":1280.4,"mean_c":38.54,"peak_c":38.7,"dose":98.2},"delta_mean_c":-0.07,"delta_dose_pct":-1,"distance_mi":0.623,"status_now":"walk","status_rec":"walk","reason":"Shortest route already under threshold (dose 100).","safe_until_hour":null}},{"type":"Feature","geometry":{"type":"Polygon","coordinates":[[[-81.4685789997163,28.563155999620104],[-81.4685779998914,28.562504000328875],[-81.46857700006649,28.560549999643438],[-81.46857700006649,28.559898999660444],[-81.46765800017464,28.559910999656584],[-81.46766099964935,28.560743999922604],[-81.46766099964935,28.561125999874513],[-81.46766099964935,28.561229999898078],[-81.46766099964935,28.56268799977317],[-81.4676620003726,28.563174999880157],[-81.46784499977238,28.563170999742653],[-81.46839499959329,28.56315900011818],[-81.4685789997163,28.563155999620104]]]},"properties":{"block_id":"120950122011003","school_id":"sch_robinswood_middle","kids_est":18,"class":"green","shortest":{"len_m":438.2,"mean_c":38.7,"peak_c":38.8,"dose":34.9},"coolest":{"len_m":438.2,"mean_c":38.7,"peak_c":38.8,"dose":34.9},"delta_mean_c":0.0,"delta_dose_pct":0,"distance_mi":0.156,"status_now":"walk","status_rec":"walk","reason":"Shortest route already under threshold (dose 35).","safe_until_hour":null}},{"type":"Feature","geometry":{"type":"Polygon","coordinates":[[[-81.47073399969243,28.552163999966385],[-81.47073399969243,28.552105000036267],[-81.47073299986751,28.551978999740484],[-81.47033899968221,28.551984999795547],[-81.46906300031328,28.552000999677723],[-81.46770300038047,28.552002999958717],[-81.46765099960362,28.55200200021276],[-81.46765099960362,28.552129000225783],[-81.46765099960362,28.552173999777363],[-81.47073399969243,28.552163999966385]]]},"properties":{"block_id":"120950147015000","school_id":"sch_robinswood_middle","kids_est":0,"class":"green","shortest":{"len_m":1107.3,"mean_c":38.56,"peak_c":38.7,"dose":85.2},"coolest":{"len_m":1107.3,"mean_c":38.56,"peak_c":38.7,"dose":85.2},"delta_mean_c":0.0,"delta_dose_pct":0,"distance_mi":0.573,"status_now":"walk","status_rec":"walk","reason":"Shortest route already under threshold (dose 85).","safe_until_hour":null}},{"type":"Feature","geometry":{"type":"Polygon","coordinates":[[[-81.46662899977962,28.563419999728396],[-81.46665700026702,28.563165999965005],[-81.4664589999003,28.563143000353808],[-81.46641500041767,28.563137999785894],[-81.46617400039327,28.563089999686838],[-81.4658739999193,28.56302399971216],[-81.46575300044378,28.562998000356313],[-81.46567899992561,28.56298700035375],[-81.46559799973475,28.56298300020911],[-81.46555400025215,28.562981000136723],[-81.46547999973399,28.56297999970602],[-81.46534500001478,28.562977999633585],[-81.46527399986967,28.5629790000643],[-81.46506899983027,28.56297999970602],[-81.46492900008816,28.56296800005982],[-81.46483600020176,28.56295099983538],[-81.46480900043757,28.562946999689377],[-81.46464600023094,28.562901000366132],[-81.46456900023806,28.562869999610246],[-81.4644529998871,28.562811999800367],[-81.46430999977197,28.562716999716265],[-81.46420199981694,28.562631999942056],[-81.46374499988245,28.562243000025145],[-81.4634109999716,28.561958999993234],[-81.46326600020664,28.561836999844193],[-81.46283400038652,28.56147300022778],[-81.46269000044649,28.561351999961612],[-81.46256099967673,28.561469999681655],[-81.46217599971224,28.56182599972035],[-81.46204799966573,28.561945000138493],[-81.46219800035188,28.56207800026101],[-81.46235999983527,28.562213999951457],[-81.46264400041572,28.56245300021162],[-81.46303900042592,28.562795000339797],[-81.46330300001657,28.563014999784095],[-81.4636210000339,28.563279000246066],[-81.46370100039984,28.56334500006081],[-81.46381400037774,28.563423999856436],[-81.463980999884,28.563519999727966],[-81.46406799992263,28.563562000236015],[-81.46410200025784,28.56357900036169],[-81.46432800021364,28.563670000338195],[-81.46440500020653,28.563694000258202],[-81.46466499959921,28.56375300000539],[-81.46486600033897,28.563783999712204],[-81.465002999708,28.563793999997422],[-81.46540600011414,28.563798999745188],[-81.46554000000845,28.56380799960622],[-81.46562700004709,28.563826000114837],[-81.46566300003211,28.5638340003399],[-81.46574599987277,28.563869000134037],[-81.4658260002387,28.563914999823137],[-81.46589499983568,28.563972000181888],[-81.46595799958487,28.564041000034976],[-81.4660299995549,28.56415000006528],[-81.46625899988375,28.564036000298714],[-81.46628800019607,28.56402300035207],[-81.46637000021184,28.563978999974644],[-81.46640600019684,28.56395300006571],[-81.46646599957299,28.5638990001737],[-81.46651999999968,28.56383799966327],[-81.46656199983246,28.56376899967708],[-81.46658100009903,28.563724999982394],[-81.46659799981748,28.5636640001601],[-81.46661200006118,28.56358299969469],[-81.46662899977962,28.563419999728396]]]},"properties":{"block_id":"120950122021026","school_id":"sch_robinswood_middle","kids_est":15,"class":"green","shortest":{"len_m":1202.0,"mean_c":38.75,"peak_c":38.8,"dose":96.0},"coolest":{"len_m":1202.0,"mean_c":38.75,"peak_c":38.8,"dose":96.0},"delta_mean_c":0.0,"delta_dose_pct":0,"distance_mi":0.404,"status_now":"walk","status_rec":"walk","reason":"Shortest route already under threshold (dose 96).","safe_until_hour":null}},{"type":"Feature","geometry":{"type":"Polygon","coordinates":[[[-81.46766099964935,28.560743999922604],[-81.46765800017464,28.559910999656584],[-81.46469399991152,28.559965999687005],[-81.46414699956536,28.55997900013469],[-81.46401100002123,28.559967999816678],[-81.46390200024128,28.55994699963669],[-81.46384500033987,28.559928000371972],[-81.46372099959301,28.559866000255866],[-81.46356499995738,28.559751000121917],[-81.4635159995536,28.559719000343577],[-81.46337199961353,28.559647999888412],[-81.46331800008518,28.559625999971008],[-81.46325799981074,28.559608000322093],[-81.46315900007653,28.559589999881123],[-81.46312899993929,28.559587999744274],[-81.46305799979417,28.55958599960739],[-81.46189399967994,28.559608000322093],[-81.46148299977622,28.5596160000788],[-81.46149000034724,28.55984200025202],[-81.46149700001992,28.56003499979932],[-81.46151299991345,28.560151000080598],[-81.46153100035511,28.560229000238635],[-81.46156099959403,28.560298999845735],[-81.46162099986849,28.560402000231203],[-81.46167799976988,28.56047699962881],[-81.4616850003409,28.560485999773906],[-81.46178599972491,28.56058199995816],[-81.46184500017446,28.560631999740018],[-81.4618689995656,28.560652999783343],[-81.46194399990867,28.560717000340347],[-81.46196999984794,28.56073900002972],[-81.4621149996129,28.560858999760686],[-81.46220900022254,28.560937000183106],[-81.46254599960811,28.561227999792386],[-81.46269000044649,28.561351999961612],[-81.463107000198,28.56097600037268],[-81.46316800029736,28.560932999960553],[-81.46328700012305,28.560869999985595],[-81.46334700039749,28.560851000098506],[-81.46340500012383,28.560834000321154],[-81.46346600022319,28.56082300009244],[-81.46352700032257,28.56081899986555],[-81.46584499960697,28.5607679997208],[-81.46601700003443,28.56076499994359],[-81.46667999983323,28.560755000159574],[-81.46687599965182,28.560752000381985],[-81.46746400000588,28.560745000374567],[-81.46766099964935,28.560743999922604]]]},"properties":{"block_id":"120950122022003","school_id":"sch_robinswood_middle","kids_est":27,"class":"green","shortest":{"len_m":756.9,"mean_c":38.75,"peak_c":38.8,"dose":60.7},"coolest":{"len_m":756.9,"mean_c":38.75,"peak_c":38.8,"dose":60.7},"delta_mean_c":0.0,"delta_dose_pct":0,"distance_mi":0.368,"status_now":"walk","status_rec":"walk","reason":"Shortest route already under threshold (dose 61).","safe_until_hour":null}},{"type":"Feature","geometry":{"type":"Polygon","coordinates":[[[-81.46765800017464,28.559910999656584],[-81.46765800017464,28.559403999614936],[-81.46765700034972,28.55937399987206],[-81.46734799965492,28.559380999970664],[-81.46684100039003,28.559417000132033],[-81.466761999849,28.55941200017611],[-81.46671300034352,28.559402000263507],[-81.46667900000833,28.559387000392924],[-81.46663999965027,28.559351000221234],[-81.46662399975673,28.559319999997825],[-81.46661799990895,28.559288000088458],[-81.46661999955877,28.55910999987276],[-81.46641299986955,28.55910999987276],[-81.46579500027657,28.55910999987276],[-81.46558900041225,28.55910999987276],[-81.46538400037285,28.559109000194297],[-81.46477099990442,28.559109000194297],[-81.46470399995728,28.559109000194297],[-81.46464500040605,28.559097000106785],[-81.46461199989575,28.55907700022084],[-81.4645869997814,28.559048999742945],[-81.46457799956057,28.559033000142804],[-81.46456900023806,28.558998000318603],[-81.46456800041314,28.558944999931533],[-81.46456800041314,28.558624000366372],[-81.46456800041314,28.5585170002938],[-81.4635370003683,28.55852500013343],[-81.4635370003683,28.558819999612552],[-81.46353499982017,28.55899899999813],[-81.46352999979729,28.559538999929877],[-81.46352999979729,28.559614999616116],[-81.4635159995536,28.559719000343577],[-81.46356499995738,28.559751000121917],[-81.46372099959301,28.559866000255866],[-81.46384500033987,28.559928000371972],[-81.46390200024128,28.55994699963669],[-81.46401100002123,28.559967999816678],[-81.46414699956536,28.55997900013469],[-81.46469399991152,28.559965999687005],[-81.46765800017464,28.559910999656584]]]},"properties":{"block_id":"120950122022014","school_id":"sch_robinswood_middle","kids_est":3,"class":"green","shortest":{"len_m":530.7,"mean_c":38.74,"peak_c":38.8,"dose":42.4},"coolest":{"len_m":530.7,"mean_c":38.74,"peak_c":38.8,"dose":42.4},"delta_mean_c":0.0,"delta_dose_pct":0,"distance_mi":0.317,"status_now":"walk","status_rec":"walk","reason":"Shortest route already under threshold (dose 42).","safe_until_hour":null}},{"type":"Feature","geometry":{"type":"Polygon","coordinates":[[[-81.4707250003699,28.55605999978788],[-81.4707320000426,28.55570000034252],[-81.47052600017828,28.555698999842622],[-81.46991100006004,28.555698999842622],[-81.46970600002062,28.555698999842622],[-81.4697050001957,28.55606100028434],[-81.46970400037081,28.557150000333838],[-81.46970400037081,28.55751300021412],[-81.46990900041021,28.557511000037795],[-81.47052399963013,28.557503999814887],[-81.47073000039278,28.55750300012112],[-81.47072799984463,28.55714200038973],[-81.4707250003699,28.55605999978788]]]},"properties":{"block_id":"120950122011013","school_id":"sch_robinswood_middle","kids_est":0,"class":"green","shortest":{"len_m":425.4,"mean_c":38.7,"peak_c":38.7,"dose":33.6},"coolest":{"len_m":425.4,"mean_c":38.7,"peak_c":38.7,"dose":33.6},"delta_mean_c":0.0,"delta_dose_pct":0,"distance_mi":0.259,"status_now":"walk","status_rec":"walk","reason":"Shortest route already under threshold (dose 34).","safe_until_hour":null}},{"type":"Feature","geometry":{"type":"Polygon","coordinates":[[[-81.4697050001957,28.55606100028434],[-81.46970600002062,28.555698999842622],[-81.46960899993626,28.555698999842622],[-81.46932000023125,28.55570199976419],[-81.46922399997177,28.55570300026406],[-81.46911400036693,28.55570300026406],[-81.46878799995368,28.555703999974888],[-81.46867900017374,28.55570499968569],[-81.46867800034883,28.556067999814207],[-81.46867599980068,28.55715899997428],[-81.46867599980068,28.55752300030609],[-81.46888099984011,28.557519999647372],[-81.46949799960817,28.557513999907734],[-81.46970400037081,28.55751300021412],[-81.46970400037081,28.557150000333838],[-81.4697050001957,28.55606100028434]]]},"properties":{"block_id":"120950122011012","school_id":"sch_robinswood_middle","kids_est":0,"class":"green","shortest":{"len_m":489.3,"mean_c":38.7,"peak_c":38.7,"dose":38.7},"coolest":{"len_m":489.3,"mean_c":38.7,"peak_c":38.7,"dose":38.7},"delta_mean_c":0.0,"delta_dose_pct":0,"distance_mi":0.268,"status_now":"walk","status_rec":"walk","reason":"Shortest route already under threshold (dose 39).","safe_until_hour":null}},{"type":"Feature","geometry":{"type":"Polygon","coordinates":[[[-81.46867599980068,28.559378999829793],[-81.46867900017374,28.557647999798128],[-81.46867599980068,28.55752300030609],[-81.46790199967378,28.55752900004528],[-81.46765200032685,28.557534999784057],[-81.46765700034972,28.55937399987206],[-81.46765800017464,28.559403999614936],[-81.46867599980068,28.559378999829793]]]},"properties":{"block_id":"120950122011010","school_id":"sch_robinswood_middle","kids_est":9,"class":"green","shortest":{"len_m":506.6,"mean_c":38.72,"peak_c":38.8,"dose":40.1},"coolest":{"len_m":506.6,"mean_c":38.72,"peak_c":38.8,"dose":40.1},"delta_mean_c":0.0,"delta_dose_pct":0,"distance_mi":0.186,"status_now":"walk","status_rec":"walk","reason":"Shortest route already under threshold (dose 40).","safe_until_hour":null}},{"type":"Feature","geometry":{"type":"Polygon","coordinates":[[[-81.46765700034972,28.55937399987206],[-81.46765200032685,28.557534999784057],[-81.466621000282,28.557550999611884],[-81.46661999955877,28.557862000022986],[-81.46661999955877,28.558798000311143],[-81.46661999955877,28.55910999987276],[-81.46661799990895,28.559288000088458],[-81.46662399975673,28.559319999997825],[-81.46663999965027,28.559351000221234],[-81.46667900000833,28.559387000392924],[-81.46671300034352,28.559402000263507],[-81.466761999849,28.55941200017611],[-81.46684100039003,28.559417000132033],[-81.46734799965492,28.559380999970664],[-81.46765700034972,28.55937399987206]]]},"properties":{"block_id":"120950122022025","school_id":"sch_robinswood_middle","kids_est":6,"class":"green","shortest":{"len_m":430.2,"mean_c":38.73,"peak_c":38.8,"dose":34.3},"coolest":{"len_m":430.2,"mean_c":38.73,"peak_c":38.8,"dose":34.3},"delta_mean_c":0.0,"delta_dose_pct":0,"distance_mi":0.234,"status_now":"walk","status_rec":"walk","reason":"Shortest route already under threshold (dose 34).","safe_until_hour":null}},{"type":"Feature","geometry":{"type":"Polygon","coordinates":[[[-81.46671599981825,28.562540000211186],[-81.46671699964315,28.5622859999021],[-81.46670999997048,28.562141999951553],[-81.46670400012268,28.561897999936367],[-81.46669699955169,28.56158100010657],[-81.46633099985377,28.56158699961446],[-81.46523399968669,28.5616080002562],[-81.4648689998137,28.561615000206242],[-81.46477900030034,28.561615999860916],[-81.4646000002002,28.561620999712137],[-81.4645099997885,28.561622000155765],[-81.46442100010006,28.561624999908556],[-81.46419900034219,28.561629000104812],[-81.46410399990765,28.561631999857404],[-81.46399599995262,28.561638000151337],[-81.46389899986823,28.561654999798833],[-81.46377699966949,28.561693999722362],[-81.46371800011828,28.56172200028567],[-81.46365100017113,28.561761000184315],[-81.46357599982805,28.561811999847937],[-81.4634109999716,28.561958999993234],[-81.46374499988245,28.562243000025145],[-81.46420199981694,28.562631999942056],[-81.46430999977197,28.562716999716265],[-81.4644529998871,28.562811999800367],[-81.46456900023806,28.562869999610246],[-81.46464600023094,28.562901000366132],[-81.46480900043757,28.562946999689377],[-81.46483600020176,28.56295099983538],[-81.46492900008816,28.56296800005982],[-81.46506899983027,28.56297999970602],[-81.46527399986967,28.5629790000643],[-81.46534500001478,28.562977999633585],[-81.46547999973399,28.56297999970602],[-81.46555400025215,28.562981000136723],[-81.46559799973475,28.56298300020911],[-81.46567899992561,28.56298700035375],[-81.46575300044378,28.562998000356313],[-81.4658739999193,28.56302399971216],[-81.46617400039327,28.563089999686838],[-81.46641500041767,28.563137999785894],[-81.4664589999003,28.563143000353808],[-81.46665700026702,28.563165999965005],[-81.46668999987898,28.56284999965225],[-81.4667049999476,28.56271600007205],[-81.46671599981825,28.562540000211186]]]},"properties":{"block_id":"120950122022005","school_id":"sch_robinswood_middle","kids_est":36,"class":"green","shortest":{"len_m":793.8,"mean_c":38.74,"peak_c":38.8,"dose":63.4},"coolest":{"len_m":793.8,"mean_c":38.74,"peak_c":38.8,"dose":63.4},"delta_mean_c":0.0,"delta_dose_pct":0,"distance_mi":0.33,"status_now":"walk","status_rec":"walk","reason":"Shortest route already under threshold (dose 63).","safe_until_hour":null}},{"type":"Feature","geometry":{"type":"Polygon","coordinates":[[[-81.47073700006547,28.553462000322526],[-81.47073500041563,28.552823999659452],[-81.47073399969243,28.552163999966385],[-81.46765099960362,28.552173999777363],[-81.46765399997669,28.553056000204435],[-81.46765099960362,28.55389099972386],[-81.46765300015177,28.555706999896316],[-81.46825900004916,28.55570499968569],[-81.46867900017374,28.55570499968569],[-81.46878799995368,28.555703999974888],[-81.46911400036693,28.55570300026406],[-81.46922399997177,28.55570300026406],[-81.46932000023125,28.55570199976419],[-81.46960899993626,28.555698999842622],[-81.46970600002062,28.555698999842622],[-81.46991100006004,28.555698999842622],[-81.47052600017828,28.555698999842622],[-81.4707320000426,28.55570000034252],[-81.47073500041563,28.555280000222783],[-81.47073399969243,28.554980999843586],[-81.47073299986751,28.554670000390225],[-81.47073700006547,28.553462000322526]]]},"properties":{"block_id":"120950122011017","school_id":"sch_robinswood_middle","kids_est":9,"class":"green","shortest":{"len_m":795.0,"mean_c":38.63,"peak_c":38.7,"dose":62.0},"coolest":{"len_m":795.0,"mean_c":38.63,"peak_c":38.7,"dose":62.0},"delta_mean_c":0.0,"delta_dose_pct":0,"distance_mi":0.447,"status_now":"walk","status_rec":"walk","reason":"Shortest route already under threshold (dose 62).","safe_until_hour":null}},{"type":"Feature","geometry":{"type":"Polygon","coordinates":[[[-81.46662999960454,28.552517999641832],[-81.46663100032774,28.552492000058393],[-81.46662399975673,28.552173999777363],[-81.46557099997058,28.55219299965244],[-81.46456099984215,28.552225999884065],[-81.46456199966704,28.55256599982718],[-81.46456500004011,28.553258000330597],[-81.464565999865,28.55359099961447],[-81.46456500004011,28.553621999946824],[-81.46456500004011,28.553974000000323],[-81.46467399982005,28.55397100002951],[-81.46477099990442,28.553968000058607],[-81.46539000022062,28.553953999930197],[-81.46559699990985,28.553950000231353],[-81.46580199994926,28.55394299977162],[-81.46641899971732,28.553924999940094],[-81.46662499958165,28.553919999723327],[-81.46662499958165,28.553569000009446],[-81.46662999960454,28.552517999641832]]]},"properties":{"block_id":"120950122022027","school_id":"sch_robinswood_middle","kids_est":0,"class":"green","shortest":{"len_m":1373.8,"mean_c":38.6,"peak_c":38.7,"dose":107.0},"coolest":{"len_m":1375.9,"mean_c":38.56,"peak_c":38.7,"dose":106.0},"delta_mean_c":-0.04,"delta_dose_pct":-1,"distance_mi":0.578,"status_now":"walk","status_rec":"walk","reason":"Shortest route already under threshold (dose 107).","safe_until_hour":null}},{"type":"Feature","geometry":{"type":"Polygon","coordinates":[[[-81.46456800041314,28.5585170002938],[-81.46456300039027,28.555937000194746],[-81.46456300039027,28.55582300021259],[-81.4644110000543,28.555826000130633],[-81.46353999984304,28.55584700034366],[-81.46353999984304,28.55586900026175],[-81.4635370003683,28.55852500013343],[-81.46456800041314,28.5585170002938]]]},"properties":{"block_id":"120950122022017","school_id":"sch_robinswood_middle","kids_est":12,"class":"green","shortest":{"len_m":911.3,"mean_c":38.76,"peak_c":38.8,"dose":73.2},"coolest":{"len_m":911.3,"mean_c":38.76,"peak_c":38.8,"dose":73.2},"delta_mean_c":0.0,"delta_dose_pct":0,"distance_mi":0.44,"status_now":"walk","status_rec":"walk","reason":"Shortest route already under threshold (dose 73).","safe_until_hour":null}},{"type":"Feature","geometry":{"type":"Polygon","coordinates":[[[-81.48420199967441,28.552092000194325],[-81.48419500000172,28.551891999692483],[-81.48341500002705,28.551896000258573],[-81.48110199986719,28.551908000377868],[-81.47927699960397,28.551919999706705],[-81.47816400044167,28.55193300035896],[-81.4772029998187,28.551919999706705],[-81.47614400018476,28.55194600022053],[-81.47589499976444,28.551947999713494],[-81.47589700031256,28.55204600007309],[-81.47589800013748,28.552087999635678],[-81.4758989999624,28.55212799969199],[-81.47661700001278,28.552129999970592],[-81.478110000015,28.552120999900215],[-81.47857399962218,28.552129999970592],[-81.481151000271,28.552129000225783],[-81.48247000019593,28.552123999923737],[-81.48263900025032,28.552114000108006],[-81.48286000018325,28.552099999733077],[-81.48420199967441,28.552092000194325]]]},"properties":{"block_id":"120950148051000","school_id":"sch_robinswood_middle","kids_est":0,"class":"green","shortest":{"len_m":1312.2,"mean_c":38.51,"peak_c":38.7,"dose":100.1},"coolest":{"len_m":1312.2,"mean_c":38.51,"peak_c":38.7,"dose":100.1},"delta_mean_c":0.0,"delta_dose_pct":0,"distance_mi":0.826,"status_now":"walk","status_rec":"walk","reason":"Shortest route already under threshold (dose 100).","safe_until_hour":null}},{"type":"Feature","geometry":{"type":"Polygon","coordinates":[[[-81.4676630001975,28.564606999889776],[-81.4676620003726,28.564320000249037],[-81.4676620003726,28.563460999850157],[-81.4676620003726,28.563174999880157],[-81.46745999980791,28.563178000377686],[-81.46727599968492,28.563179999657336],[-81.46728800027878,28.564619999764233],[-81.4676630001975,28.564606999889776]]]},"properties":{"block_id":"120950122021024","school_id":"sch_robinswood_middle","kids_est":6,"class":"green","shortest":{"len_m":867.4,"mean_c":38.7,"peak_c":38.8,"dose":69.1},"coolest":{"len_m":867.4,"mean_c":38.7,"peak_c":38.7,"dose":69.0},"delta_mean_c":0.0,"delta_dose_pct":0,"distance_mi":0.298,"status_now":"walk","status_rec":"walk","reason":"Shortest route already under threshold (dose 69).","safe_until_hour":null}},{"type":"Feature","geometry":{"type":"Polygon","coordinates":[[[-81.47074200008835,28.549557000347885],[-81.47076100035491,28.54953300036125],[-81.47023699957495,28.54955500002041],[-81.468669000128,28.549620999759533],[-81.46814600007126,28.549643999957823],[-81.4681069997132,28.549653000239847],[-81.46799399973528,28.549680000292344],[-81.46795600010047,28.549690000339265],[-81.46789199962805,28.54970400024552],[-81.46770300038047,28.54974800027695],[-81.46763999973297,28.549762999942722],[-81.46764099955789,28.550236000038595],[-81.46764599958075,28.551275999863197],[-81.46765399997669,28.551470999623824],[-81.46765300015177,28.55165500020391],[-81.46765099960362,28.55200200021276],[-81.46770300038047,28.552002999958717],[-81.46906300031328,28.552000999677723],[-81.47033899968221,28.551984999795547],[-81.47073299986751,28.551978999740484],[-81.47073100021768,28.55158799962252],[-81.47072700001972,28.550477000184657],[-81.47072100017195,28.550038000275336],[-81.47071699997399,28.549630000043592],[-81.47072899966955,28.549582000098017],[-81.47074200008835,28.549557000347885]]]},"properties":{"block_id":"120950147015005","school_id":"sch_robinswood_middle","kids_est":3,"class":"green","shortest":{"len_m":1199.6,"mean_c":38.55,"peak_c":38.7,"dose":92.1},"coolest":{"len_m":1199.6,"mean_c":38.55,"peak_c":38.7,"dose":92.1},"delta_mean_c":0.0,"delta_dose_pct":0,"distance_mi":0.661,"status_now":"walk","status_rec":"walk","reason":"Shortest route already under threshold (dose 92).","safe_until_hour":null}},{"type":"Feature","geometry":{"type":"Polygon","coordinates":[[[-81.47589499976444,28.551947999713494],[-81.47589200028968,28.551737999875723],[-81.47588800009173,28.55139099978597],[-81.475878000046,28.55104700018498],[-81.47587399984803,28.550909999725953],[-81.47584999955858,28.55069099999275],[-81.47581399957357,28.55034399960911],[-81.47565999958778,28.55033800024959],[-81.47550800015013,28.550342000085692],[-81.47535300033944,28.550342000085692],[-81.47489200020699,28.55034299984741],[-81.4747380002212,28.55034399960911],[-81.474555999748,28.55034599992158],[-81.47453200035687,28.55034699968327],[-81.47425100014947,28.550361000291268],[-81.47407200004933,28.550378000181595],[-81.4739840001858,28.55040800012061],[-81.47392999975911,28.550438999811888],[-81.47375400003202,28.550544999654626],[-81.47380199971259,28.550602000151198],[-81.47384100007066,28.55066700026458],[-81.47385500031436,28.55070400000766],[-81.47386799983484,28.550736000158864],[-81.47387899970549,28.550788000186614],[-81.47388799992632,28.550895999980025],[-81.47387799988057,28.551003999662715],[-81.47384799974334,28.551108999971326],[-81.47380000006277,28.55120800007618],[-81.47377400012351,28.55124799967771],[-81.47375099965898,28.551284000252963],[-81.47365799977256,28.551399000166995],[-81.47360800044216,28.55145000011609],[-81.47357400010696,28.55147800024785],[-81.47352300005333,28.551522000327132],[-81.47346000030413,28.551558000019625],[-81.4733580001969,28.551599000027064],[-81.4732660001354,28.551618999755497],[-81.47324799969373,28.551623000331972],[-81.47315200033258,28.55162899961824],[-81.47314499976156,28.551721999953585],[-81.47312700021821,28.551962000108638],[-81.47456199959578,28.551964000390377],[-81.4747449998939,28.55196100036229],[-81.47551599964774,28.551953000023882],[-81.47589499976444,28.551947999713494]]]},"properties":{"block_id":"120950147015004","school_id":"sch_robinswood_middle","kids_est":51,"class":"green","shortest":{"len_m":1413.0,"mean_c":38.5,"peak_c":38.7,"dose":107.7},"coolest":{"len_m":1413.0,"mean_c":38.5,"peak_c":38.7,"dose":107.7},"delta_mean_c":0.0,"delta_dose_pct":0,"distance_mi":0.684,"status_now":"walk","status_rec":"walk","reason":"Shortest route already under threshold (dose 108).","safe_until_hour":null}},{"type":"Feature","geometry":{"type":"Polygon","coordinates":[[[-81.46765300015177,28.555725999922853],[-81.46765300015177,28.555706999896316],[-81.46765099960362,28.55389099972386],[-81.46662499958165,28.553919999723327],[-81.466621000282,28.55456000029009],[-81.46662299993181,28.55574700015584],[-81.46723600040025,28.55573000034334],[-81.46765300015177,28.555725999922853]]]},"properties":{"block_id":"120950122022023","school_id":"sch_robinswood_middle","kids_est":15,"class":"green","shortest":{"len_m":949.0,"mean_c":38.67,"peak_c":38.7,"dose":74.7},"coolest":{"len_m":949.0,"mean_c":38.67,"peak_c":38.7,"dose":74.7},"delta_mean_c":0.0,"delta_dose_pct":0,"distance_mi":0.428,"status_now":"walk","status_rec":"walk","reason":"Shortest route already under threshold (dose 75).","safe_until_hour":null}},{"type":"Feature","geometry":{"type":"Polygon","coordinates":[[[-81.46970400037081,28.558996000170506],[-81.46970699984553,28.558714000210458],[-81.46970400037081,28.557882999829896],[-81.46970400037081,28.55751300021412],[-81.46949799960817,28.557513999907734],[-81.46888099984011,28.557519999647372],[-81.46867599980068,28.55752300030609],[-81.46867900017374,28.557647999798128],[-81.46867599980068,28.559378999829793],[-81.46876600021237,28.559378000153863],[-81.46895299981011,28.559375000337038],[-81.46951299967677,28.559368999914103],[-81.46970099999776,28.559366999773054],[-81.46970400037081,28.558996000170506]]]},"properties":{"block_id":"120950122011008","school_id":"sch_robinswood_middle","kids_est":15,"class":"green","shortest":{"len_m":328.6,"mean_c":38.7,"peak_c":38.7,"dose":25.9},"coolest":{"len_m":328.6,"mean_c":38.7,"peak_c":38.7,"dose":25.9},"delta_mean_c":0.0,"delta_dose_pct":0,"distance_mi":0.149,"status_now":"walk","status_rec":"walk","reason":"Shortest route already under threshold (dose 26).","safe_until_hour":null}},{"type":"Feature","geometry":{"type":"Polygon","coordinates":[[[-81.46728800027878,28.564619999764233],[-81.46727599968492,28.563179999657336],[-81.46696000021572,28.563185999863013],[-81.46685700028355,28.563181999725927],[-81.46677699991763,28.56317900001751],[-81.46665700026702,28.563165999965005],[-81.46662899977962,28.563419999728396],[-81.46661200006118,28.56358299969469],[-81.46659799981748,28.5636640001601],[-81.46658100009903,28.563724999982394],[-81.46656199983246,28.56376899967708],[-81.46651999999968,28.56383799966327],[-81.46646599957299,28.5638990001737],[-81.46640600019684,28.56395300006571],[-81.46637000021184,28.563978999974644],[-81.46628800019607,28.56402300035207],[-81.46625899988375,28.564036000298714],[-81.4660299995549,28.56415000006528],[-81.46622999957144,28.56446599963073],[-81.46624399981515,28.564486999698076],[-81.46629499986877,28.564547999832346],[-81.46634199972443,28.56458599984636],[-81.46640199999888,28.564619000138098],[-81.46647200031909,28.564640999800854],[-81.46658500029699,28.564646999923255],[-81.46728800027878,28.564619999764233]]]},"properties":{"block_id":"120950122021025","school_id":"sch_robinswood_middle","kids_est":9,"class":"green","shortest":{"len_m":932.4,"mean_c":38.74,"peak_c":38.8,"dose":74.4},"coolest":{"len_m":932.4,"mean_c":38.74,"peak_c":38.8,"dose":74.4},"delta_mean_c":0.0,"delta_dose_pct":0,"distance_mi":0.328,"status_now":"walk","status_rec":"walk","reason":"Shortest route already under threshold (dose 74).","safe_until_hour":null}},{"type":"Feature","geometry":{"type":"Polygon","coordinates":[[[-81.47589300011461,28.555829999758206],[-81.47589599958933,28.55565900035391],[-81.47570899999158,28.55565499993079],[-81.47557400027239,28.555655999642063],[-81.47460799962654,28.555668000121816],[-81.47428600030959,28.555673000255556],[-81.4742879999594,28.556150000245943],[-81.47428899978432,28.556281000389394],[-81.47429299998227,28.556400999679106],[-81.47430300002803,28.556434999873748],[-81.47433499981507,28.556479000248643],[-81.4743659997772,28.55650199973795],[-81.47442000020389,28.556522999816135],[-81.47541299971557,28.55651799972277],[-81.47572499988512,28.55651700001963],[-81.47589099956647,28.556519000214898],[-81.47589399993952,28.556346999857855],[-81.47589499976444,28.556295000208387],[-81.47589300011461,28.555880999928235],[-81.47589300011461,28.555829999758206]]]},"properties":{"block_id":"120950122011015","school_id":"sch_robinswood_middle","kids_est":0,"class":"green","shortest":{"len_m":1060.2,"mean_c":38.54,"peak_c":38.7,"dose":81.6},"coolest":{"len_m":1060.2,"mean_c":38.54,"peak_c":38.7,"dose":81.6},"delta_mean_c":0.0,"delta_dose_pct":0,"distance_mi":0.413,"status_now":"walk","status_rec":"walk","reason":"Shortest route already under threshold (dose 82).","safe_until_hour":null}},{"type":"Feature","geometry":{"type":"Polygon","coordinates":[[[-81.47592099970369,28.56244900004662],[-81.47591800022896,28.56218400022049],[-81.47591099965794,28.561388999894774],[-81.47590900000813,28.56112399976685],[-81.47590800018322,28.56106000024626],[-81.4759070003583,28.560869000323837],[-81.4759070003583,28.560806000310624],[-81.47590499981017,28.560659999796833],[-81.47590200033544,28.560222000196486],[-81.47590099961221,28.560077000119986],[-81.47579000018244,28.560079000247548],[-81.47545799992143,28.560086999968416],[-81.47534800031654,28.560089999764934],[-81.47534599976842,28.559941999705956],[-81.47534099974557,28.55950099967173],[-81.47533999992064,28.559354000038745],[-81.47507600033,28.5593639999559],[-81.474964000177,28.559368999914103],[-81.47471499975666,28.559368999914103],[-81.47428700013448,28.559376000012982],[-81.47402400036877,28.559380999970664],[-81.47377099975044,28.559385000252206],[-81.47301300041539,28.559398999658352],[-81.47276099962201,28.559403999614936],[-81.47256300015361,28.559407000219966],[-81.47196899995177,28.559417999807568],[-81.47177200030828,28.559422000087704],[-81.47158200033746,28.559422000087704],[-81.47156300007089,28.55942099962317],[-81.47128199986349,28.55941099971149],[-81.47093999955673,28.559383000111453],[-81.47073299986751,28.55936600009702],[-81.47052600017828,28.559361000138683],[-81.47041900004815,28.55935899999747],[-81.46990699986208,28.559361999814765],[-81.46970099999776,28.559366999773054],[-81.46951299967677,28.559368999914103],[-81.46895299981011,28.559375000337038],[-81.46876600021237,28.559378000153863],[-81.46876700003727,28.55950499994871],[-81.46877000041033,28.55963899967173],[-81.46875399961849,28.559717000209158],[-81.4687260000294,28.55979299976689],[-81.46868599984643,28.55986999972996],[-81.46867199960272,28.559898999660444],[-81.46857700006649,28.559898999660444],[-81.46857700006649,28.560549999643438],[-81.4685779998914,28.562504000328875],[-81.4685789997163,28.563155999620104],[-81.4687610001895,28.563152999910947],[-81.46930699981245,28.563146000063256],[-81.46949000011055,28.563143999993976],[-81.4694869997375,28.562860000026223],[-81.46949199976038,28.562833000197763],[-81.46951799969963,28.56277500036749],[-81.46953699996622,28.562751000237924],[-81.46956100025567,28.562729000180088],[-81.46958800001985,28.562711000272852],[-81.46961800015708,28.562696999729138],[-81.46968299955608,28.562682000328106],[-81.47035700012387,28.5626740000154],[-81.47066900029341,28.562671000292514],[-81.47083699962458,28.562667999780523],[-81.47134100031305,28.56266099990058],[-81.47151000036746,28.562660000255843],[-81.47167799969864,28.56265800017733],[-81.47218200038708,28.562651000296697],[-81.4723510004415,28.562649999862867],[-81.47246100004634,28.562649000218016],[-81.47278999993432,28.562645999705413],[-81.47290100026241,28.56264500006046],[-81.47295700033891,28.56264399962663],[-81.47312800004313,28.562642000336737],[-81.47318499994452,28.562642000336737],[-81.47335399999895,28.562640000257876],[-81.47386100016215,28.56263499966606],[-81.47403100004145,28.562634000021067],[-81.47419900027094,28.56263100029704],[-81.47470600043414,28.56262399962562],[-81.47487499959024,28.56262299998053],[-81.47508999967539,28.56261600009752],[-81.47526799995062,28.56261199993878],[-81.47535400016436,28.56258599969215],[-81.47540699986779,28.562560000228096],[-81.47546799996717,28.56251899975534],[-81.47553599973924,28.562487999675948],[-81.47563399964852,28.56246400026993],[-81.47570499979362,28.56245500029404],[-81.47574900017456,28.56244999969343],[-81.47592099970369,28.56244900004662]]]},"properties":{"block_id":"120950122011004","school_id":"sch_robinswood_middle","kids_est":81,"class":"green","shortest":{"len_m":1144.1,"mean_c":38.68,"peak_c":38.7,"dose":90.4},"coolest":{"len_m":1144.1,"mean_c":38.68,"peak_c":38.7,"dose":90.4},"delta_mean_c":0.0,"delta_dose_pct":0,"distance_mi":0.119,"status_now":"walk","status_rec":"walk","reason":"Shortest route already under threshold (dose 90).","safe_until_hour":null}},{"type":"Feature","geometry":{"type":"Polygon","coordinates":[[[-81.48426000029906,28.559210000022148],[-81.48425899957581,28.558979999773346],[-81.48425799975092,28.558605999757095],[-81.48425299972804,28.558290999642992],[-81.48425000025331,28.558062000230755],[-81.48424900042839,28.558017000039616],[-81.48424699988027,28.557882000139767],[-81.48424699988027,28.55783800035128],[-81.48424699988027,28.55729300031654],[-81.48424500023043,28.557177000041957],[-81.48423299963656,28.555777999853365],[-81.48422900033692,28.55552600001146],[-81.48422799961368,28.555391000073506],[-81.48422599996387,28.55519700018681],[-81.48422599996387,28.555158000223383],[-81.48421900029116,28.554538000098468],[-81.48421699974303,28.55442799986042],[-81.48421300044338,28.554032999672234],[-81.48421300044338,28.554023000037756],[-81.48421000007033,28.553727999741586],[-81.48420800042052,28.553406000317697],[-81.4842009998495,28.552516999900774],[-81.48419900019968,28.55224000024225],[-81.48420199967441,28.552092000194325],[-81.48286000018325,28.552099999733077],[-81.48263900025032,28.552114000108006],[-81.48262599983154,28.552250999789614],[-81.48265900034181,28.55235899966067],[-81.48288500029761,28.552483000018956],[-81.48288500029761,28.55393800034479],[-81.48256100043253,28.55423500029117],[-81.48152199999176,28.554262999682354],[-81.4802519995723,28.554225999611717],[-81.47882399986743,28.55390100015994],[-81.47735000013179,28.553439999901475],[-81.47736299965227,28.55353300021543],[-81.47736299965227,28.55422700012562],[-81.47729599970512,28.55434700017832],[-81.4772029998187,28.554413999793177],[-81.47713599987155,28.554493999701435],[-81.47705600040392,28.554520000368655],[-81.47588300006885,28.554506000313637],[-81.4758989999624,28.555360000262016],[-81.47589999978729,28.555402999794467],[-81.47589599958933,28.55565900035391],[-81.47589300011461,28.555829999758206],[-81.47589300011461,28.555880999928235],[-81.47589499976444,28.556295000208387],[-81.47589399993952,28.556346999857855],[-81.47589099956647,28.556519000214898],[-81.47588700026682,28.556718999817928],[-81.47588300006885,28.557030000319866],[-81.47588399989377,28.55732200016792],[-81.47588499971867,28.55752399999969],[-81.4758860004419,28.557889000337525],[-81.47589200028968,28.558984000070108],[-81.47589399993952,28.55934999975603],[-81.47608100043557,28.559337999695984],[-81.47626800003333,28.55934299965543],[-81.47649399998913,28.559344999796938],[-81.4767090000743,28.559332000059918],[-81.47692300033454,28.559307000257714],[-81.47697199984002,28.55928899976523],[-81.47707999979505,28.55923499984739],[-81.47714799956711,28.559185999868735],[-81.47720700001666,28.559129000074165],[-81.47727599961362,28.55903000031613],[-81.47730900012391,28.558957999716338],[-81.47739699998746,28.558667000143686],[-81.47726100044335,28.558640000028685],[-81.47718399955212,28.558630000042754],[-81.4771469997422,28.558619000372786],[-81.4771119995821,28.558602999918275],[-81.47707999979505,28.558582999938462],[-81.47705200020596,28.55855899964209],[-81.47702700009161,28.558530000131466],[-81.47700799982502,28.558502000297047],[-81.47698299971067,28.55843700028646],[-81.47697100001511,28.558345999730815],[-81.47696500016734,28.55820499976364],[-81.47696900036529,28.55809700036608],[-81.47699199993151,28.55787900028031],[-81.47702500044178,28.557711000123366],[-81.47704100033532,28.55758899978497],[-81.47704299998514,28.557492000333397],[-81.47702899974142,28.55733200027811],[-81.4770050003503,28.557203999743205],[-81.47696599999223,28.556991000246406],[-81.47696299961919,28.55691399975548],[-81.47697199984002,28.556837999697322],[-81.47699199993151,28.556773999938052],[-81.47701000037317,28.556736000259825],[-81.47701899969569,28.556718000116742],[-81.4770689999244,28.556646000302724],[-81.47707999979505,28.556633000232395],[-81.4771099999323,28.556604000191225],[-81.47717799970434,28.556548999982287],[-81.47725100039759,28.556508000324303],[-81.47733900026113,28.55647400015318],[-81.4774279999496,28.556455999965305],[-81.47750999996536,28.556450000165032],[-81.47757000023982,28.556453000065215],[-81.47760000037705,28.556455000261625],[-81.47772500005051,28.556482000148048],[-81.47774599996691,28.556490000142254],[-81.47780200004343,28.556512999629103],[-81.47783899985333,28.5565339997051],[-81.47786300014279,28.556548000279488],[-81.47791800039438,28.556589999624283],[-81.4779419997855,28.556614000369553],[-81.47797299974764,28.556646000302724],[-81.47800799990775,28.556691000290854],[-81.47804100041802,28.55674799982743],[-81.47804399989275,28.556768999856597],[-81.47805599958832,28.556855000120006],[-81.47805999978627,28.557203000046627],[-81.47806200033442,28.55734800013679],[-81.47806099961119,28.557444000026752],[-81.47806099961119,28.55748799997992],[-81.47807099965694,28.557660000050813],[-81.47808099970268,28.557734000132502],[-81.47809400012147,28.55782999967048],[-81.47941200022147,28.557823000257763],[-81.47952400037448,28.557823000257763],[-81.47967800036027,28.557831000150124],[-81.4796930004289,28.55773600030458],[-81.47971000014732,28.557439999671395],[-81.4797300002388,28.557258999609893],[-81.47973500026168,28.557078000026223],[-81.47973199988863,28.556865000274495],[-81.47973899956133,28.556749000317353],[-81.47975399962992,28.556702999863653],[-81.47977799991939,28.556663999669063],[-81.47981200025457,28.556630000337353],[-81.47985400008737,28.55660499989348],[-81.47990199976795,28.556589999624283],[-81.47997299991304,28.556586000025575],[-81.48004400005816,28.5565949997143],[-81.48011100000531,28.556617000265117],[-81.4803500003799,28.556713999733866],[-81.48070199983411,28.55682900002945],[-81.48072799977336,28.5568449999645],[-81.48075899973551,28.55687900001582],[-81.48077600035226,28.55692000031835],[-81.48077600035226,28.557112000002288],[-81.48077700017718,28.55727200039194],[-81.48076399975838,28.557315999627967],[-81.48073199997133,28.557368000351214],[-81.48069699981123,28.557400999749888],[-81.48042999984754,28.557624000077567],[-81.48035899970243,28.557686999628174],[-81.4801739997545,28.557854999823437],[-81.48004900008104,28.55797399999675],[-81.480265999816,28.558156000094517],[-81.4804130001291,28.55828700010885],[-81.480750000413,28.558588999617236],[-81.4809129997213,28.558717999728366],[-81.48101200035381,28.55877600021611],[-81.48108500014874,28.558803999977602],[-81.48116200014164,28.558823000234224],[-81.48123999995944,28.558833999882918],[-81.48160700038056,28.558840000336346],[-81.48277099959648,28.558828000218174],[-81.48301400016905,28.55883300020182],[-81.48303500008545,28.55883500035303],[-81.48319300026918,28.55885099998326],[-81.48329000035358,28.558875000213067],[-81.48338099969186,28.55891400037753],[-81.48346299970763,28.558966000311415],[-81.48358499990634,28.55906399966171],[-81.48371799997574,28.55914999962831],[-81.4837919995956,28.559175999934663],[-81.48390700012163,28.559202999912237],[-81.48402599994732,28.559214000310195],[-81.48426000029906,28.559210000022148]],[[-81.48371499960268,28.558034000271853],[-81.48370600028018,28.55829599965216],[-81.48368199999074,28.558345000045087],[-81.48360800037091,28.55839799994529],[-81.48351499958616,28.558417999960227],[-81.48342099987484,28.55841399964194],[-81.48331499956961,28.55839799994529],[-81.48310299985751,28.558369000390247],[-81.48131500030252,28.558385999776657],[-81.48126199970076,28.55837799992653],[-81.48120499979935,28.558357000218386],[-81.48113200000442,28.558287999795187],[-81.48099399991214,28.558120999978808],[-81.48097700019372,28.55809200034746],[-81.48097700019372,28.558063999607565],[-81.48098999971418,28.558044000314396],[-81.48104300031595,28.55797800033182],[-81.48125000000519,28.557787000340248],[-81.481299000409,28.557749999930078],[-81.4813200003254,28.557746000375392],[-81.48141700040976,28.557737999687596],[-81.48356800018793,28.55774200003156],[-81.48360400017293,28.55776700020543],[-81.48364900037878,28.55781999960759],[-81.48367799979277,28.557859999853303],[-81.48369000038664,28.55790099977377],[-81.48371499960268,28.558034000271853]]]},"properties":{"block_id":"120950149042000","school_id":"sch_robinswood_middle","kids_est":265,"class":"green","shortest":{"len_m":912.9,"mean_c":38.54,"peak_c":38.7,"dose":70.2},"coolest":{"len_m":912.9,"mean_c":38.54,"peak_c":38.7,"dose":70.2},"delta_mean_c":0.0,"delta_dose_pct":0,"distance_mi":0.683,"status_now":"walk","status_rec":"walk","reason":"Shortest route already under threshold (dose 70).","safe_until_hour":null}},{"type":"Feature","geometry":{"type":"Polygon","coordinates":[[[-81.47860100028467,28.553095000157402],[-81.47857399962218,28.552129999970592],[-81.478110000015,28.552120999900215],[-81.47661700001278,28.552129999970592],[-81.4758989999624,28.55212799969199],[-81.47590900000813,28.552503000368503],[-81.47591200038119,28.55259899994191],[-81.47591200038119,28.552668000148426],[-81.47591099965794,28.5533609997145],[-81.47589999978729,28.553750999831813],[-81.47588999974155,28.554167000047944],[-81.47588300006885,28.55446499986007],[-81.47588300006885,28.554506000313637],[-81.47705600040392,28.554520000368655],[-81.47713599987155,28.554493999701435],[-81.4772029998187,28.554413999793177],[-81.47729599970512,28.55434700017832],[-81.47736299965227,28.55422700012562],[-81.47736299965227,28.55353300021543],[-81.47735000013179,28.553439999901475],[-81.47735000013179,28.55310400014451],[-81.47860100028467,28.553095000157402]]]},"properties":{"block_id":"120950149042001","school_id":"sch_robinswood_middle","kids_est":0,"class":"green","shortest":{"len_m":1203.9,"mean_c":38.52,"peak_c":38.7,"dose":92.1},"coolest":{"len_m":1203.9,"mean_c":38.52,"peak_c":38.7,"dose":92.1},"delta_mean_c":0.0,"delta_dose_pct":0,"distance_mi":0.64,"status_now":"walk","status_rec":"walk","reason":"Shortest route already under threshold (dose 92).","safe_until_hour":null}},{"type":"Feature","geometry":{"type":"Polygon","coordinates":[[[-81.46765200032685,28.557534999784057],[-81.46765300015177,28.555725999922853],[-81.46723600040025,28.55573000034334],[-81.46662299993181,28.55574700015584],[-81.466621000282,28.556504999636655],[-81.466621000282,28.556713999733866],[-81.466621000282,28.557340999903055],[-81.466621000282,28.557550999611884],[-81.46765200032685,28.557534999784057]]]},"properties":{"block_id":"120950122022024","school_id":"sch_robinswood_middle","kids_est":9,"class":"green","shortest":{"len_m":720.2,"mean_c":38.76,"peak_c":38.8,"dose":57.6},"coolest":{"len_m":723.3,"mean_c":38.74,"peak_c":38.8,"dose":57.5},"delta_mean_c":-0.02,"delta_dose_pct":0,"distance_mi":0.322,"status_now":"walk","status_rec":"walk","reason":"Shortest route already under threshold (dose 58).","safe_until_hour":null}},{"type":"Feature","geometry":{"type":"Polygon","coordinates":[[[-81.47591200038119,28.552668000148426],[-81.47591200038119,28.55259899994191],[-81.47590900000813,28.552503000368503],[-81.4758989999624,28.55212799969199],[-81.47552800024162,28.552160000199493],[-81.47475800031269,28.5521649997108],[-81.47311999964721,28.55214800010898],[-81.47189500033191,28.55215199987628],[-81.47188899958583,28.552462999665607],[-81.47188500028618,28.552671999895967],[-81.47187199986737,28.55275300007758],[-81.47182900020968,28.55289400024509],[-81.47181999998884,28.55296199973231],[-81.47182199963868,28.55336999967889],[-81.4718309998595,28.553446999605583],[-81.47185099995097,28.553515000313816],[-81.47186099999672,28.553548000131116],[-81.47187900043839,28.553595000116086],[-81.47190399965443,28.553644000329847],[-81.4720200000054,28.553825000293923],[-81.47246400041941,28.553583999920004],[-81.47256800017647,28.553527999980062],[-81.47266600008578,28.55348600020279],[-81.47281400022376,28.553445000141025],[-81.47292300000372,28.553433000196957],[-81.47318199957148,28.553431999675507],[-81.47360199969606,28.553430999943114],[-81.47367899968896,28.553436999915444],[-81.47373099956748,28.55345300036605],[-81.47377699959824,28.55348600020279],[-81.47382000015426,28.5535379996615],[-81.47383299967473,28.5535669997582],[-81.47384899956826,28.553627000177723],[-81.4739089998427,28.553846999845515],[-81.47394900002568,28.554019000341533],[-81.47395999989634,28.554051000274374],[-81.47397300031514,28.554074000294055],[-81.47400099990422,28.554104999695113],[-81.47404600011008,28.554144000048602],[-81.47410499966131,28.55417599994344],[-81.47417199960844,28.554193000006915],[-81.47435999992942,28.55421599999557],[-81.47474599971879,28.554264000195893],[-81.47492499981895,28.554268999607316],[-81.47508899985048,28.554261000233346],[-81.47523699998848,28.55424299966711],[-81.47544700005076,28.554196999696533],[-81.47550499977709,28.55418799980288],[-81.4756110000823,28.554173999703732],[-81.47588999974155,28.554167000047944],[-81.47589999978729,28.553750999831813],[-81.47591099965794,28.5533609997145],[-81.47591200038119,28.552668000148426]]]},"properties":{"block_id":"120950122011018","school_id":"sch_robinswood_middle","kids_est":3,"class":"green","shortest":{"len_m":1175.0,"mean_c":38.55,"peak_c":38.7,"dose":90.1},"coolest":{"len_m":1175.0,"mean_c":38.55,"peak_c":38.7,"dose":90.1},"delta_mean_c":0.0,"delta_dose_pct":0,"distance_mi":0.552,"status_now":"walk","status_rec":"walk","reason":"Shortest route already under threshold (dose 90).","safe_until_hour":null}},{"type":"Feature","geometry":{"type":"Polygon","coordinates":[[[-81.46456500004011,28.555562999625298],[-81.46456500004011,28.553974000000323],[-81.46454699959844,28.553985000155667],[-81.46445799990998,28.553986999609904],[-81.46353900001812,28.55401400012918],[-81.46353999984304,28.55584700034366],[-81.4644110000543,28.555826000130633],[-81.46456300039027,28.55582300021259],[-81.46456500004011,28.555562999625298]]]},"properties":{"block_id":"120950122022020","school_id":"sch_robinswood_middle","kids_est":9,"class":"green","shortest":{"len_m":996.9,"mean_c":38.77,"peak_c":38.8,"dose":80.1},"coolest":{"len_m":1005.4,"mean_c":38.72,"peak_c":38.8,"dose":79.7},"delta_mean_c":-0.05,"delta_dose_pct":0,"distance_mi":0.535,"status_now":"walk","status_rec":"walk","reason":"Shortest route already under threshold (dose 80).","safe_until_hour":null}},{"type":"Feature","geometry":{"type":"Polygon","coordinates":[[[-81.46765099960362,28.549674000105938],[-81.4676840001139,28.549435000030147],[-81.46763999973297,28.549448000200094],[-81.46725499976851,28.549511999677947],[-81.46625399986088,28.549684999921396],[-81.465924000148,28.549742999861856],[-81.46572900015434,28.549777999606356],[-81.46548099955889,28.54981900030686],[-81.46529300013624,28.549853000259745],[-81.4651709999375,28.549874999852122],[-81.46472999989653,28.54996100022305],[-81.46454300029879,28.549998000214252],[-81.4645449999486,28.550415000026263],[-81.46454599977352,28.55055399985964],[-81.46454900014658,28.55088099968655],[-81.46455800036739,28.551862000176243],[-81.46455900019231,28.552045000327546],[-81.46535800043357,28.552034999715236],[-81.4655650001228,28.552030000197746],[-81.4668460004129,28.552000999677723],[-81.46765099960362,28.55200200021276],[-81.46765300015177,28.55165500020391],[-81.46765399997669,28.551470999623824],[-81.46764599958075,28.551275999863197],[-81.46764099955789,28.550236000038595],[-81.46763999973297,28.549762999942722],[-81.46765099960362,28.549674000105938]]]},"properties":{"block_id":"120950147013005","school_id":"sch_robinswood_middle","kids_est":15,"class":"green","shortest":{"len_m":1395.6,"mean_c":38.59,"peak_c":38.7,"dose":108.3},"coolest":{"len_m":1397.8,"mean_c":38.51,"peak_c":38.7,"dose":106.6},"delta_mean_c":-0.08,"delta_dose_pct":-2,"distance_mi":0.701,"status_now":"walk","status_rec":"walk","reason":"Shortest route already under threshold (dose 108).","safe_until_hour":null}},{"type":"Feature","geometry":{"type":"Polygon","coordinates":[[[-81.47590099961221,28.560077000119986],[-81.47589800013748,28.559948999766732],[-81.47589800013748,28.559931000173034],[-81.47589800013748,28.559495000045004],[-81.47589399993952,28.55934999975603],[-81.47578299961143,28.55934999975603],[-81.47545000042382,28.559353000362588],[-81.47533999992064,28.559354000038745],[-81.47534099974557,28.55950099967173],[-81.47534599976842,28.559941999705956],[-81.47534800031654,28.560089999764934],[-81.47545799992143,28.560086999968416],[-81.47579000018244,28.560079000247548],[-81.47590099961221,28.560077000119986]]]},"properties":{"block_id":"120950122011016","school_id":"sch_robinswood_middle","kids_est":15,"class":"green","shortest":{"len_m":503.4,"mean_c":38.58,"peak_c":38.7,"dose":39.0},"coolest":{"len_m":503.4,"mean_c":38.58,"peak_c":38.7,"dose":39.0},"delta_mean_c":0.0,"delta_dose_pct":0,"distance_mi":0.325,"status_now":"walk","status_rec":"walk","reason":"Shortest route already under threshold (dose 39).","safe_until_hour":null}},{"type":"Feature","geometry":{"type":"Polygon","coordinates":[[[-81.466621000282,28.55456000029009],[-81.46662499958165,28.553919999723327],[-81.46641899971732,28.553924999940094],[-81.46580199994926,28.55394299977162],[-81.46559699990985,28.553950000231353],[-81.46559500026004,28.554316000059448],[-81.46559299971189,28.555208000214368],[-81.46559400043512,28.55541500030306],[-81.46559600008493,28.55578200027183],[-81.46590599970635,28.555769000094873],[-81.46662299993181,28.55574700015584],[-81.466621000282,28.55456000029009]]]},"properties":{"block_id":"120950122022022","school_id":"sch_robinswood_middle","kids_est":6,"class":"green","shortest":{"len_m":804.5,"mean_c":38.7,"peak_c":38.7,"dose":63.6},"coolest":{"len_m":804.5,"mean_c":38.7,"peak_c":38.7,"dose":63.6},"delta_mean_c":0.0,"delta_dose_pct":0,"distance_mi":0.458,"status_now":"walk","status_rec":"walk","reason":"Shortest route already under threshold (dose 64).","safe_until_hour":null}},{"type":"Feature","geometry":{"type":"Polygon","coordinates":[[[-81.4758989999624,28.55212799969199],[-81.47589800013748,28.552087999635678],[-81.47589700031256,28.55204600007309],[-81.47589499976444,28.551947999713494],[-81.47551599964774,28.551953000023882],[-81.4747449998939,28.55196100036229],[-81.47456199959578,28.551964000390377],[-81.47312700021821,28.551962000108638],[-81.47287699997297,28.551971999938797],[-81.47209299980032,28.55198300030328],[-81.4719010001797,28.551981999768067],[-81.47093899973183,28.55197700024812],[-81.47073299986751,28.551978999740484],[-81.47073399969243,28.552105000036267],[-81.47073399969243,28.552163999966385],[-81.47189500033191,28.55215199987628],[-81.47311999964721,28.55214800010898],[-81.47475800031269,28.5521649997108],[-81.47552800024162,28.552160000199493],[-81.4758989999624,28.55212799969199]]]},"properties":{"block_id":"120950147015001","school_id":"sch_robinswood_middle","kids_est":0,"class":"green","shortest":{"len_m":1040.3,"mean_c":38.57,"peak_c":38.7,"dose":80.1},"coolest":{"len_m":1040.3,"mean_c":38.57,"peak_c":38.7,"dose":80.1},"delta_mean_c":0.0,"delta_dose_pct":0,"distance_mi":0.6,"status_now":"walk","status_rec":"walk","reason":"Shortest route already under threshold (dose 80).","safe_until_hour":null}},{"type":"Feature","geometry":{"type":"Polygon","coordinates":[[[-81.47388799992632,28.550895999980025],[-81.47387899970549,28.550788000186614],[-81.47386799983484,28.550736000158864],[-81.47385500031436,28.55070400000766],[-81.47384100007066,28.55066700026458],[-81.47380199971259,28.550602000151198],[-81.47375400003202,28.550544999654626],[-81.47369200010775,28.55049199974659],[-81.4736250001606,28.550450000336518],[-81.47357300028204,28.55042800007518],[-81.47350399978676,28.55040100021455],[-81.47337699956516,28.55036699964942],[-81.4732460000439,28.550348999995684],[-81.47317999992167,28.5503450001599],[-81.47304699985227,28.550349999757337],[-81.47293300004945,28.55036699964942],[-81.47283699978999,28.550392999757623],[-81.47273100038309,28.55043700029026],[-81.47266199988782,28.550475999635132],[-81.4725849998949,28.550531999620098],[-81.4725270001686,28.55058999988313],[-81.47246400041941,28.55067400015297],[-81.47244599997775,28.550700000185362],[-81.47236899998485,28.550847999822487],[-81.47235700028928,28.550909999725953],[-81.47235700028928,28.551003999662715],[-81.47237800020568,28.551096000006424],[-81.47240300032003,28.551153999958807],[-81.47246199987126,28.551253999774424],[-81.4725349996662,28.551345999899706],[-81.47257599967408,28.55138900028237],[-81.47266799973559,28.551466999830673],[-81.47276999984284,28.55153399969996],[-81.4728019996299,28.551548999900408],[-81.47285699988147,28.551576000255846],[-81.47295899998872,28.55160800014207],[-81.47306600011885,28.551624999831066],[-81.47315200033258,28.55162899961824],[-81.47324799969373,28.551623000331972],[-81.4732660001354,28.551618999755497],[-81.4733580001969,28.551599000027064],[-81.47346000030413,28.551558000019625],[-81.47352300005333,28.551522000327132],[-81.47357400010696,28.55147800024785],[-81.47360800044216,28.55145000011609],[-81.47365799977256,28.551399000166995],[-81.47375099965898,28.551284000252963],[-81.47377400012351,28.55124799967771],[-81.47380000006277,28.55120800007618],[-81.47384799974334,28.551108999971326],[-81.47387799988057,28.551003999662715],[-81.47388799992632,28.550895999980025]]]},"properties":{"block_id":"120950147015003","school_id":"sch_robinswood_middle","kids_est":27,"class":"green","shortest":{"len_m":1133.8,"mean_c":38.55,"peak_c":38.7,"dose":87.2},"coolest":{"len_m":1133.8,"mean_c":38.55,"peak_c":38.7,"dose":87.2},"delta_mean_c":0.0,"delta_dose_pct":0,"distance_mi":0.668,"status_now":"walk","status_rec":"walk","reason":"Shortest route already under threshold (dose 87).","safe_until_hour":null}},{"type":"Feature","geometry":{"type":"Polygon","coordinates":[[[-81.466621000282,28.556713999733866],[-81.466621000282,28.556504999636655],[-81.46591900012514,28.556528999612258],[-81.46578799970557,28.5565339997051],[-81.46575300044378,28.556541999695412],[-81.46571900010859,28.556554999776974],[-81.46568800014646,28.556572999947853],[-81.46566100038228,28.55659400001188],[-81.46561899965116,28.556647999706428],[-81.46560600013069,28.55667800022616],[-81.46559899955967,28.55670899964956],[-81.46559100006208,28.5584079999532],[-81.46558900041225,28.55910999987276],[-81.46579500027657,28.55910999987276],[-81.46641299986955,28.55910999987276],[-81.46661999955877,28.55910999987276],[-81.46661999955877,28.558798000311143],[-81.46661999955877,28.557862000022986],[-81.466621000282,28.557550999611884],[-81.466621000282,28.557340999903055],[-81.466621000282,28.556713999733866]]]},"properties":{"block_id":"120950122022016","school_id":"sch_robinswood_middle","kids_est":21,"class":"green","shortest":{"len_m":604.6,"mean_c":38.75,"peak_c":38.8,"dose":48.3},"coolest":{"len_m":607.7,"mean_c":38.73,"peak_c":38.8,"dose":48.2},"delta_mean_c":-0.02,"delta_dose_pct":0,"distance_mi":0.31,"status_now":"walk","status_rec":"walk","reason":"Shortest route already under threshold (dose 48).","safe_until_hour":null}}]}