{"type":"FeatureCollection","features":[{"type":"Feature","geometry":{"type":"Polygon","coordinates":[[[-81.47090000027208,28.54655399968827],[-81.47089900044718,28.546227999641207],[-81.47089799972393,28.54557199965925],[-81.47089500024921,28.545252999977915],[-81.47089199987616,28.544929000264958],[-81.47011000025167,28.544942000201996],[-81.47006900024378,28.544959000177993],[-81.47007000006869,28.545278999770403],[-81.47007599991647,28.546239999617264],[-81.4700779995663,28.54656099985005],[-81.47024199959782,28.5465590002548],[-81.47073500041563,28.546555000275063],[-81.47090000027208,28.54655399968827]]]},"properties":{"block_id":"120950147014002","school_id":"sch_oak_hill_elementary","kids_est":7,"class":"red","shortest":{"len_m":1756.8,"mean_c":38.31,"peak_c":38.4,"dose":130.0},"coolest":{"len_m":1756.8,"mean_c":38.31,"peak_c":38.4,"dose":130.0},"delta_mean_c":0.0,"delta_dose_pct":0,"distance_mi":0.386,"status_now":"walk","status_rec":"bus_eligible","reason":"Coolest route mean 38.3C exceeds threshold (110 C-min dose, actual 130).","safe_until_hour":"14:00"}},{"type":"Feature","geometry":{"type":"Polygon","coordinates":[[[-81.47582699999236,28.539572000319904],[-81.47582799981728,28.539102999945737],[-81.47551800019586,28.539066999941763],[-81.47534800031654,28.53905099967298],[-81.47530399993562,28.539042999932317],[-81.47490100042782,28.539000000033173],[-81.47405399960766,28.538910999782477],[-81.47393300013216,28.53889500027924],[-81.47263900032159,28.538761000200683],[-81.47212100028773,28.538703999609183],[-81.47119499982486,28.53860199996888],[-81.47119499982486,28.53893300008198],[-81.47119499982486,28.53992599970592],[-81.47119499982486,28.540257000394213],[-81.47119499982486,28.540430999912235],[-81.4711980001979,28.540953999749345],[-81.47119900002282,28.54112900033283],[-81.47119999984774,28.54142299977471],[-81.47120099967266,28.54145899976269],[-81.4711980001979,28.541654000338838],[-81.47120200039588,28.542307999793504],[-81.4712040000457,28.54260299972583],[-81.47120599969553,28.5429619999227],[-81.47121300026653,28.54404000009591],[-81.47121599974126,28.544399999948155],[-81.47141699958271,28.54439500006826],[-81.47177999980588,28.54438600012597],[-81.4720200000054,28.544382000063703],[-81.47222199967175,28.544379999637947],[-81.47222000002192,28.543290000266136],[-81.47221900019701,28.54207799971453],[-81.4722259998697,28.542036000105636],[-81.47224000011342,28.541995000320963],[-81.47226100002982,28.541957000044384],[-81.47228799979399,28.54192200006824],[-81.47232200012918,28.541892000079404],[-81.47235999976401,28.541866000240034],[-81.47240199959681,28.541846000237793],[-81.47244799962756,28.541832000076102],[-81.47249500038154,28.54182399975747],[-81.47394599965264,28.54181000038201],[-81.47414400001935,28.541807999907412],[-81.47471999977954,28.541805000379167],[-81.47483899960523,28.541818999755233],[-81.47495499995618,28.541847000080168],[-81.47510100044435,28.541905000391264],[-81.47520400037651,28.54196299988132],[-81.4753159996312,28.542002999837525],[-81.47543100015724,28.542028999643144],[-81.47555900020376,28.542041000097562],[-81.47566899980862,28.54204500024872],[-81.47578900035752,28.542051000080644],[-81.47578900035752,28.54193000037943],[-81.47579100000735,28.54176899972028],[-81.47579199983227,28.54156800028706],[-81.47579299965717,28.541447999877274],[-81.475801999878,28.54097899996327],[-81.47580500025106,28.5408830000566],[-81.47582600016746,28.54026699975748],[-81.47582699999236,28.539572000319904]]]},"properties":{"block_id":"120950147014010","school_id":"sch_oak_hill_elementary","kids_est":39,"class":"green","shortest":{"len_m":400.6,"mean_c":38.3,"peak_c":38.3,"dose":29.5},"coolest":{"len_m":400.6,"mean_c":38.3,"peak_c":38.3,"dose":29.5},"delta_mean_c":0.0,"delta_dose_pct":0,"distance_mi":0.048,"status_now":"walk","status_rec":"walk","reason":"Shortest route already under threshold (dose 30).","safe_until_hour":null}},{"type":"Feature","geometry":{"type":"Polygon","coordinates":[[[-81.475801999878,28.54391900031212],[-81.47580400042614,28.543810999676815],[-81.475801999878,28.543095000351087],[-81.47579799968004,28.542780000393467],[-81.47579500020531,28.54251800028481],[-81.47579500020531,28.54246600011946],[-81.47579199983227,28.54225899982911],[-81.47578900035752,28.542051000080644],[-81.47566899980862,28.54204500024872],[-81.47555900020376,28.542041000097562],[-81.47543100015724,28.542028999643144],[-81.4753159996312,28.542002999837525],[-81.47520400037651,28.54196299988132],[-81.4751549999727,28.5420460000892],[-81.47511899998771,28.542131999750733],[-81.47510100044435,28.542222000275654],[-81.47509999972114,28.542475000225803],[-81.47508499965252,28.54260299972583],[-81.47505799988835,28.542678999799268],[-81.47501500023063,28.54274800019224],[-81.47495800032922,28.542810000129343],[-81.47488800000903,28.542859999670256],[-81.47479699977244,28.542901999739758],[-81.47463699993885,28.54297900021819],[-81.47455300027327,28.54302500035418],[-81.47448299995308,28.543073999962328],[-81.47435599973146,28.543200999694086],[-81.47429100033244,28.543305000062524],[-81.47425500034743,28.543388000002192],[-81.47423000023308,28.543474000146347],[-81.47422199983717,28.543565000139846],[-81.47421699981429,28.543634999777847],[-81.47421599998937,28.543836000001775],[-81.47422199983717,28.543910000329156],[-81.47422199983717,28.544010999743023],[-81.47420900031668,28.544077999621116],[-81.47418599985215,28.544141999994846],[-81.47415499989002,28.544203000080604],[-81.4741180000801,28.54425299974944],[-81.47407100022441,28.544295000052585],[-81.47401500014793,28.5443280003918],[-81.4739570004216,28.5443479999228],[-81.47384600009352,28.544357999686866],[-81.47288100017091,28.544370999694387],[-81.47222199967175,28.544379999637947],[-81.4720200000054,28.544382000063703],[-81.47177999980588,28.54438600012597],[-81.47141699958271,28.54439500006826],[-81.47121599974126,28.544399999948155],[-81.47114100029651,28.544399999948155],[-81.47091899964033,28.544403000191696],[-81.47084599984541,28.544404000009784],[-81.47085400024133,28.54447399987934],[-81.47088100000552,28.544683000182577],[-81.47089000022635,28.544753999681497],[-81.47089000022635,28.544789000294937],[-81.47089100005125,28.544893999698044],[-81.47089199987616,28.544929000264958],[-81.47089500024921,28.545252999977915],[-81.47089799972393,28.54557199965925],[-81.47089900044718,28.546227999641207],[-81.47090000027208,28.54655399968827],[-81.47073500041563,28.546555000275063],[-81.47024199959782,28.5465590002548],[-81.4700779995663,28.54656099985005],[-81.4700779995663,28.546587999906134],[-81.4700779995663,28.54666999982953],[-81.47007900028952,28.546697999653997],[-81.46991400043308,28.54670000003572],[-81.46941800014054,28.546707999984076],[-81.469254000109,28.546711000161817],[-81.46925499993391,28.547033000330437],[-81.46925999995678,28.548001000021184],[-81.4692619996066,28.54832399997212],[-81.4692619996066,28.54837099992148],[-81.46925699958373,28.548412000380658],[-81.46923599966735,28.54845799972211],[-81.46919700020759,28.548495000241324],[-81.46916399969733,28.548507999738273],[-81.46914699997888,28.548516000338335],[-81.46881399989296,28.548553999826826],[-81.46859499960983,28.548575999690556],[-81.46854799975416,28.54857000023031],[-81.4684940002258,28.54854299989323],[-81.4684570004159,28.548503999832505],[-81.46844399999709,28.548471999792138],[-81.46843999979914,28.548377000182168],[-81.46843999979914,28.548333000366963],[-81.4684380001493,28.54800999965453],[-81.46843300012644,28.547043999632628],[-81.46843200030153,28.546722000286753],[-81.46827099974472,28.5467239998789],[-81.46778899969588,28.546730000233378],[-81.4676289998623,28.546732999621426],[-81.4676289998623,28.546800000135324],[-81.4676289998623,28.54700400001252],[-81.46762999968722,28.547072000146795],[-81.46762999968722,28.547213999821462],[-81.46763200023537,28.547640999851446],[-81.46763300006027,28.547784000123183],[-81.46763399988518,28.547924999842316],[-81.46763700025824,28.548348000234277],[-81.46763899990806,28.548489999766712],[-81.46765099960362,28.54865600008876],[-81.46768699958864,28.54915500004707],[-81.46768900013677,28.549190999759638],[-81.46810599988828,28.54911300010377],[-81.46939700022415,28.54893500004536],[-81.46988900031872,28.54882500026671],[-81.4700139999922,28.54879799999501],[-81.47094299992979,28.54863299967475],[-81.47148699990292,28.54854500023992],[-81.47218099966388,28.548425999667725],[-81.47257400002427,28.548369000360605],[-81.47334099958015,28.54828499983029],[-81.4738860002765,28.548237000060805],[-81.47397400014005,28.548232000363054],[-81.47427899973857,28.548211999991356],[-81.47434200038609,28.548208000074403],[-81.47471999977954,28.548193999969264],[-81.47509899989622,28.548190999833785],[-81.47575800039539,28.548198999668873],[-81.47575599984725,28.548117000146842],[-81.47575099982437,28.547872000193898],[-81.47574999999948,28.54779100020326],[-81.47574699962642,28.54755700031872],[-81.47574199960356,28.547114000115002],[-81.47574400015169,28.546854999912878],[-81.47574699962642,28.546622000113093],[-81.47574599980152,28.54617400012659],[-81.47574599980152,28.54610300000667],[-81.4757879996343,28.54483399982648],[-81.47579699985512,28.544386999944223],[-81.475801999878,28.54391900031212]]]},"properties":{"block_id":"120950147015007","school_id":"sch_oak_hill_elementary","kids_est":76,"class":"red","shortest":{"len_m":1538.9,"mean_c":38.3,"peak_c":38.3,"dose":113.3},"coolest":{"len_m":1538.9,"mean_c":38.3,"peak_c":38.3,"dose":113.3},"delta_mean_c":0.0,"delta_dose_pct":0,"distance_mi":0.408,"status_now":"walk","status_rec":"bus_eligible","reason":"Coolest route mean 38.3C exceeds threshold (110 C-min dose, actual 113).","safe_until_hour":"14:00"}},{"type":"Feature","geometry":{"type":"Polygon","coordinates":[[[-81.47019899994014,28.54398100034912],[-81.47019599956707,28.54298999994374],[-81.47019599956707,28.5426349999711],[-81.46998200020515,28.54263699964085],[-81.46934299979746,28.542644999897796],[-81.46913000026044,28.542648000191257],[-81.46913600010822,28.543003000120144],[-81.46913799975805,28.543056999682115],[-81.46913699993314,28.54346199985515],[-81.46914199995601,28.544070000262145],[-81.46914299978093,28.544080999873756],[-81.46916399969733,28.544425000133327],[-81.46934199997254,28.54442199989047],[-81.46987599989994,28.544415000375658],[-81.47005500000007,28.544413999768537],[-81.47008099993936,28.544412999950485],[-81.47015799993224,28.544412000132485],[-81.47018499969641,28.544412000132485],[-81.47019599956707,28.544055999606947],[-81.47019899994014,28.54398100034912]]]},"properties":{"block_id":"120950147014008","school_id":"sch_oak_hill_elementary","kids_est":3,"class":"green","shortest":{"len_m":873.2,"mean_c":38.3,"peak_c":38.3,"dose":64.6},"coolest":{"len_m":873.8,"mean_c":38.3,"peak_c":38.3,"dose":64.5},"delta_mean_c":0.0,"delta_dose_pct":0,"distance_mi":0.274,"status_now":"walk","status_rec":"walk","reason":"Shortest route already under threshold (dose 65).","safe_until_hour":null}},{"type":"Feature","geometry":{"type":"Polygon","coordinates":[[[-81.46811799958385,28.542644000062953],[-81.46811699975895,28.542366999688205],[-81.4681140002842,28.541538000197427],[-81.468112999561,28.541261999918877],[-81.46811000008624,28.540305999711567],[-81.46760600029609,28.540309999928613],[-81.46760600029609,28.540468000094677],[-81.46760799994591,28.540942999811197],[-81.46760899977083,28.5411019996665],[-81.46760999959575,28.541228000349225],[-81.46760999959575,28.54140900034596],[-81.4676129999688,28.542332999686046],[-81.4676149996186,28.542640999769375],[-81.46771500007604,28.542640999769375],[-81.46801700019985,28.542643000228157],[-81.46811799958385,28.542644000062953]]]},"properties":{"block_id":"120950147014005","school_id":"sch_oak_hill_elementary","kids_est":5,"class":"green","shortest":{"len_m":984.3,"mean_c":38.3,"peak_c":38.3,"dose":72.8},"coolest":{"len_m":984.3,"mean_c":38.3,"peak_c":38.3,"dose":72.8},"delta_mean_c":0.0,"delta_dose_pct":0,"distance_mi":0.291,"status_now":"walk","status_rec":"walk","reason":"Shortest route already under threshold (dose 73).","safe_until_hour":null}},{"type":"Feature","geometry":{"type":"Polygon","coordinates":[[[-81.47089199987616,28.544929000264958],[-81.47089100005125,28.544893999698044],[-81.47089000022635,28.544789000294937],[-81.47089000022635,28.544753999681497],[-81.47088100000552,28.544683000182577],[-81.47085400024133,28.54447399987934],[-81.47084599984541,28.544404000009784],[-81.47071299977603,28.54440499982786],[-81.47031699994089,28.544409999707288],[-81.47018499969641,28.544412000132485],[-81.47015799993224,28.544412000132485],[-81.47008099993936,28.544412999950485],[-81.47005500000007,28.544413999768537],[-81.46987599989994,28.544415000375658],[-81.46934199997254,28.54442199989047],[-81.46916399969733,28.544425000133327],[-81.46895500035826,28.544426999769147],[-81.4683319998441,28.544434000072282],[-81.46812400032995,28.54443700031479],[-81.46802300004762,28.54443700031479],[-81.46772000009892,28.54444100037501],[-81.46761999964149,28.544443000010475],[-81.46761999964149,28.544538000012476],[-81.46762200018962,28.54482599973579],[-81.46762300001453,28.54492199999466],[-81.46762300001453,28.54506400020071],[-81.46762600038758,28.54549299988262],[-81.46762700021249,28.545635999914392],[-81.46762700021249,28.54577899975195],[-81.46762800003741,28.546211999670966],[-81.4676289998623,28.546356000104346],[-81.4676289998623,28.54643100003836],[-81.4676289998623,28.546657000105764],[-81.4676289998623,28.546732999621426],[-81.46778899969588,28.546730000233378],[-81.46827099974472,28.5467239998789],[-81.46843200030153,28.546722000286753],[-81.46859600033306,28.546719000109317],[-81.46908900025257,28.546712999754167],[-81.469254000109,28.546711000161817],[-81.46925300028408,28.546360999891153],[-81.46925099973595,28.545311999801335],[-81.46925099973595,28.544963000218324],[-81.46934199997254,28.544935999745665],[-81.46993199997642,28.544917999952762],[-81.46998200020515,28.544921000181482],[-81.47002900006082,28.544933000306447],[-81.47006900024378,28.544959000177993],[-81.47011000025167,28.544942000201996],[-81.47089199987616,28.544929000264958]]]},"properties":{"block_id":"120950147014000","school_id":"sch_oak_hill_elementary","kids_est":28,"class":"red","shortest":{"len_m":1772.0,"mean_c":38.31,"peak_c":38.4,"dose":131.2},"coolest":{"len_m":1772.0,"mean_c":38.31,"peak_c":38.4,"dose":131.2},"delta_mean_c":0.0,"delta_dose_pct":0,"distance_mi":0.412,"status_now":"walk","status_rec":"bus_eligible","reason":"Coolest route mean 38.3C exceeds threshold (110 C-min dose, actual 131).","safe_until_hour":"14:00"}},{"type":"Feature","geometry":{"type":"Polygon","coordinates":[[[-81.4692619996066,28.54837099992148],[-81.4692619996066,28.54832399997212],[-81.46925999995678,28.548001000021184],[-81.46925499993391,28.547033000330437],[-81.469254000109,28.546711000161817],[-81.46908900025257,28.546712999754167],[-81.46859600033306,28.546719000109317],[-81.46843200030153,28.546722000286753],[-81.46843300012644,28.547043999632628],[-81.4684380001493,28.54800999965453],[-81.46843999979914,28.548333000366963],[-81.46843999979914,28.548377000182168],[-81.46844399999709,28.548471999792138],[-81.4684570004159,28.548503999832505],[-81.4684940002258,28.54854299989323],[-81.46854799975416,28.54857000023031],[-81.46859499960983,28.548575999690556],[-81.46881399989296,28.548553999826826],[-81.46914699997888,28.548516000338335],[-81.46916399969733,28.548507999738273],[-81.46919700020759,28.548495000241324],[-81.46923599966735,28.54845799972211],[-81.46925699958373,28.548412000380658],[-81.4692619996066,28.54837099992148]]]},"properties":{"block_id":"120950147015008","school_id":"sch_oak_hill_elementary","kids_est":20,"class":"red","shortest":{"len_m":1579.4,"mean_c":38.31,"peak_c":38.4,"dose":117.0},"coolest":{"len_m":1579.4,"mean_c":38.31,"peak_c":38.4,"dose":117.0},"delta_mean_c":0.0,"delta_dose_pct":0,"distance_mi":0.542,"status_now":"walk","status_rec":"bus_eligible","reason":"Coolest route mean 38.3C exceeds threshold (110 C-min dose, actual 117).","safe_until_hour":"14:00"}},{"type":"Feature","geometry":{"type":"Polygon","coordinates":[[[-81.47018800006947,28.540297000209073],[-81.47018499969641,28.539294999759033],[-81.47018100039676,28.539064000335493],[-81.47015999958205,28.538669000130565],[-81.47015799993224,28.538483000000713],[-81.46914699997888,28.53837300035492],[-81.4691329997352,28.53856400004669],[-81.46911299964368,28.53895700011654],[-81.46911900038978,28.540313000288574],[-81.47018800006947,28.540297000209073]]]},"properties":{"block_id":"120950147014014","school_id":"sch_oak_hill_elementary","kids_est":15,"class":"green","shortest":{"len_m":407.9,"mean_c":38.3,"peak_c":38.3,"dose":30.0},"coolest":{"len_m":407.9,"mean_c":38.3,"peak_c":38.3,"dose":30.0},"delta_mean_c":0.0,"delta_dose_pct":0,"distance_mi":0.189,"status_now":"walk","status_rec":"walk","reason":"Shortest route already under threshold (dose 30).","safe_until_hour":null}},{"type":"Feature","geometry":{"type":"Polygon","coordinates":[[[-81.46812400032995,28.54443700031479],[-81.46812199978181,28.544077999621116],[-81.46811900030708,28.5430020002887],[-81.46811799958385,28.542644000062953],[-81.46801700019985,28.542643000228157],[-81.46771500007604,28.542640999769375],[-81.4676149996186,28.542640999769375],[-81.4676149996186,28.5428390000238],[-81.46761700016675,28.543433000132264],[-81.46761700016675,28.543507999780232],[-81.46761799999167,28.543632000301635],[-81.46761799999167,28.543749000328827],[-81.46761899981657,28.54410299988271],[-81.46761999964149,28.54422099999569],[-81.46761999964149,28.544264999950496],[-81.46761999964149,28.544398000311876],[-81.46761999964149,28.544443000010475],[-81.46772000009892,28.54444100037501],[-81.46802300004762,28.54443700031479],[-81.46812400032995,28.54443700031479]]]},"properties":{"block_id":"120950147014004","school_id":"sch_oak_hill_elementary","kids_est":13,"class":"green","shortest":{"len_m":1127.0,"mean_c":38.31,"peak_c":38.4,"dose":83.4},"coolest":{"len_m":1127.0,"mean_c":38.31,"peak_c":38.4,"dose":83.4},"delta_mean_c":0.0,"delta_dose_pct":0,"distance_mi":0.354,"status_now":"walk","status_rec":"walk","reason":"Shortest route already under threshold (dose 83).","safe_until_hour":null}},{"type":"Feature","geometry":{"type":"Polygon","coordinates":[[[-81.46810400023847,28.538434999710226],[-81.46812500015487,28.538261000052337],[-81.4680849999719,28.538256999757433],[-81.46760999959575,28.53820399997943],[-81.46759799990016,28.53843800012366],[-81.46760600029609,28.540309999928613],[-81.46811000008624,28.540305999711567],[-81.46810400023847,28.538434999710226]]]},"properties":{"block_id":"120950147014016","school_id":"sch_oak_hill_elementary","kids_est":2,"class":"green","shortest":{"len_m":637.4,"mean_c":38.3,"peak_c":38.3,"dose":47.0},"coolest":{"len_m":637.4,"mean_c":38.3,"peak_c":38.3,"dose":47.0},"delta_mean_c":0.0,"delta_dose_pct":0,"distance_mi":0.294,"status_now":"walk","status_rec":"walk","reason":"Shortest route already under threshold (dose 47).","safe_until_hour":null}},{"type":"Feature","geometry":{"type":"Polygon","coordinates":[[[-81.48360499999784,28.54428900034853],[-81.48360300034803,28.54411100002832],[-81.48359900015006,28.54357999989714],[-81.48359800032514,28.543402999784615],[-81.48345600003493,28.543401000129418],[-81.48341400020213,28.543401000129418],[-81.48286400038121,28.54340500022892],[-81.4826810000831,28.543406999884052],[-81.48254700018882,28.5434060000565],[-81.48246400034814,28.543407999711658],[-81.48243199966278,28.543410000155877],[-81.48231799985996,28.543429999861104],[-81.48221400010289,28.543464000298336],[-81.48213999958473,28.543497999935454],[-81.48203699965256,28.543559000394218],[-81.48194499959105,28.543633000127052],[-81.48189600008556,28.543686000330357],[-81.48175100032063,28.543845999814454],[-81.48154200008324,28.544071999904634],[-81.48142099970941,28.544203999900652],[-81.48134799991449,28.54426000006414],[-81.48126500007379,28.54430400000266],[-81.48121999986796,28.544321000081617],[-81.48112699998154,28.544344999677758],[-81.48103099972208,28.544353999623546],[-81.48071299970476,28.5443560000498],[-81.4804059995581,28.544357999686866],[-81.48022300015832,28.544359000294534],[-81.47967499998722,28.544361999750034],[-81.47949300041233,28.544364000176135],[-81.47931199976406,28.544364000176135],[-81.47876899961585,28.54436800023913],[-81.4785889996908,28.544369000057557],[-81.47802999964905,28.54437399993869],[-81.47788800025714,28.544376000364547],[-81.47635500007195,28.54438399970029],[-81.47579699985512,28.544386999944223],[-81.4757879996343,28.54483399982648],[-81.47574599980152,28.54610300000667],[-81.47574599980152,28.54617400012659],[-81.47574699962642,28.546622000113093],[-81.47574400015169,28.546854999912878],[-81.47574199960356,28.547114000115002],[-81.47574699962642,28.54755700031872],[-81.47574999999948,28.54779100020326],[-81.47575099982437,28.547872000193898],[-81.47575599984725,28.548117000146842],[-81.47575800039539,28.548198999668873],[-81.47622299982748,28.54820700029242],[-81.47659100007353,28.548222000177677],[-81.47666800006641,28.54822699987595],[-81.47695799959632,28.548248999807946],[-81.47781399973898,28.548342999752684],[-81.47842700020739,28.54841700006994],[-81.47938299990916,28.548542000114427],[-81.4802869997324,28.548660999766437],[-81.48037700014409,28.548673000254368],[-81.48053000030498,28.548684999951856],[-81.48082499985775,28.548709999908954],[-81.48126300042398,28.548727999842892],[-81.48127699976936,28.54872899961994],[-81.48150699992314,28.548755999909325],[-81.48190199993336,28.548805000007633],[-81.48199900001772,28.54881800025535],[-81.48232500043096,28.548847999849677],[-81.4826519997708,28.548864999984307],[-81.48309399963667,28.548878000224633],[-81.48314999971318,28.54887999977585],[-81.48349299984484,28.54888299989171],[-81.48337900004205,28.548684999951856],[-81.48329799985117,28.54854299989323],[-81.48323900029995,28.548425999667725],[-81.48304699978102,28.548085999772038],[-81.48293499962801,28.547887999911897],[-81.4828779997266,28.547908000345053],[-81.48279800025898,28.547921999699163],[-81.48247400039388,28.547921999699163],[-81.48195200016207,28.547924000057648],[-81.48175600034348,28.54794999997989],[-81.48170600011477,28.54794500026846],[-81.48166099990893,28.54792599962697],[-81.48162499992392,28.547895999770002],[-81.48161200040344,28.547876999908738],[-81.4815949997867,28.54783600003038],[-81.48159300013685,28.5477919999892],[-81.48159899998466,28.547770999747815],[-81.48160400000752,28.54763600012541],[-81.48160300018262,28.54737400025917],[-81.48160300018262,28.546908999867455],[-81.48160099963447,28.54670400000995],[-81.4815949997867,28.54609000021287],[-81.48159300013685,28.54588600014358],[-81.48158999976381,28.54554000030629],[-81.48158899993891,28.545397999952854],[-81.48160700038056,28.54531900004572],[-81.48163999999254,28.54524400010893],[-81.48168900039633,28.54517499977279],[-81.48216300004925,28.544736999672487],[-81.48221300027797,28.544692000099495],[-81.48242099979211,28.544507000162426],[-81.48256100043253,28.54438399970029],[-81.48261499996089,28.54435199998635],[-81.48263400022746,28.544342000221697],[-81.48271600024322,28.544312000133004],[-81.48280199955863,28.544296999690875],[-81.48335499975258,28.544290999986885],[-81.48360499999784,28.54428900034853]]]},"properties":{"block_id":"120950148051003","school_id":"sch_oak_hill_elementary","kids_est":39,"class":"red","shortest":{"len_m":1908.8,"mean_c":38.3,"peak_c":38.3,"dose":140.5},"coolest":{"len_m":1908.8,"mean_c":38.3,"peak_c":38.3,"dose":140.5},"delta_mean_c":0.0,"delta_dose_pct":0,"distance_mi":0.577,"status_now":"walk","status_rec":"bus_eligible","reason":"Coolest route mean 38.3C exceeds threshold (110 C-min dose, actual 140).","safe_until_hour":"14:00"}},{"type":"Feature","geometry":{"type":"Polygon","coordinates":[[[-81.47581399957357,28.55034399960911],[-81.47580000022819,28.549877000173495],[-81.47573499993085,28.54899899983497],[-81.47574199960356,28.548841999615885],[-81.47574999999948,28.548645999943712],[-81.47575699967216,28.548449000126997],[-81.47530599958546,28.548439999742012],[-81.47394300017791,28.548499000147437],[-81.47270000042096,28.548589999744895],[-81.46829400020927,28.54931300036011],[-81.46809699966745,28.549355000223656],[-81.4676840001139,28.549435000030147],[-81.46765099960362,28.549674000105938],[-81.46763999973297,28.549762999942722],[-81.46770300038047,28.54974800027695],[-81.46789199962805,28.54970400024552],[-81.46795600010047,28.549690000339265],[-81.46799399973528,28.549680000292344],[-81.4681069997132,28.549653000239847],[-81.46814600007126,28.549643999957823],[-81.468669000128,28.549620999759533],[-81.47023699957495,28.54955500002041],[-81.47076100035491,28.54953300036125],[-81.47074200008835,28.549557000347885],[-81.47072899966955,28.549582000098017],[-81.47071699997399,28.549630000043592],[-81.47072100017195,28.550038000275336],[-81.47072700001972,28.550477000184657],[-81.47073100021768,28.55158799962252],[-81.47073299986751,28.551978999740484],[-81.47093899973183,28.55197700024812],[-81.4719010001797,28.551981999768067],[-81.47209299980032,28.55198300030328],[-81.47287699997297,28.551971999938797],[-81.47312700021821,28.551962000108638],[-81.47314499976156,28.551721999953585],[-81.47315200033258,28.55162899961824],[-81.47306600011885,28.551624999831066],[-81.47295899998872,28.55160800014207],[-81.47285699988147,28.551576000255846],[-81.4728019996299,28.551548999900408],[-81.47276999984284,28.55153399969996],[-81.47266799973559,28.551466999830673],[-81.47257599967408,28.55138900028237],[-81.4725349996662,28.551345999899706],[-81.47246199987126,28.551253999774424],[-81.47240300032003,28.551153999958807],[-81.47237800020568,28.551096000006424],[-81.47235700028928,28.551003999662715],[-81.47235700028928,28.550909999725953],[-81.47236899998485,28.550847999822487],[-81.47244599997775,28.550700000185362],[-81.47246400041941,28.55067400015297],[-81.4725270001686,28.55058999988313],[-81.4725849998949,28.550531999620098],[-81.47266199988782,28.550475999635132],[-81.47273100038309,28.55043700029026],[-81.47283699978999,28.550392999757623],[-81.47293300004945,28.55036699964942],[-81.47304699985227,28.550349999757337],[-81.47317999992167,28.5503450001599],[-81.4732460000439,28.550348999995684],[-81.47337699956516,28.55036699964942],[-81.47350399978676,28.55040100021455],[-81.47357300028204,28.55042800007518],[-81.4736250001606,28.550450000336518],[-81.47369200010775,28.55049199974659],[-81.47375400003202,28.550544999654626],[-81.47392999975911,28.550438999811888],[-81.4739840001858,28.55040800012061],[-81.47407200004933,28.550378000181595],[-81.47425100014947,28.550361000291268],[-81.47453200035687,28.55034699968327],[-81.474555999748,28.55034599992158],[-81.4747380002212,28.55034399960911],[-81.47489200020699,28.55034299984741],[-81.47535300033944,28.550342000085692],[-81.47550800015013,28.550342000085692],[-81.47565999958778,28.55033800024959],[-81.47581399957357,28.55034399960911]]]},"properties":{"block_id":"120950147015002","school_id":"sch_oak_hill_elementary","kids_est":15,"class":"red","shortest":{"len_m":2769.6,"mean_c":38.32,"peak_c":38.4,"dose":204.4},"coolest":{"len_m":2769.6,"mean_c":38.32,"peak_c":38.4,"dose":204.4},"delta_mean_c":0.0,"delta_dose_pct":0,"distance_mi":0.649,"status_now":"walk","status_rec":"bus_eligible","reason":"Coolest route mean 38.3C exceeds threshold (110 C-min dose, actual 204).","safe_until_hour":"11:00"}},{"type":"Feature","geometry":{"type":"Polygon","coordinates":[[[-81.48419500000172,28.551891999692483],[-81.48418699960581,28.5516629997758],[-81.48418900015395,28.551354000284217],[-81.48419099980377,28.551185000219554],[-81.48418199958293,28.550834000068324],[-81.48416800023755,28.55025999986507],[-81.48412700022965,28.550102999947768],[-81.48407199997807,28.54994899988188],[-81.48400099983296,28.54980000000349],[-81.48381099986217,28.54945900003916],[-81.48363900033304,28.549148999830702],[-81.48254899983864,28.549145999722427],[-81.4813570001353,28.549023999717594],[-81.48005400010389,28.54887400033291],[-81.47899100027202,28.548769000163094],[-81.4776880002406,28.548574000133495],[-81.4764000002778,28.548470000233184],[-81.47575699967216,28.548449000126997],[-81.47574999999948,28.548645999943712],[-81.47574199960356,28.548841999615885],[-81.47573499993085,28.54899899983497],[-81.47580000022819,28.549877000173495],[-81.47581399957357,28.55034399960911],[-81.47584999955858,28.55069099999275],[-81.47587399984803,28.550909999725953],[-81.475878000046,28.55104700018498],[-81.47588800009173,28.55139099978597],[-81.47589200028968,28.551737999875723],[-81.47589499976444,28.551947999713494],[-81.47614400018476,28.55194600022053],[-81.4772029998187,28.551919999706705],[-81.47816400044167,28.55193300035896],[-81.47927699960397,28.551919999706705],[-81.48110199986719,28.551908000377868],[-81.48341500002705,28.551896000258573],[-81.48419500000172,28.551891999692483]]]},"properties":{"block_id":"120950148051001","school_id":"sch_oak_hill_elementary","kids_est":0,"class":"red","shortest":{"len_m":2119.6,"mean_c":38.3,"peak_c":38.3,"dose":156.3},"coolest":{"len_m":2119.6,"mean_c":38.3,"peak_c":38.3,"dose":156.3},"delta_mean_c":0.0,"delta_dose_pct":0,"distance_mi":0.813,"status_now":"walk","status_rec":"bus_eligible","reason":"Coolest route mean 38.3C exceeds threshold (110 C-min dose, actual 156).","safe_until_hour":"12:00"}},{"type":"Feature","geometry":{"type":"Polygon","coordinates":[[[-81.47119499982486,28.53893300008198],[-81.47119499982486,28.53860199996888],[-81.47015799993224,28.538483000000713],[-81.47015999958205,28.538669000130565],[-81.47018100039676,28.539064000335493],[-81.47018499969641,28.539294999759033],[-81.47018800006947,28.540297000209073],[-81.47038899991092,28.540294999705697],[-81.4706130002169,28.540292999991497],[-81.4709930001585,28.54026900026134],[-81.47119499982486,28.540257000394213],[-81.47119499982486,28.53992599970592],[-81.47119499982486,28.53893300008198]]]},"properties":{"block_id":"120950147014013","school_id":"sch_oak_hill_elementary","kids_est":18,"class":"green","shortest":{"len_m":407.9,"mean_c":38.3,"peak_c":38.3,"dose":30.0},"coolest":{"len_m":407.9,"mean_c":38.3,"peak_c":38.3,"dose":30.0},"delta_mean_c":0.0,"delta_dose_pct":0,"distance_mi":0.131,"status_now":"walk","status_rec":"walk","reason":"Shortest route already under threshold (dose 30).","safe_until_hour":null}},{"type":"Feature","geometry":{"type":"Polygon","coordinates":[[[-81.47576099987013,28.548345000103176],[-81.47575800039539,28.548198999668873],[-81.47509899989622,28.548190999833785],[-81.47471999977954,28.548193999969264],[-81.47434200038609,28.548208000074403],[-81.47427899973857,28.548211999991356],[-81.47397400014005,28.548232000363054],[-81.4738860002765,28.548237000060805],[-81.47334099958015,28.54828499983029],[-81.47257400002427,28.548369000360605],[-81.47218099966388,28.548425999667725],[-81.47148699990292,28.54854500023992],[-81.47094299992979,28.54863299967475],[-81.4700139999922,28.54879799999501],[-81.46988900031872,28.54882500026671],[-81.46939700022415,28.54893500004536],[-81.46810599988828,28.54911300010377],[-81.46768900013677,28.549190999759638],[-81.46770000000743,28.549321999881386],[-81.46768699958864,28.549410000245093],[-81.4676840001139,28.549435000030147],[-81.46809699966745,28.549355000223656],[-81.46829400020927,28.54931300036011],[-81.47270000042096,28.548589999744895],[-81.47394300017791,28.548499000147437],[-81.47530599958546,28.548439999742012],[-81.47575699967216,28.548449000126997],[-81.47576099987013,28.548345000103176]]]},"properties":{"block_id":"120950147015006","school_id":"sch_oak_hill_elementary","kids_est":0,"class":"red","shortest":{"len_m":2697.9,"mean_c":38.32,"peak_c":38.4,"dose":199.1},"coolest":{"len_m":2697.9,"mean_c":38.32,"peak_c":38.4,"dose":199.1},"delta_mean_c":0.0,"delta_dose_pct":0,"distance_mi":0.568,"status_now":"walk","status_rec":"bus_eligible","reason":"Coolest route mean 38.3C exceeds threshold (110 C-min dose, actual 199).","safe_until_hour":"11:00"}},{"type":"Feature","geometry":{"type":"Polygon","coordinates":[[[-81.4751549999727,28.5420460000892],[-81.47520400037651,28.54196299988132],[-81.47510100044435,28.541905000391264],[-81.47495499995618,28.541847000080168],[-81.47483899960523,28.541818999755233],[-81.47471999977954,28.541805000379167],[-81.47414400001935,28.541807999907412],[-81.47394599965264,28.54181000038201],[-81.47249500038154,28.54182399975747],[-81.47244799962756,28.541832000076102],[-81.47240199959681,28.541846000237793],[-81.47235999976401,28.541866000240034],[-81.47232200012918,28.541892000079404],[-81.47228799979399,28.54192200006824],[-81.47226100002982,28.541957000044384],[-81.47224000011342,28.541995000320963],[-81.4722259998697,28.542036000105636],[-81.47221900019701,28.54207799971453],[-81.47222000002192,28.543290000266136],[-81.47222199967175,28.544379999637947],[-81.47288100017091,28.544370999694387],[-81.47384600009352,28.544357999686866],[-81.4739570004216,28.5443479999228],[-81.47401500014793,28.5443280003918],[-81.47407100022441,28.544295000052585],[-81.4741180000801,28.54425299974944],[-81.47415499989002,28.544203000080604],[-81.47418599985215,28.544141999994846],[-81.47420900031668,28.544077999621116],[-81.47422199983717,28.544010999743023],[-81.47422199983717,28.543910000329156],[-81.47421599998937,28.543836000001775],[-81.47421699981429,28.543634999777847],[-81.47422199983717,28.543565000139846],[-81.47423000023308,28.543474000146347],[-81.47425500034743,28.543388000002192],[-81.47429100033244,28.543305000062524],[-81.47435599973146,28.543200999694086],[-81.47448299995308,28.543073999962328],[-81.47455300027327,28.54302500035418],[-81.47463699993885,28.54297900021819],[-81.47479699977244,28.542901999739758],[-81.47488800000903,28.542859999670256],[-81.47495800032922,28.542810000129343],[-81.47501500023063,28.54274800019224],[-81.47505799988835,28.542678999799268],[-81.47508499965252,28.54260299972583],[-81.47509999972114,28.542475000225803],[-81.47510100044435,28.542222000275654],[-81.47511899998771,28.542131999750733],[-81.4751549999727,28.5420460000892]]]},"properties":{"block_id":"120950147014011","school_id":"sch_oak_hill_elementary","kids_est":29,"class":"green","shortest":{"len_m":1090.0,"mean_c":38.3,"peak_c":38.3,"dose":80.3},"coolest":{"len_m":1090.0,"mean_c":38.3,"peak_c":38.3,"dose":80.3},"delta_mean_c":0.0,"delta_dose_pct":0,"distance_mi":0.184,"status_now":"walk","status_rec":"walk","reason":"Shortest route already under threshold (dose 80).","safe_until_hour":null}},{"type":"Feature","geometry":{"type":"Polygon","coordinates":[[[-81.47834600001654,28.541697999787605],[-81.47834799966637,28.541654000338838],[-81.4783350001459,28.541610999927155],[-81.47830699965847,28.541573000301153],[-81.47825700032809,28.54153400002701],[-81.47819799987853,28.54150700025364],[-81.47813199975629,28.541493999892683],[-81.47782700015777,28.54150499977329],[-81.47743799999533,28.541512000270682],[-81.47680699998358,28.541508999944867],[-81.47666399986845,28.541515999652766],[-81.47661399963974,28.541503999927684],[-81.47653599982192,28.541452999897054],[-81.47649300016423,28.541440000318563],[-81.47579299965717,28.541447999877274],[-81.47579199983227,28.54156800028706],[-81.47579100000735,28.54176899972028],[-81.47578900035752,28.54193000037943],[-81.47578900035752,28.542051000080644],[-81.47594699964296,28.542064000372875],[-81.47658900042369,28.542066000053467],[-81.47779799984546,28.542052999761477],[-81.47784800007416,28.542041999938082],[-81.47790800034862,28.54201199998342],[-81.47829699961274,28.541775000357024],[-81.4783290002981,28.541740000320413],[-81.47834600001654,28.541697999787605]]]},"properties":{"block_id":"120950148051011","school_id":"sch_oak_hill_elementary","kids_est":0,"class":"green","shortest":{"len_m":711.8,"mean_c":38.3,"peak_c":38.3,"dose":52.4},"coolest":{"len_m":711.8,"mean_c":38.3,"peak_c":38.3,"dose":52.4},"delta_mean_c":0.0,"delta_dose_pct":0,"distance_mi":0.286,"status_now":"walk","status_rec":"walk","reason":"Shortest route already under threshold (dose 52).","safe_until_hour":null}},{"type":"Feature","geometry":{"type":"Polygon","coordinates":[[[-81.48363900033304,28.549148999830702],[-81.48356599963977,28.54901599994521],[-81.48349299984484,28.54888299989171],[-81.48314999971318,28.54887999977585],[-81.48309399963667,28.548878000224633],[-81.4826519997708,28.548864999984307],[-81.48232500043096,28.548847999849677],[-81.48199900001772,28.54881800025535],[-81.48190199993336,28.548805000007633],[-81.48150699992314,28.548755999909325],[-81.48127699976936,28.54872899961994],[-81.48126300042398,28.548727999842892],[-81.48082499985775,28.548709999908954],[-81.48053000030498,28.548684999951856],[-81.48037700014409,28.548673000254368],[-81.4802869997324,28.548660999766437],[-81.47938299990916,28.548542000114427],[-81.47842700020739,28.54841700006994],[-81.47781399973898,28.548342999752684],[-81.47695799959632,28.548248999807946],[-81.47666800006641,28.54822699987595],[-81.47659100007353,28.548222000177677],[-81.47622299982748,28.54820700029242],[-81.47575800039539,28.548198999668873],[-81.47576099987013,28.548345000103176],[-81.47575699967216,28.548449000126997],[-81.4764000002778,28.548470000233184],[-81.4776880002406,28.548574000133495],[-81.47899100027202,28.548769000163094],[-81.48005400010389,28.54887400033291],[-81.4813570001353,28.549023999717594],[-81.48254899983864,28.549145999722427],[-81.48363900033304,28.549148999830702]]]},"properties":{"block_id":"120950148051002","school_id":"sch_oak_hill_elementary","kids_est":0,"class":"red","shortest":{"len_m":1877.3,"mean_c":38.3,"peak_c":38.3,"dose":138.2},"coolest":{"len_m":1877.3,"mean_c":38.3,"peak_c":38.3,"dose":138.2},"delta_mean_c":0.0,"delta_dose_pct":0,"distance_mi":0.717,"status_now":"walk","status_rec":"bus_eligible","reason":"Coolest route mean 38.3C exceeds threshold (110 C-min dose, actual 138).","safe_until_hour":"14:00"}},{"type":"Feature","geometry":{"type":"Polygon","coordinates":[[[-81.48359800032514,28.543402999784615],[-81.4835949999521,28.54315100031509],[-81.4835949999521,28.543037999737116],[-81.48358300025653,28.542919999877114],[-81.48355700031726,28.542802999718287],[-81.48351499958616,28.542682000091766],[-81.48345100001205,28.542552000227264],[-81.48339999995844,28.542468999628927],[-81.48337900004205,28.542441000258492],[-81.48331000044506,28.54235099992068],[-81.48327699993477,28.542313999610467],[-81.48320999998762,28.54225700015212],[-81.48300099975026,28.54207799971453],[-81.48296399994032,28.542047999770123],[-81.48233200010367,28.54153499987234],[-81.48222300032373,28.541427999795673],[-81.4821300004373,28.54131300004199],[-81.4820380003758,28.541164999632105],[-81.48198899997197,28.54106100030746],[-81.48194499959105,28.540925999976288],[-81.48194100029141,28.540906999646886],[-81.48192000037501,28.540787000062455],[-81.48191600017705,28.540649999672663],[-81.48192899969753,28.54046600038377],[-81.48198399994912,28.540086000166067],[-81.48202400013207,28.539814000265114],[-81.48152600018972,28.53975600038105],[-81.48102800024733,28.539697999675894],[-81.48067000004706,28.539648000212527],[-81.48003499983733,28.539576999639603],[-81.47953799971987,28.539522000007555],[-81.47921899987763,28.53948600014676],[-81.47883999976095,28.539445000158825],[-81.47826300017587,28.53938999966875],[-81.47797600012069,28.539364000001],[-81.47794500015856,28.539358000016094],[-81.4777169996546,28.53932000036659],[-81.47752300038415,28.539292000159186],[-81.47730699957579,28.539262000210567],[-81.47625200013981,28.539148000327934],[-81.47582799981728,28.539102999945737],[-81.47582699999236,28.539572000319904],[-81.47582600016746,28.54026699975748],[-81.47580500025106,28.5408830000566],[-81.475801999878,28.54097899996327],[-81.47579299965717,28.541447999877274],[-81.47649300016423,28.541440000318563],[-81.47653599982192,28.541452999897054],[-81.47661399963974,28.541503999927684],[-81.47666399986845,28.541515999652766],[-81.47680699998358,28.541508999944867],[-81.47743799999533,28.541512000270682],[-81.47782700015777,28.54150499977329],[-81.47813199975629,28.541493999892683],[-81.47819799987853,28.54150700025364],[-81.47825700032809,28.54153400002701],[-81.47830699965847,28.541573000301153],[-81.4783350001459,28.541610999927155],[-81.47834799966637,28.541654000338838],[-81.47834600001654,28.541697999787605],[-81.4783290002981,28.541740000320413],[-81.47829699961274,28.541775000357024],[-81.47790800034862,28.54201199998342],[-81.47784800007416,28.542041999938082],[-81.47779799984546,28.542052999761477],[-81.47658900042369,28.542066000053467],[-81.47594699964296,28.542064000372875],[-81.47578900035752,28.542051000080644],[-81.47579199983227,28.54225899982911],[-81.47579500020531,28.54246600011946],[-81.47579500020531,28.54251800028481],[-81.47579799968004,28.542780000393467],[-81.475801999878,28.543095000351087],[-81.47580400042614,28.543810999676815],[-81.475801999878,28.54391900031212],[-81.47579699985512,28.544386999944223],[-81.47635500007195,28.54438399970029],[-81.47788800025714,28.544376000364547],[-81.47802999964905,28.54437399993869],[-81.4785889996908,28.544369000057557],[-81.4785820000181,28.54424100033614],[-81.47858100019319,28.544005999844668],[-81.47858100019319,28.543785000311043],[-81.47857500034539,28.543493999839477],[-81.47857500034539,28.54291900004493],[-81.4785760001703,28.54263800026487],[-81.47858299984301,28.542611999820465],[-81.4786110003304,28.542566000293206],[-81.47862999969867,28.54254599963478],[-81.47867900010247,28.542516999659664],[-81.47870599986665,28.542506999720807],[-81.4787719999889,28.542499000242536],[-81.47931199976406,28.542494000272402],[-81.47949199968912,28.542492999647024],[-81.47949300041233,28.542867000077546],[-81.47949900026013,28.543990000326026],[-81.47950099990994,28.544244999614616],[-81.47949300041233,28.544364000176135],[-81.47967499998722,28.544361999750034],[-81.48022300015832,28.544359000294534],[-81.4804059995581,28.544357999686866],[-81.48040200025845,28.543714000158946],[-81.48039399986253,28.54235599989761],[-81.48038700018984,28.542263999810388],[-81.48038899983966,28.54223999974012],[-81.4804059995581,28.542194999889542],[-81.48043800024345,28.54215599984561],[-81.48048099990118,28.542128000392044],[-81.48053199995479,28.54211299963883],[-81.48078499967478,28.542115999947523],[-81.48086699969055,28.542116999787314],[-81.48141800023468,28.54211400026782],[-81.48142900010534,28.54211500010764],[-81.48155600032695,28.542129000231725],[-81.48168799967311,28.542168000285578],[-81.48180900004692,28.54222899993624],[-81.4820109997133,28.54237499996567],[-81.48237200028665,28.54267200016858],[-81.48259099967143,28.542862000124867],[-81.48262599983154,28.542908000311964],[-81.48265299959571,28.54295899963818],[-81.48267100003737,28.543013000011854],[-81.4826790004333,28.54306800018867],[-81.4826810000831,28.543406999884052],[-81.48286400038121,28.54340500022892],[-81.48341400020213,28.543401000129418],[-81.48345600003493,28.543401000129418],[-81.48359800032514,28.543402999784615]],[[-81.48135200011245,28.540957000091037],[-81.48143400012822,28.541301000293778],[-81.48066800039724,28.54130499968393],[-81.48058100035858,28.541306000320528],[-81.48050000016774,28.54129399978237],[-81.48046300035783,28.541266999947535],[-81.48043599969532,28.54123199974215],[-81.4804199998018,28.54119200028229],[-81.48041800015197,28.541150000320165],[-81.48042900002262,28.541108000341282],[-81.48043300022059,28.54105200008037],[-81.48042999984754,28.54050000019934],[-81.48042499982468,28.54047800022708],[-81.4804209996267,28.540412000282707],[-81.48043200039567,28.540347000153535],[-81.48045800033495,28.54028500034509],[-81.48049199977183,28.54026300032792],[-81.48055100022138,28.54024399987899],[-81.48061300014564,28.54024300002135],[-81.48065300032862,28.54025300017511],[-81.48107799957774,28.54030200028348],[-81.48120800017239,28.540304999854524],[-81.48125300037825,28.54031699971623],[-81.48129199983798,28.54034000036795],[-81.48132100015032,28.54037199972234],[-81.48133000037113,28.54039100014825],[-81.48134000041688,28.540430999912235],[-81.48133100019605,28.540515000393007],[-81.48133000037113,28.540546999694303],[-81.48132600017317,28.540685000071427],[-81.4813360002189,28.54085500026461],[-81.48135200011245,28.540957000091037]],[[-81.4788149996466,28.54056899965215],[-81.47881899984455,28.540614000197312],[-81.47880600032408,28.540658000080455],[-81.47877799983668,28.540696000036508],[-81.47873900037693,28.54072399987076],[-81.47869099979805,28.540740999738276],[-81.47808400007571,28.54074200038028],[-81.47802899982413,28.540726000365954],[-81.47798199996846,28.540695000183216],[-81.47794799963327,28.540653999876643],[-81.47792900026502,28.54060499993198],[-81.47792800044012,28.54055400025529],[-81.47794400033364,28.540505000264183],[-81.47795400037937,28.5399450002122],[-81.47811599986277,28.539948999653834],[-81.47857199997235,28.539997999903616],[-81.47858399966792,28.539999999623415],[-81.47863600044477,28.539990000234805],[-81.47868800032332,28.539993999674675],[-81.4787369998288,28.540013000168752],[-81.47877700001176,28.540042999903513],[-81.47880399977595,28.540082999799626],[-81.47881600036983,28.540128999621903],[-81.47881100034697,28.54017500021331],[-81.4788079999739,28.540548000338152],[-81.4788149996466,28.54056899965215]]]},"properties":{"block_id":"120950148051010","school_id":"sch_oak_hill_elementary","kids_est":67,"class":"red","shortest":{"len_m":1590.4,"mean_c":38.3,"peak_c":38.3,"dose":117.2},"coolest":{"len_m":1590.4,"mean_c":38.3,"peak_c":38.3,"dose":117.2},"delta_mean_c":0.0,"delta_dose_pct":0,"distance_mi":0.392,"status_now":"walk","status_rec":"bus_eligible","reason":"Coolest route mean 38.3C exceeds threshold (110 C-min dose, actual 117).","safe_until_hour":"14:00"}},{"type":"Feature","geometry":{"type":"Polygon","coordinates":[[[-81.4691329997352,28.53856400004669],[-81.46914699997888,28.53837300035492],[-81.46912400041266,28.538369999939707],[-81.46812500015487,28.538261000052337],[-81.46810400023847,28.538434999710226],[-81.46811000008624,28.540305999711567],[-81.46852099998999,28.54031599985929],[-81.46911900038978,28.540313000288574],[-81.46911299964368,28.53895700011654],[-81.4691329997352,28.53856400004669]]]},"properties":{"block_id":"120950147014015","school_id":"sch_oak_hill_elementary","kids_est":3,"class":"green","shortest":{"len_m":485.2,"mean_c":38.3,"peak_c":38.3,"dose":35.7},"coolest":{"len_m":485.2,"mean_c":38.3,"peak_c":38.3,"dose":35.7},"delta_mean_c":0.0,"delta_dose_pct":0,"distance_mi":0.249,"status_now":"walk","status_rec":"walk","reason":"Shortest route already under threshold (dose 36).","safe_until_hour":null}},{"type":"Feature","geometry":{"type":"Polygon","coordinates":[[[-81.46916399969733,28.544425000133327],[-81.46914299978093,28.544080999873756],[-81.46914199995601,28.544070000262145],[-81.46913699993314,28.54346199985515],[-81.46913799975805,28.543056999682115],[-81.46913600010822,28.543003000120144],[-81.46913000026044,28.542648000191257],[-81.46892699987086,28.542649999860767],[-81.46855299977705,28.542653999988794],[-81.46832000014854,28.542648000191257],[-81.46811799958385,28.542644000062953],[-81.46811900030708,28.5430020002887],[-81.46812199978181,28.544077999621116],[-81.46812400032995,28.54443700031479],[-81.4683319998441,28.544434000072282],[-81.46895500035826,28.544426999769147],[-81.46916399969733,28.544425000133327]]]},"properties":{"block_id":"120950147014003","school_id":"sch_oak_hill_elementary","kids_est":9,"class":"green","shortest":{"len_m":1127.0,"mean_c":38.31,"peak_c":38.4,"dose":83.4},"coolest":{"len_m":1127.0,"mean_c":38.31,"peak_c":38.4,"dose":83.4},"delta_mean_c":0.0,"delta_dose_pct":0,"distance_mi":0.319,"status_now":"walk","status_rec":"walk","reason":"Shortest route already under threshold (dose 83).","safe_until_hour":null}},{"type":"Feature","geometry":{"type":"Polygon","coordinates":[[[-81.47121599974126,28.544399999948155],[-81.47121300026653,28.54404000009591],[-81.47120599969553,28.5429619999227],[-81.4712040000457,28.54260299972583],[-81.47100200037934,28.54261500011487],[-81.47086799958673,28.542624000208477],[-81.47039700030683,28.5426309998423],[-81.47019599956707,28.5426349999711],[-81.47019599956707,28.54298999994374],[-81.47019899994014,28.54398100034912],[-81.47019599956707,28.544055999606947],[-81.47018499969641,28.544412000132485],[-81.47031699994089,28.544409999707288],[-81.47071299977603,28.54440499982786],[-81.47084599984541,28.544404000009784],[-81.47091899964033,28.544403000191696],[-81.47114100029651,28.544399999948155],[-81.47121599974126,28.544399999948155]]]},"properties":{"block_id":"120950147014009","school_id":"sch_oak_hill_elementary","kids_est":10,"class":"green","shortest":{"len_m":873.2,"mean_c":38.3,"peak_c":38.3,"dose":64.6},"coolest":{"len_m":873.8,"mean_c":38.3,"peak_c":38.3,"dose":64.5},"delta_mean_c":0.0,"delta_dose_pct":0,"distance_mi":0.239,"status_now":"walk","status_rec":"walk","reason":"Shortest route already under threshold (dose 65).","safe_until_hour":null}},{"type":"Feature","geometry":{"type":"Polygon","coordinates":[[[-81.4712040000457,28.54260299972583],[-81.47120200039588,28.542307999793504],[-81.4711980001979,28.541654000338838],[-81.47120099967266,28.54145899976269],[-81.47119999984774,28.54142299977471],[-81.47119900002282,28.54112900033283],[-81.4711980001979,28.540953999749345],[-81.47119499982486,28.540430999912235],[-81.47119499982486,28.540257000394213],[-81.4709930001585,28.54026900026134],[-81.4706130002169,28.540292999991497],[-81.47038899991092,28.540294999705697],[-81.47018800006947,28.540297000209073],[-81.47018899989438,28.540463000028147],[-81.47019200026742,28.54096100028335],[-81.47019399991726,28.54112799969449],[-81.47019399991726,28.541428999642005],[-81.47019499974215,28.542332999686046],[-81.47019599956707,28.5426349999711],[-81.47039700030683,28.5426309998423],[-81.47086799958673,28.542624000208477],[-81.47100200037934,28.54261500011487],[-81.4712040000457,28.54260299972583]]]},"properties":{"block_id":"120950147014012","school_id":"sch_oak_hill_elementary","kids_est":19,"class":"green","shortest":{"len_m":684.9,"mean_c":38.3,"peak_c":38.3,"dose":50.5},"coolest":{"len_m":684.9,"mean_c":38.3,"peak_c":38.3,"dose":50.5},"delta_mean_c":0.0,"delta_dose_pct":0,"distance_mi":0.131,"status_now":"walk","status_rec":"walk","reason":"Shortest route already under threshold (dose 50).","safe_until_hour":null}},{"type":"Feature","geometry":{"type":"Polygon","coordinates":[[[-81.46913000026044,28.542648000191257],[-81.46912799971231,28.54237900010414],[-81.46912500023755,28.54157400014616],[-81.46912400041266,28.541306000320528],[-81.46911900038978,28.540313000288574],[-81.46852099998999,28.54031599985929],[-81.46811000008624,28.540305999711567],[-81.468112999561,28.541261999918877],[-81.4681140002842,28.541538000197427],[-81.46811699975895,28.542366999688205],[-81.46811799958385,28.542644000062953],[-81.46832000014854,28.542648000191257],[-81.46855299977705,28.542653999988794],[-81.46892699987086,28.542649999860767],[-81.46913000026044,28.542648000191257]]]},"properties":{"block_id":"120950147014006","school_id":"sch_oak_hill_elementary","kids_est":15,"class":"green","shortest":{"len_m":984.3,"mean_c":38.3,"peak_c":38.3,"dose":72.8},"coolest":{"len_m":984.3,"mean_c":38.3,"peak_c":38.3,"dose":72.8},"delta_mean_c":0.0,"delta_dose_pct":0,"distance_mi":0.247,"status_now":"walk","status_rec":"walk","reason":"Shortest route already under threshold (dose 73).","safe_until_hour":null}},{"type":"Feature","geometry":{"type":"Polygon","coordinates":[[[-81.47019599956707,28.5426349999711],[-81.47019499974215,28.542332999686046],[-81.47019399991726,28.541428999642005],[-81.47019399991726,28.54112799969449],[-81.47019200026742,28.54096100028335],[-81.47018899989438,28.540463000028147],[-81.47018800006947,28.540297000209073],[-81.46911900038978,28.540313000288574],[-81.46912400041266,28.541306000320528],[-81.46912500023755,28.54157400014616],[-81.46912799971231,28.54237900010414],[-81.46913000026044,28.542648000191257],[-81.46934299979746,28.542644999897796],[-81.46998200020515,28.54263699964085],[-81.47019599956707,28.5426349999711]]]},"properties":{"block_id":"120950147014007","school_id":"sch_oak_hill_elementary","kids_est":6,"class":"green","shortest":{"len_m":627.1,"mean_c":38.3,"peak_c":38.3,"dose":46.3},"coolest":{"len_m":627.1,"mean_c":38.3,"peak_c":38.3,"dose":46.3},"delta_mean_c":0.0,"delta_dose_pct":0,"distance_mi":0.188,"status_now":"walk","status_rec":"walk","reason":"Shortest route already under threshold (dose 46).","safe_until_hour":null}},{"type":"Feature","geometry":{"type":"Polygon","coordinates":[[[-81.47007900028952,28.546697999653997],[-81.4700779995663,28.54666999982953],[-81.4700779995663,28.546587999906134],[-81.4700779995663,28.54656099985005],[-81.47007599991647,28.546239999617264],[-81.47007000006869,28.545278999770403],[-81.47006900024378,28.544959000177993],[-81.47002900006082,28.544933000306447],[-81.46998200020515,28.544921000181482],[-81.46993199997642,28.544917999952762],[-81.46934199997254,28.544935999745665],[-81.46925099973595,28.544963000218324],[-81.46925099973595,28.545311999801335],[-81.46925300028408,28.546360999891153],[-81.469254000109,28.546711000161817],[-81.46941800014054,28.546707999984076],[-81.46991400043308,28.54670000003572],[-81.47007900028952,28.546697999653997]]]},"properties":{"block_id":"120950147014001","school_id":"sch_oak_hill_elementary","kids_est":17,"class":"red","shortest":{"len_m":1756.8,"mean_c":38.31,"peak_c":38.4,"dose":130.0},"coolest":{"len_m":1756.8,"mean_c":38.31,"peak_c":38.4,"dose":130.0},"delta_mean_c":0.0,"delta_dose_pct":0,"distance_mi":0.409,"status_now":"walk","status_rec":"bus_eligible","reason":"Coolest route mean 38.3C exceeds threshold (110 C-min dose, actual 130).","safe_until_hour":"14:00"}}]}