{"type":"FeatureCollection","features":[{"type":"Feature","geometry":{"type":"Polygon","coordinates":[[[-81.51,28.6136],[-81.496,28.6136],[-81.496,28.6332],[-81.51,28.6332],[-81.51,28.6136]]]},"properties":{"block_id":"120951230001006","school_id":"sch_wekiva_high","kids_est":12,"class":"green","shortest":{"len_m":4133.9,"mean_c":34.51,"peak_c":35.71,"dose":86.7},"coolest":{"len_m":4514.8,"mean_c":34.19,"peak_c":35.19,"dose":74.5},"delta_mean_c":-0.32,"delta_dose_pct":-14,"distance_mi":2.055,"status_now":"bus","status_rec":"walk","reason":"Shortest route already under threshold (dose 87).","safe_until_hour":null}},{"type":"Feature","geometry":{"type":"Polygon","coordinates":[[[-81.496,28.6136],[-81.482,28.6136],[-81.482,28.6332],[-81.496,28.6332],[-81.496,28.6136]]]},"properties":{"block_id":"120951231001006","school_id":"sch_wekiva_high","kids_est":9,"class":"green","shortest":{"len_m":2777.8,"mean_c":34.48,"peak_c":35.68,"dose":57.1},"coolest":{"len_m":3005.7,"mean_c":34.22,"peak_c":35.22,"dose":51.0},"delta_mean_c":-0.26,"delta_dose_pct":-11,"distance_mi":1.381,"status_now":"walk","status_rec":"walk","reason":"Shortest route already under threshold (dose 57).","safe_until_hour":null}},{"type":"Feature","geometry":{"type":"Polygon","coordinates":[[[-81.482,28.6136],[-81.468,28.6136],[-81.468,28.6332],[-81.482,28.6332],[-81.482,28.6136]]]},"properties":{"block_id":"120951232001006","school_id":"sch_wekiva_high","kids_est":20,"class":"green","shortest":{"len_m":2047.2,"mean_c":34.92,"peak_c":36.12,"dose":54.6},"coolest":{"len_m":2214.0,"mean_c":34.59,"peak_c":35.59,"dose":48.9},"delta_mean_c":-0.33,"delta_dose_pct":-10,"distance_mi":1.018,"status_now":"walk","status_rec":"walk","reason":"Shortest route already under threshold (dose 55).","safe_until_hour":null}},{"type":"Feature","geometry":{"type":"Polygon","coordinates":[[[-81.51,28.6332],[-81.496,28.6332],[-81.496,28.6528],[-81.51,28.6528],[-81.51,28.6332]]]},"properties":{"block_id":"120951230001007","school_id":"sch_wekiva_high","kids_est":9,"class":"green","shortest":{"len_m":3657.0,"mean_c":34.87,"peak_c":36.07,"dose":95.0},"coolest":{"len_m":3997.7,"mean_c":34.46,"peak_c":35.46,"dose":81.3},"delta_mean_c":-0.41,"delta_dose_pct":-14,"distance_mi":1.818,"status_now":"walk","status_rec":"walk","reason":"Shortest route already under threshold (dose 95).","safe_until_hour":null}},{"type":"Feature","geometry":{"type":"Polygon","coordinates":[[[-81.496,28.6332],[-81.482,28.6332],[-81.482,28.6528],[-81.496,28.6528],[-81.496,28.6332]]]},"properties":{"block_id":"120951231001007","school_id":"sch_wekiva_high","kids_est":7,"class":"green","shortest":{"len_m":2000.6,"mean_c":34.75,"peak_c":35.95,"dose":48.6},"coolest":{"len_m":2163.0,"mean_c":34.45,"peak_c":35.45,"dose":43.6},"delta_mean_c":-0.3,"delta_dose_pct":-10,"distance_mi":0.995,"status_now":"walk","status_rec":"walk","reason":"Shortest route already under threshold (dose 49).","safe_until_hour":null}},{"type":"Feature","geometry":{"type":"Polygon","coordinates":[[[-81.482,28.6332],[-81.468,28.6332],[-81.468,28.6528],[-81.482,28.6528],[-81.482,28.6332]]]},"properties":{"block_id":"120951232001007","school_id":"sch_wekiva_high","kids_est":12,"class":"green","shortest":{"len_m":691.4,"mean_c":35.12,"peak_c":36.32,"dose":20.4},"coolest":{"len_m":764.5,"mean_c":34.56,"peak_c":35.56,"dose":16.6},"delta_mean_c":-0.56,"delta_dose_pct":-19,"distance_mi":0.344,"status_now":"walk","status_rec":"walk","reason":"Shortest route already under threshold (dose 20).","safe_until_hour":null}},{"type":"Feature","geometry":{"type":"Polygon","coordinates":[[[-81.468,28.6332],[-81.454,28.6332],[-81.454,28.6528],[-81.468,28.6528],[-81.468,28.6332]]]},"properties":{"block_id":"120951233001007","school_id":"sch_wekiva_high","kids_est":29,"class":"green","shortest":{"len_m":1673.3,"mean_c":35.65,"peak_c":36.85,"dose":61.6},"coolest":{"len_m":1823.7,"mean_c":35.11,"peak_c":36.11,"dose":53.4},"delta_mean_c":-0.54,"delta_dose_pct":-13,"distance_mi":0.832,"status_now":"walk","status_rec":"walk","reason":"Shortest route already under threshold (dose 62).","safe_until_hour":null}}]}