{"type":"FeatureCollection","features":[{"type":"Feature","geometry":{"type":"Polygon","coordinates":[[[-81.398,28.6345],[-81.3893,28.6345],[-81.3893,28.64785],[-81.398,28.64785],[-81.398,28.6345]]]},"properties":{"block_id":"120951239001008","school_id":"sch_spring_lake_elementary_school","kids_est":8,"class":"red","shortest":{"len_m":3260.6,"mean_c":38.03,"peak_c":39.23,"dose":227.8},"coolest":{"len_m":3591.1,"mean_c":36.79,"peak_c":37.79,"dose":188.8},"delta_mean_c":-1.24,"delta_dose_pct":-17,"distance_mi":1.621,"status_now":"walk","status_rec":"bus_eligible","reason":"Coolest route mean 36.8C exceeds threshold (110 C-min dose, actual 189).","safe_until_hour":"11:00"}},{"type":"Feature","geometry":{"type":"Polygon","coordinates":[[[-81.4241,28.64785],[-81.4154,28.64785],[-81.4154,28.6612],[-81.4241,28.6612],[-81.4241,28.64785]]]},"properties":{"block_id":"120951236001009","school_id":"sch_spring_lake_elementary_school","kids_est":19,"class":"green","shortest":{"len_m":1391.3,"mean_c":36.02,"peak_c":37.22,"dose":58.4},"coolest":{"len_m":1732.9,"mean_c":33.84,"peak_c":34.84,"dose":20.3},"delta_mean_c":-2.18,"delta_dose_pct":-65,"distance_mi":0.692,"status_now":"walk","status_rec":"walk","reason":"Shortest route already under threshold (dose 58).","safe_until_hour":null}},{"type":"Feature","geometry":{"type":"Polygon","coordinates":[[[-81.4154,28.64785],[-81.4067,28.64785],[-81.4067,28.6612],[-81.4154,28.6612],[-81.4154,28.64785]]]},"properties":{"block_id":"120951237001009","school_id":"sch_spring_lake_elementary_school","kids_est":35,"class":"green","shortest":{"len_m":739.3,"mean_c":37.0,"peak_c":38.2,"dose":41.1},"coolest":{"len_m":910.4,"mean_c":34.28,"peak_c":35.28,"dose":16.2},"delta_mean_c":-2.72,"delta_dose_pct":-61,"distance_mi":0.367,"status_now":"walk","status_rec":"walk","reason":"Shortest route already under threshold (dose 41).","safe_until_hour":null}},{"type":"Feature","geometry":{"type":"Polygon","coordinates":[[[-81.4067,28.64785],[-81.398,28.64785],[-81.398,28.6612],[-81.4067,28.6612],[-81.4067,28.64785]]]},"properties":{"block_id":"120951238001009","school_id":"sch_spring_lake_elementary_school","kids_est":25,"class":"green","shortest":{"len_m":1189.2,"mean_c":36.97,"peak_c":38.17,"dose":65.6},"coolest":{"len_m":1462.9,"mean_c":34.29,"peak_c":35.29,"dose":26.2},"delta_mean_c":-2.68,"delta_dose_pct":-60,"distance_mi":0.591,"status_now":"walk","status_rec":"walk","reason":"Shortest route already under threshold (dose 66).","safe_until_hour":null}},{"type":"Feature","geometry":{"type":"Polygon","coordinates":[[[-81.398,28.64785],[-81.3893,28.64785],[-81.3893,28.6612],[-81.398,28.6612],[-81.398,28.64785]]]},"properties":{"block_id":"120951239001009","school_id":"sch_spring_lake_elementary_school","kids_est":33,"class":"yellow","shortest":{"len_m":2130.5,"mean_c":37.62,"peak_c":38.82,"dose":136.7},"coolest":{"len_m":2393.3,"mean_c":36.11,"peak_c":37.11,"dose":103.3},"delta_mean_c":-1.51,"delta_dose_pct":-24,"distance_mi":1.059,"status_now":"walk","status_rec":"reroute","reason":"Shortest route exceeds threshold, but coolest route mean 36.1C stays under it (dose 103).","safe_until_hour":null}},{"type":"Feature","geometry":{"type":"Polygon","coordinates":[[[-81.3893,28.64785],[-81.3806,28.64785],[-81.3806,28.6612],[-81.3893,28.6612],[-81.3893,28.64785]]]},"properties":{"block_id":"120951240001009","school_id":"sch_spring_lake_elementary_school","kids_est":12,"class":"red","shortest":{"len_m":3149.7,"mean_c":38.07,"peak_c":39.27,"dose":221.8},"coolest":{"len_m":3519.3,"mean_c":36.52,"peak_c":37.52,"dose":172.0},"delta_mean_c":-1.55,"delta_dose_pct":-22,"distance_mi":1.566,"status_now":"walk","status_rec":"bus_eligible","reason":"Coolest route mean 36.5C exceeds threshold (110 C-min dose, actual 172).","safe_until_hour":"10:00"}},{"type":"Feature","geometry":{"type":"Polygon","coordinates":[[[-81.3806,28.64785],[-81.3719,28.64785],[-81.3719,28.6612],[-81.3806,28.6612],[-81.3806,28.64785]]]},"properties":{"block_id":"120951241001009","school_id":"sch_spring_lake_elementary_school","kids_est":7,"class":"red","shortest":{"len_m":4190.4,"mean_c":38.37,"peak_c":39.57,"dose":312.5},"coolest":{"len_m":4614.7,"mean_c":37.04,"peak_c":38.04,"dose":259.1},"delta_mean_c":-1.33,"delta_dose_pct":-17,"distance_mi":2.083,"status_now":"bus","status_rec":"bus_eligible","reason":"Coolest route mean 37.0C exceeds threshold (110 C-min dose, actual 259).","safe_until_hour":"09:00"}}]}