{"type":"FeatureCollection","features":[{"type":"Feature","geometry":{"type":"Polygon","coordinates":[[[-81.4328,28.59],[-81.42845,28.59],[-81.42845,28.59445],[-81.4328,28.59445],[-81.4328,28.59]]]},"properties":{"block_id":"FIXTURE-1004","school_id":"sch_rosemont_elementary","kids_est":8,"class":"yellow","shortest":{"len_m":2011.8,"mean_c":37.75,"peak_c":38.95,"dose":132.7},"coolest":{"len_m":2247.8,"mean_c":36.3,"peak_c":37.3,"dose":102.9},"delta_mean_c":-1.45,"delta_dose_pct":-22,"distance_mi":1.0,"status_now":"walk","status_rec":"reroute","reason":"Shortest route exceeds threshold, but coolest route mean 36.3C stays under it (dose 103).","safe_until_hour":null}},{"type":"Feature","geometry":{"type":"Polygon","coordinates":[[[-81.42845,28.59],[-81.4241,28.59],[-81.4241,28.59445],[-81.42845,28.59445],[-81.42845,28.59]]]},"properties":{"block_id":"FIXTURE-1104","school_id":"sch_rosemont_elementary","kids_est":13,"class":"red","shortest":{"len_m":2372.4,"mean_c":37.83,"peak_c":39.03,"dose":159.1},"coolest":{"len_m":2600.0,"mean_c":36.73,"peak_c":37.73,"dose":134.7},"delta_mean_c":-1.1,"delta_dose_pct":-15,"distance_mi":1.179,"status_now":"walk","status_rec":"bus_eligible","reason":"Coolest route mean 36.7C exceeds threshold (110 C-min dose, actual 135).","safe_until_hour":"12:00"}},{"type":"Feature","geometry":{"type":"Polygon","coordinates":[[[-81.4415,28.59445],[-81.43715,28.59445],[-81.43715,28.5989],[-81.4415,28.5989],[-81.4415,28.59445]]]},"properties":{"block_id":"FIXTURE-0805","school_id":"sch_rosemont_elementary","kids_est":22,"class":"green","shortest":{"len_m":996.4,"mean_c":37.22,"peak_c":38.42,"dose":58.4},"coolest":{"len_m":1253.4,"mean_c":34.03,"peak_c":35.03,"dose":17.9},"delta_mean_c":-3.19,"delta_dose_pct":-69,"distance_mi":0.495,"status_now":"walk","status_rec":"walk","reason":"Shortest route already under threshold (dose 58).","safe_until_hour":null}},{"type":"Feature","geometry":{"type":"Polygon","coordinates":[[[-81.43715,28.59445],[-81.4328,28.59445],[-81.4328,28.5989],[-81.43715,28.5989],[-81.43715,28.59445]]]},"properties":{"block_id":"FIXTURE-0905","school_id":"sch_rosemont_elementary","kids_est":32,"class":"green","shortest":{"len_m":1201.6,"mean_c":37.16,"peak_c":38.36,"dose":69.4},"coolest":{"len_m":1326.3,"mean_c":36.09,"peak_c":37.09,"dose":56.9},"delta_mean_c":-1.07,"delta_dose_pct":-18,"distance_mi":0.597,"status_now":"walk","status_rec":"walk","reason":"Shortest route already under threshold (dose 69).","safe_until_hour":null}},{"type":"Feature","geometry":{"type":"Polygon","coordinates":[[[-81.4328,28.59445],[-81.42845,28.59445],[-81.42845,28.5989],[-81.4328,28.5989],[-81.4328,28.59445]]]},"properties":{"block_id":"FIXTURE-1005","school_id":"sch_rosemont_elementary","kids_est":40,"class":"yellow","shortest":{"len_m":1568.3,"mean_c":38.06,"peak_c":39.26,"dose":110.2},"coolest":{"len_m":1759.1,"mean_c":36.43,"peak_c":37.43,"dose":83.9},"delta_mean_c":-1.63,"delta_dose_pct":-24,"distance_mi":0.78,"status_now":"walk","status_rec":"reroute","reason":"Shortest route exceeds threshold, but coolest route mean 36.4C stays under it (dose 84).","safe_until_hour":null}},{"type":"Feature","geometry":{"type":"Polygon","coordinates":[[[-81.42845,28.59445],[-81.4241,28.59445],[-81.4241,28.5989],[-81.42845,28.5989],[-81.42845,28.59445]]]},"properties":{"block_id":"FIXTURE-1105","school_id":"sch_rosemont_elementary","kids_est":7,"class":"yellow","shortest":{"len_m":2010.0,"mean_c":37.45,"peak_c":38.65,"dose":124.2},"coolest":{"len_m":2214.7,"mean_c":36.34,"peak_c":37.34,"dose":102.7},"delta_mean_c":-1.11,"delta_dose_pct":-17,"distance_mi":0.999,"status_now":"walk","status_rec":"reroute","reason":"Shortest route exceeds threshold, but coolest route mean 36.3C stays under it (dose 103).","safe_until_hour":null}},{"type":"Feature","geometry":{"type":"Polygon","coordinates":[[[-81.45455,28.5989],[-81.4502,28.5989],[-81.4502,28.60335],[-81.45455,28.60335],[-81.45455,28.5989]]]},"properties":{"block_id":"FIXTURE-0506","school_id":"sch_rosemont_elementary","kids_est":11,"class":"green","shortest":{"len_m":1482.3,"mean_c":36.24,"peak_c":37.44,"dose":66.7},"coolest":{"len_m":1846.5,"mean_c":33.9,"peak_c":34.9,"dose":23.2},"delta_mean_c":-2.34,"delta_dose_pct":-65,"distance_mi":0.737,"status_now":"walk","status_rec":"walk","reason":"Shortest route already under threshold (dose 67).","safe_until_hour":null}},{"type":"Feature","geometry":{"type":"Polygon","coordinates":[[[-81.4502,28.5989],[-81.44585,28.5989],[-81.44585,28.60335],[-81.4502,28.60335],[-81.4502,28.5989]]]},"properties":{"block_id":"FIXTURE-0606","school_id":"sch_rosemont_elementary","kids_est":44,"class":"green","shortest":{"len_m":976.6,"mean_c":36.99,"peak_c":38.19,"dose":54.1},"coolest":{"len_m":1212.5,"mean_c":34.16,"peak_c":35.16,"dose":19.6},"delta_mean_c":-2.83,"delta_dose_pct":-64,"distance_mi":0.485,"status_now":"walk","status_rec":"walk","reason":"Shortest route already under threshold (dose 54).","safe_until_hour":null}},{"type":"Feature","geometry":{"type":"Polygon","coordinates":[[[-81.44585,28.5989],[-81.4415,28.5989],[-81.4415,28.60335],[-81.44585,28.60335],[-81.44585,28.5989]]]},"properties":{"block_id":"FIXTURE-0706","school_id":"sch_rosemont_elementary","kids_est":25,"class":"green","shortest":{"len_m":524.4,"mean_c":36.56,"peak_c":37.76,"dose":25.9},"coolest":{"len_m":651.6,"mean_c":34.03,"peak_c":35.03,"dose":9.3},"delta_mean_c":-2.53,"delta_dose_pct":-64,"distance_mi":0.261,"status_now":"walk","status_rec":"walk","reason":"Shortest route already under threshold (dose 26).","safe_until_hour":null}},{"type":"Feature","geometry":{"type":"Polygon","coordinates":[[[-81.4415,28.5989],[-81.43715,28.5989],[-81.43715,28.60335],[-81.4415,28.60335],[-81.4415,28.5989]]]},"properties":{"block_id":"FIXTURE-0806","school_id":"sch_rosemont_elementary","kids_est":28,"class":"green","shortest":{"len_m":401.4,"mean_c":36.55,"peak_c":37.75,"dose":19.8},"coolest":{"len_m":499.1,"mean_c":34.01,"peak_c":35.01,"dose":7.0},"delta_mean_c":-2.54,"delta_dose_pct":-65,"distance_mi":0.2,"status_now":"walk","status_rec":"walk","reason":"Shortest route already under threshold (dose 20).","safe_until_hour":null}},{"type":"Feature","geometry":{"type":"Polygon","coordinates":[[[-81.43715,28.5989],[-81.4328,28.5989],[-81.4328,28.60335],[-81.43715,28.60335],[-81.43715,28.5989]]]},"properties":{"block_id":"FIXTURE-0906","school_id":"sch_rosemont_elementary","kids_est":30,"class":"green","shortest":{"len_m":782.4,"mean_c":38.08,"peak_c":39.28,"dose":55.2},"coolest":{"len_m":865.9,"mean_c":36.73,"peak_c":37.73,"dose":44.8},"delta_mean_c":-1.35,"delta_dose_pct":-19,"distance_mi":0.389,"status_now":"walk","status_rec":"walk","reason":"Shortest route already under threshold (dose 55).","safe_until_hour":null}},{"type":"Feature","geometry":{"type":"Polygon","coordinates":[[[-81.4328,28.5989],[-81.42845,28.5989],[-81.42845,28.60335],[-81.4328,28.60335],[-81.4328,28.5989]]]},"properties":{"block_id":"FIXTURE-1006","school_id":"sch_rosemont_elementary","kids_est":36,"class":"green","shortest":{"len_m":1275.9,"mean_c":37.87,"peak_c":39.07,"dose":86.3},"coolest":{"len_m":1410.1,"mean_c":36.59,"peak_c":37.59,"dose":70.4},"delta_mean_c":-1.28,"delta_dose_pct":-18,"distance_mi":0.634,"status_now":"walk","status_rec":"walk","reason":"Shortest route already under threshold (dose 86).","safe_until_hour":null}},{"type":"Feature","geometry":{"type":"Polygon","coordinates":[[[-81.42845,28.5989],[-81.4241,28.5989],[-81.4241,28.60335],[-81.42845,28.60335],[-81.42845,28.5989]]]},"properties":{"block_id":"FIXTURE-1106","school_id":"sch_rosemont_elementary","kids_est":32,"class":"yellow","shortest":{"len_m":1791.2,"mean_c":37.54,"peak_c":38.74,"dose":112.9},"coolest":{"len_m":1979.0,"mean_c":36.36,"peak_c":37.36,"dose":92.3},"delta_mean_c":-1.18,"delta_dose_pct":-18,"distance_mi":0.89,"status_now":"walk","status_rec":"reroute","reason":"Shortest route exceeds threshold, but coolest route mean 36.4C stays under it (dose 92).","safe_until_hour":null}},{"type":"Feature","geometry":{"type":"Polygon","coordinates":[[[-81.45455,28.60335],[-81.4502,28.60335],[-81.4502,28.6078],[-81.45455,28.6078],[-81.45455,28.60335]]]},"properties":{"block_id":"FIXTURE-0507","school_id":"sch_rosemont_elementary","kids_est":15,"class":"green","shortest":{"len_m":1456.6,"mean_c":35.51,"peak_c":36.71,"dose":50.8},"coolest":{"len_m":1799.2,"mean_c":33.78,"peak_c":34.78,"dose":19.4},"delta_mean_c":-1.73,"delta_dose_pct":-62,"distance_mi":0.724,"status_now":"walk","status_rec":"walk","reason":"Shortest route already under threshold (dose 51).","safe_until_hour":null}},{"type":"Feature","geometry":{"type":"Polygon","coordinates":[[[-81.4502,28.60335],[-81.44585,28.60335],[-81.44585,28.6078],[-81.4502,28.6078],[-81.4502,28.60335]]]},"properties":{"block_id":"FIXTURE-0607","school_id":"sch_rosemont_elementary","kids_est":34,"class":"green","shortest":{"len_m":937.2,"mean_c":36.47,"peak_c":37.67,"dose":45.2},"coolest":{"len_m":1168.9,"mean_c":33.95,"peak_c":34.95,"dose":15.5},"delta_mean_c":-2.52,"delta_dose_pct":-66,"distance_mi":0.466,"status_now":"walk","status_rec":"walk","reason":"Shortest route already under threshold (dose 45).","safe_until_hour":null}},{"type":"Feature","geometry":{"type":"Polygon","coordinates":[[[-81.44585,28.60335],[-81.4415,28.60335],[-81.4415,28.6078],[-81.44585,28.6078],[-81.44585,28.60335]]]},"properties":{"block_id":"FIXTURE-0707","school_id":"sch_rosemont_elementary","kids_est":26,"class":"green","shortest":{"len_m":446.7,"mean_c":37.36,"peak_c":38.56,"dose":27.1},"coolest":{"len_m":550.3,"mean_c":34.4,"peak_c":35.4,"dose":10.7},"delta_mean_c":-2.96,"delta_dose_pct":-61,"distance_mi":0.222,"status_now":"walk","status_rec":"walk","reason":"Shortest route already under threshold (dose 27).","safe_until_hour":null}},{"type":"Feature","geometry":{"type":"Polygon","coordinates":[[[-81.4415,28.60335],[-81.43715,28.60335],[-81.43715,28.6078],[-81.4415,28.6078],[-81.4415,28.60335]]]},"properties":{"block_id":"FIXTURE-0807","school_id":"sch_rosemont_elementary","kids_est":38,"class":"green","shortest":{"len_m":292.8,"mean_c":37.49,"peak_c":38.69,"dose":18.3},"coolest":{"len_m":360.5,"mean_c":34.44,"peak_c":35.44,"dose":7.2},"delta_mean_c":-3.05,"delta_dose_pct":-61,"distance_mi":0.146,"status_now":"walk","status_rec":"walk","reason":"Shortest route already under threshold (dose 18).","safe_until_hour":null}},{"type":"Feature","geometry":{"type":"Polygon","coordinates":[[[-81.43715,28.60335],[-81.4328,28.60335],[-81.4328,28.6078],[-81.43715,28.6078],[-81.43715,28.60335]]]},"properties":{"block_id":"FIXTURE-0907","school_id":"sch_rosemont_elementary","kids_est":35,"class":"green","shortest":{"len_m":732.6,"mean_c":37.15,"peak_c":38.35,"dose":42.2},"coolest":{"len_m":920.3,"mean_c":34.03,"peak_c":35.03,"dose":13.2},"delta_mean_c":-3.12,"delta_dose_pct":-69,"distance_mi":0.364,"status_now":"walk","status_rec":"walk","reason":"Shortest route already under threshold (dose 42).","safe_until_hour":null}},{"type":"Feature","geometry":{"type":"Polygon","coordinates":[[[-81.4328,28.60335],[-81.42845,28.60335],[-81.42845,28.6078],[-81.4328,28.6078],[-81.4328,28.60335]]]},"properties":{"block_id":"FIXTURE-1007","school_id":"sch_rosemont_elementary","kids_est":9,"class":"green","shortest":{"len_m":1246.0,"mean_c":37.83,"peak_c":39.03,"dose":83.6},"coolest":{"len_m":1386.9,"mean_c":36.43,"peak_c":37.43,"dose":66.0},"delta_mean_c":-1.4,"delta_dose_pct":-21,"distance_mi":0.619,"status_now":"walk","status_rec":"walk","reason":"Shortest route already under threshold (dose 84).","safe_until_hour":null}},{"type":"Feature","geometry":{"type":"Polygon","coordinates":[[[-81.42845,28.60335],[-81.4241,28.60335],[-81.4241,28.6078],[-81.42845,28.6078],[-81.42845,28.60335]]]},"properties":{"block_id":"FIXTURE-1107","school_id":"sch_rosemont_elementary","kids_est":44,"class":"yellow","shortest":{"len_m":1770.0,"mean_c":38.15,"peak_c":39.35,"dose":126.6},"coolest":{"len_m":1951.5,"mean_c":36.85,"peak_c":37.85,"dose":104.4},"delta_mean_c":-1.3,"delta_dose_pct":-18,"distance_mi":0.88,"status_now":"walk","status_rec":"reroute","reason":"Shortest route exceeds threshold, but coolest route mean 36.9C stays under it (dose 104).","safe_until_hour":null}},{"type":"Feature","geometry":{"type":"Polygon","coordinates":[[[-81.4589,28.6078],[-81.45455,28.6078],[-81.45455,28.61225],[-81.4589,28.61225],[-81.4589,28.6078]]]},"properties":{"block_id":"FIXTURE-0408","school_id":"sch_rosemont_elementary","kids_est":32,"class":"green","shortest":{"len_m":2147.2,"mean_c":35.09,"peak_c":36.29,"dose":62.3},"coolest":{"len_m":2372.7,"mean_c":34.54,"peak_c":35.54,"dose":50.9},"delta_mean_c":-0.55,"delta_dose_pct":-18,"distance_mi":1.067,"status_now":"walk","status_rec":"walk","reason":"Shortest route already under threshold (dose 62).","safe_until_hour":null}},{"type":"Feature","geometry":{"type":"Polygon","coordinates":[[[-81.45455,28.6078],[-81.4502,28.6078],[-81.4502,28.61225],[-81.45455,28.61225],[-81.45455,28.6078]]]},"properties":{"block_id":"FIXTURE-0508","school_id":"sch_rosemont_elementary","kids_est":30,"class":"green","shortest":{"len_m":1674.0,"mean_c":36.7,"peak_c":37.9,"dose":86.0},"coolest":{"len_m":2097.9,"mean_c":33.95,"peak_c":34.95,"dose":27.7},"delta_mean_c":-2.75,"delta_dose_pct":-68,"distance_mi":0.832,"status_now":"walk","status_rec":"walk","reason":"Shortest route already under threshold (dose 86).","safe_until_hour":null}},{"type":"Feature","geometry":{"type":"Polygon","coordinates":[[[-81.4502,28.6078],[-81.44585,28.6078],[-81.44585,28.61225],[-81.4502,28.61225],[-81.4502,28.6078]]]},"properties":{"block_id":"FIXTURE-0608","school_id":"sch_rosemont_elementary","kids_est":6,"class":"green","shortest":{"len_m":1248.6,"mean_c":36.34,"peak_c":37.54,"dose":57.9},"coolest":{"len_m":1558.8,"mean_c":33.91,"peak_c":34.91,"dose":19.6},"delta_mean_c":-2.43,"delta_dose_pct":-66,"distance_mi":0.621,"status_now":"walk","status_rec":"walk","reason":"Shortest route already under threshold (dose 58).","safe_until_hour":null}},{"type":"Feature","geometry":{"type":"Polygon","coordinates":[[[-81.44585,28.6078],[-81.4415,28.6078],[-81.4415,28.61225],[-81.44585,28.61225],[-81.44585,28.6078]]]},"properties":{"block_id":"FIXTURE-0708","school_id":"sch_rosemont_elementary","kids_est":12,"class":"green","shortest":{"len_m":938.2,"mean_c":36.23,"peak_c":37.43,"dose":42.1},"coolest":{"len_m":1181.6,"mean_c":33.77,"peak_c":34.77,"dose":12.7},"delta_mean_c":-2.46,"delta_dose_pct":-70,"distance_mi":0.466,"status_now":"walk","status_rec":"walk","reason":"Shortest route already under threshold (dose 42).","safe_until_hour":null}},{"type":"Feature","geometry":{"type":"Polygon","coordinates":[[[-81.4415,28.6078],[-81.43715,28.6078],[-81.43715,28.61225],[-81.4415,28.61225],[-81.4415,28.6078]]]},"properties":{"block_id":"FIXTURE-0808","school_id":"sch_rosemont_elementary","kids_est":42,"class":"green","shortest":{"len_m":875.4,"mean_c":36.65,"peak_c":37.85,"dose":44.4},"coolest":{"len_m":1087.6,"mean_c":34.05,"peak_c":35.05,"dose":15.9},"delta_mean_c":-2.6,"delta_dose_pct":-64,"distance_mi":0.435,"status_now":"walk","status_rec":"walk","reason":"Shortest route already under threshold (dose 44).","safe_until_hour":null}},{"type":"Feature","geometry":{"type":"Polygon","coordinates":[[[-81.43715,28.6078],[-81.4328,28.6078],[-81.4328,28.61225],[-81.43715,28.61225],[-81.43715,28.6078]]]},"properties":{"block_id":"FIXTURE-0908","school_id":"sch_rosemont_elementary","kids_est":8,"class":"green","shortest":{"len_m":1103.3,"mean_c":38.03,"peak_c":39.23,"dose":77.1},"coolest":{"len_m":1215.1,"mean_c":36.79,"peak_c":37.79,"dose":63.9},"delta_mean_c":-1.24,"delta_dose_pct":-17,"distance_mi":0.548,"status_now":"walk","status_rec":"walk","reason":"Shortest route already under threshold (dose 77).","safe_until_hour":null}},{"type":"Feature","geometry":{"type":"Polygon","coordinates":[[[-81.4328,28.6078],[-81.42845,28.6078],[-81.42845,28.61225],[-81.4328,28.61225],[-81.4328,28.6078]]]},"properties":{"block_id":"FIXTURE-1008","school_id":"sch_rosemont_elementary","kids_est":29,"class":"green","shortest":{"len_m":1494.3,"mean_c":37.88,"peak_c":39.08,"dose":101.3},"coolest":{"len_m":1679.1,"mean_c":36.28,"peak_c":37.28,"dose":76.4},"delta_mean_c":-1.6,"delta_dose_pct":-25,"distance_mi":0.743,"status_now":"walk","status_rec":"walk","reason":"Shortest route already under threshold (dose 101).","safe_until_hour":null}},{"type":"Feature","geometry":{"type":"Polygon","coordinates":[[[-81.42845,28.6078],[-81.4241,28.6078],[-81.4241,28.61225],[-81.42845,28.61225],[-81.42845,28.6078]]]},"properties":{"block_id":"FIXTURE-1108","school_id":"sch_rosemont_elementary","kids_est":12,"class":"yellow","shortest":{"len_m":1952.8,"mean_c":37.74,"peak_c":38.94,"dose":128.6},"coolest":{"len_m":2187.5,"mean_c":36.24,"peak_c":37.24,"dose":98.5},"delta_mean_c":-1.5,"delta_dose_pct":-23,"distance_mi":0.971,"status_now":"walk","status_rec":"reroute","reason":"Shortest route exceeds threshold, but coolest route mean 36.2C stays under it (dose 98).","safe_until_hour":null}},{"type":"Feature","geometry":{"type":"Polygon","coordinates":[[[-81.4589,28.61225],[-81.45455,28.61225],[-81.45455,28.6167],[-81.4589,28.6167],[-81.4589,28.61225]]]},"properties":{"block_id":"FIXTURE-0409","school_id":"sch_rosemont_elementary","kids_est":17,"class":"green","shortest":{"len_m":2459.1,"mean_c":35.64,"peak_c":36.84,"dose":90.2},"coolest":{"len_m":3072.1,"mean_c":33.71,"peak_c":34.71,"dose":30.3},"delta_mean_c":-1.93,"delta_dose_pct":-66,"distance_mi":1.222,"status_now":"walk","status_rec":"walk","reason":"Shortest route already under threshold (dose 90).","safe_until_hour":null}},{"type":"Feature","geometry":{"type":"Polygon","coordinates":[[[-81.45455,28.61225],[-81.4502,28.61225],[-81.4502,28.6167],[-81.45455,28.6167],[-81.45455,28.61225]]]},"properties":{"block_id":"FIXTURE-0509","school_id":"sch_rosemont_elementary","kids_est":17,"class":"green","shortest":{"len_m":2058.9,"mean_c":35.86,"peak_c":37.06,"dose":81.8},"coolest":{"len_m":2561.6,"mean_c":33.81,"peak_c":34.81,"dose":28.9},"delta_mean_c":-2.05,"delta_dose_pct":-65,"distance_mi":1.023,"status_now":"walk","status_rec":"walk","reason":"Shortest route already under threshold (dose 82).","safe_until_hour":null}},{"type":"Feature","geometry":{"type":"Polygon","coordinates":[[[-81.4502,28.61225],[-81.44585,28.61225],[-81.44585,28.6167],[-81.4502,28.6167],[-81.4502,28.61225]]]},"properties":{"block_id":"FIXTURE-0609","school_id":"sch_rosemont_elementary","kids_est":19,"class":"green","shortest":{"len_m":1730.8,"mean_c":36.02,"peak_c":37.22,"dose":72.6},"coolest":{"len_m":2155.7,"mean_c":33.85,"peak_c":34.85,"dose":25.3},"delta_mean_c":-2.17,"delta_dose_pct":-65,"distance_mi":0.86,"status_now":"walk","status_rec":"walk","reason":"Shortest route already under threshold (dose 73).","safe_until_hour":null}},{"type":"Feature","geometry":{"type":"Polygon","coordinates":[[[-81.44585,28.61225],[-81.4415,28.61225],[-81.4415,28.6167],[-81.44585,28.6167],[-81.44585,28.61225]]]},"properties":{"block_id":"FIXTURE-0709","school_id":"sch_rosemont_elementary","kids_est":35,"class":"green","shortest":{"len_m":1522.2,"mean_c":37.0,"peak_c":38.2,"dose":84.6},"coolest":{"len_m":1874.6,"mean_c":34.28,"peak_c":35.28,"dose":33.4},"delta_mean_c":-2.72,"delta_dose_pct":-61,"distance_mi":0.757,"status_now":"walk","status_rec":"walk","reason":"Shortest route already under threshold (dose 85).","safe_until_hour":null}},{"type":"Feature","geometry":{"type":"Polygon","coordinates":[[[-81.4415,28.61225],[-81.43715,28.61225],[-81.43715,28.6167],[-81.4415,28.6167],[-81.4415,28.61225]]]},"properties":{"block_id":"FIXTURE-0809","school_id":"sch_rosemont_elementary","kids_est":25,"class":"green","shortest":{"len_m":1484.3,"mean_c":36.97,"peak_c":38.17,"dose":81.8},"coolest":{"len_m":1826.0,"mean_c":34.29,"peak_c":35.29,"dose":32.7},"delta_mean_c":-2.68,"delta_dose_pct":-60,"distance_mi":0.738,"status_now":"walk","status_rec":"walk","reason":"Shortest route already under threshold (dose 82).","safe_until_hour":null}},{"type":"Feature","geometry":{"type":"Polygon","coordinates":[[[-81.43715,28.61225],[-81.4328,28.61225],[-81.4328,28.6167],[-81.43715,28.6167],[-81.43715,28.61225]]]},"properties":{"block_id":"FIXTURE-0909","school_id":"sch_rosemont_elementary","kids_est":33,"class":"green","shortest":{"len_m":1629.2,"mean_c":37.62,"peak_c":38.82,"dose":104.5},"coolest":{"len_m":1830.1,"mean_c":36.1,"peak_c":37.1,"dose":78.9},"delta_mean_c":-1.52,"delta_dose_pct":-24,"distance_mi":0.81,"status_now":"walk","status_rec":"walk","reason":"Shortest route already under threshold (dose 104).","safe_until_hour":null}},{"type":"Feature","geometry":{"type":"Polygon","coordinates":[[[-81.4328,28.61225],[-81.42845,28.61225],[-81.42845,28.6167],[-81.4328,28.6167],[-81.4328,28.61225]]]},"properties":{"block_id":"FIXTURE-1009","school_id":"sch_rosemont_elementary","kids_est":12,"class":"yellow","shortest":{"len_m":1915.7,"mean_c":38.07,"peak_c":39.27,"dose":134.9},"coolest":{"len_m":2140.4,"mean_c":36.52,"peak_c":37.52,"dose":104.6},"delta_mean_c":-1.55,"delta_dose_pct":-22,"distance_mi":0.952,"status_now":"walk","status_rec":"reroute","reason":"Shortest route exceeds threshold, but coolest route mean 36.5C stays under it (dose 105).","safe_until_hour":null}},{"type":"Feature","geometry":{"type":"Polygon","coordinates":[[[-81.42845,28.61225],[-81.4241,28.61225],[-81.4241,28.6167],[-81.42845,28.6167],[-81.42845,28.61225]]]},"properties":{"block_id":"FIXTURE-1109","school_id":"sch_rosemont_elementary","kids_est":7,"class":"red","shortest":{"len_m":2291.4,"mean_c":38.37,"peak_c":39.57,"dose":170.9},"coolest":{"len_m":2523.3,"mean_c":37.04,"peak_c":38.04,"dose":141.7},"delta_mean_c":-1.33,"delta_dose_pct":-17,"distance_mi":1.139,"status_now":"walk","status_rec":"bus_eligible","reason":"Coolest route mean 37.0C exceeds threshold (110 C-min dose, actual 142).","safe_until_hour":"12:00"}}]}