{"type":"FeatureCollection","features":[{"type":"Feature","geometry":{"type":"Polygon","coordinates":[[[-81.4015559999987,28.624548000312682],[-81.40153699973216,28.62451800023021],[-81.40153000005944,28.624457000193775],[-81.40143100032525,28.624407000008226],[-81.40134299956338,28.624308000201378],[-81.40095699977401,28.623966999714018],[-81.40093099983473,28.6239490000391],[-81.40078799971961,28.623852000291926],[-81.4006759995666,28.6237250001461],[-81.40021500033248,28.623334000222666],[-81.40000899956983,28.62309799992513],[-81.39982199997208,28.622783999662307],[-81.3996909995525,28.62260200023028],[-81.39966600033647,28.622492000212596],[-81.39965999959037,28.62239900015793],[-81.39962899962823,28.622343999662867],[-81.39950399995479,28.622222000182408],[-81.39945399972605,28.622140000012394],[-81.39939799964955,28.621974999610853],[-81.3994000001977,28.62187799961702],[-81.39940500022057,28.621660999932168],[-81.39943000033492,28.62147399997121],[-81.39955500000839,28.621199000304834],[-81.3996189995825,28.62110200038259],[-81.39830600040366,28.62061800009805],[-81.39820799959605,28.62059200000005],[-81.3982450003043,28.62148000000463],[-81.39825699999986,28.62175299998047],[-81.39826299984765,28.621887999896884],[-81.39830499968043,28.622572000380273],[-81.39832200029718,28.6228459997434],[-81.39832800014496,28.62294600000053],[-81.39832899996988,28.622978000251972],[-81.39833399999274,28.6230450003032],[-81.39834499986341,28.623226999755886],[-81.39835200043443,28.623373999993266],[-81.3983590001071,28.623506999692797],[-81.39837900019859,28.623918999785452],[-81.39839900029007,28.624330999838275],[-81.39840199976481,28.62441799989335],[-81.39840500013786,28.62450400003109],[-81.39842400040443,28.625697000330952],[-81.3984500003437,28.625698000164906],[-81.39870600043673,28.625703999956983],[-81.39896199963147,28.625712000204793],[-81.399245000387,28.62571100037103],[-81.39952499987118,28.625708999914817],[-81.40150900014305,28.62558199964991],[-81.40147300015805,28.624717999829553],[-81.4014709996099,28.62467600009508],[-81.4015559999987,28.624548000312682]]]},"properties":{"block_id":"120950152043010","school_id":"sch_aspire_academy_charter","kids_est":3,"class":"red","shortest":{"len_m":4687.6,"mean_c":37.6,"peak_c":37.8,"dose":299.7},"coolest":{"len_m":4687.6,"mean_c":37.6,"peak_c":37.8,"dose":299.7},"delta_mean_c":0.0,"delta_dose_pct":0,"distance_mi":1.057,"status_now":"walk","status_rec":"bus_eligible","reason":"Coolest route mean 37.6C exceeds threshold (110 C-min dose, actual 300).","safe_until_hour":"11:00"}},{"type":"Feature","geometry":{"type":"Polygon","coordinates":[[[-81.3980629998311,28.61546499979233],[-81.3980209999983,28.614875999907273],[-81.3980200001734,28.614864999811036],[-81.39661699968455,28.614884000191598],[-81.39598800022092,28.614892999623546],[-81.39596700030452,28.613601999885862],[-81.39419100044512,28.61280500033766],[-81.39420099959254,28.612392000050054],[-81.39417499965326,28.611454999616175],[-81.39399200025349,28.61146000025252],[-81.39152599993275,28.611480999610475],[-81.388001999803,28.61151700007736],[-81.3870539995988,28.611525999797824],[-81.38671200019037,28.611524999828912],[-81.38670499961937,28.613488000102492],[-81.38669100027398,28.614321000282384],[-81.38671700021324,28.61834799980013],[-81.38715599970608,28.618357999627616],[-81.38853200043073,28.618388999796704],[-81.38867600037076,28.618395000006426],[-81.38903000037311,28.618403000022653],[-81.39142600037364,28.61844000038561],[-81.39189699965351,28.61845599962204],[-81.39222999973944,28.618462999730788],[-81.39239299994607,28.618466000227897],[-81.39288199966761,28.618493999868807],[-81.3929369999192,28.61849800026755],[-81.39304599969914,28.61850000007259],[-81.39320700025593,28.618501999877516],[-81.39341899996803,28.618505000373503],[-81.39369299960443,28.618514000283735],[-81.39385499998613,28.61851999969773],[-81.39393100015411,28.61852100038862],[-81.39415899975975,28.618524000095483],[-81.39423499992773,28.618524999997756],[-81.39423199955468,28.61826900026162],[-81.39422499988198,28.617500999674302],[-81.39422300023217,28.617245999721945],[-81.39421800020929,28.617063000237298],[-81.3942039999656,28.6165049997883],[-81.3942049997905,28.61633099989831],[-81.39420200031577,28.616175999866766],[-81.39419800011781,28.615965999713488],[-81.39419499974476,28.615713999763848],[-81.39419300009493,28.615560000329367],[-81.39471500032676,28.615557999679762],[-81.39485099987088,28.615555999818707],[-81.39682799957176,28.615535999629067],[-81.39729700010011,28.61553199990609],[-81.39736099967423,28.615539000209747],[-81.39742099994866,28.61556100025987],[-81.39747299982723,28.615595000256505],[-81.39768399971442,28.61554800037418],[-81.3980629998311,28.61546499979233]],[[-81.39373000031266,28.614409999839964],[-81.39373500033554,28.61454800034277],[-81.39316200005008,28.614552000103213],[-81.39270599994052,28.614555999863516],[-81.39266099973466,28.614542999853427],[-81.39262200027493,28.61451899970932],[-81.39259299996259,28.61448400021214],[-81.392577999894,28.614444000209247],[-81.3925710002213,28.614015000147155],[-81.39258000044214,28.613966999612074],[-81.39260600038139,28.613925000308793],[-81.39264499984115,28.613892999664248],[-81.39269300042004,28.613872999946476],[-81.39274799977332,28.61386700026695],[-81.39312900043812,28.61386700026695],[-81.39314399960843,28.613866000320392],[-81.39371699989387,28.613858999905162],[-81.393719000442,28.61399599960939],[-81.39372399956656,28.614226000201857],[-81.39373000031266,28.614409999839964]],[[-81.39370100000033,28.612869999870338],[-81.3937050001983,28.613115999824174],[-81.39323400002012,28.61312200033517],[-81.39267900017634,28.613129999964478],[-81.39263399997049,28.61311799973164],[-81.39259299996259,28.61308700037245],[-81.39256899967316,28.6130519996095],[-81.39256000035063,28.613010999895092],[-81.3925500003049,28.612497999768994],[-81.39254699993184,28.612335999872677],[-81.39254600010695,28.61218200021665],[-81.39254100008407,28.611865999713686],[-81.39276399966683,28.61186399978233],[-81.39343499986157,28.61185999991956],[-81.39354700001456,28.61185999991956],[-81.39359100039549,28.611866999679354],[-81.39362999985522,28.611883999882647],[-81.39364999994672,28.61190000011794],[-81.39367300041125,28.61192799993227],[-81.39368699975664,28.611965000210613],[-81.3936909999546,28.612133999632498],[-81.39369400032764,28.612203000218884],[-81.39369699980237,28.612506000234458],[-81.39370100000033,28.612811000077844],[-81.39370100000033,28.612869999870338]]]},"properties":{"block_id":"120950152023000","school_id":"sch_aspire_academy_charter","kids_est":7,"class":"red","shortest":{"len_m":4068.1,"mean_c":37.59,"peak_c":37.7,"dose":259.7},"coolest":{"len_m":4068.1,"mean_c":37.59,"peak_c":37.7,"dose":259.7},"delta_mean_c":0.0,"delta_dose_pct":0,"distance_mi":0.45,"status_now":"walk","status_rec":"bus_eligible","reason":"Coolest route mean 37.6C exceeds threshold (110 C-min dose, actual 260).","safe_until_hour":"11:00"}},{"type":"Feature","geometry":{"type":"Polygon","coordinates":[[[-81.3937050001983,28.613115999824174],[-81.39370100000033,28.612869999870338],[-81.39370100000033,28.612811000077844],[-81.39369699980237,28.612506000234458],[-81.39369400032764,28.612203000218884],[-81.3936909999546,28.612133999632498],[-81.39368699975664,28.611965000210613],[-81.39367300041125,28.61192799993227],[-81.39364999994672,28.61190000011794],[-81.39362999985522,28.611883999882647],[-81.39359100039549,28.611866999679354],[-81.39354700001456,28.61185999991956],[-81.39343499986157,28.61185999991956],[-81.39276399966683,28.61186399978233],[-81.39254100008407,28.611865999713686],[-81.39254600010695,28.61218200021665],[-81.39254699993184,28.612335999872677],[-81.3925500003049,28.612497999768994],[-81.39256000035063,28.613010999895092],[-81.39256899967316,28.6130519996095],[-81.39259299996259,28.61308700037245],[-81.39263399997049,28.61311799973164],[-81.39267900017634,28.613129999964478],[-81.39323400002012,28.61312200033517],[-81.3937050001983,28.613115999824174]]]},"properties":{"block_id":"120950152023003","school_id":"sch_aspire_academy_charter","kids_est":3,"class":"red","shortest":{"len_m":4473.7,"mean_c":37.58,"peak_c":37.7,"dose":284.8},"coolest":{"len_m":4473.7,"mean_c":37.58,"peak_c":37.7,"dose":284.8},"delta_mean_c":0.0,"delta_dose_pct":0,"distance_mi":0.274,"status_now":"walk","status_rec":"bus_eligible","reason":"Coolest route mean 37.6C exceeds threshold (110 C-min dose, actual 285).","safe_until_hour":"11:00"}},{"type":"Feature","geometry":{"type":"Polygon","coordinates":[[[-81.39847600028298,28.627504000146285],[-81.39847499955975,28.627431999911273],[-81.39843500027509,28.625907999778764],[-81.39842400040443,28.625697000330952],[-81.39840500013786,28.62450400003109],[-81.39840199976481,28.62441799989335],[-81.39839900029007,28.624330999838275],[-81.39837900019859,28.623918999785452],[-81.3983590001071,28.623506999692797],[-81.39835200043443,28.623373999993266],[-81.39834499986341,28.623226999755886],[-81.39833399999274,28.6230450003032],[-81.39832899996988,28.622978000251972],[-81.39832800014496,28.62294600000053],[-81.39832200029718,28.6228459997434],[-81.39830499968043,28.622572000380273],[-81.39826299984765,28.621887999896884],[-81.39825699999986,28.62175299998047],[-81.3982450003043,28.62148000000463],[-81.39764600007958,28.62150599988273],[-81.39755099964502,28.621518999819347],[-81.39736200039744,28.62155499999937],[-81.39717800027442,28.62160699971199],[-81.3967749998683,28.621764000143738],[-81.39657400002685,28.621863999854334],[-81.39640300032264,28.621929999958155],[-81.39629199999453,28.621963000388792],[-81.3962259998723,28.6219830001429],[-81.39609500035105,28.6220130001612],[-81.39596499975639,28.62203299990583],[-81.39583300041022,28.622044000039697],[-81.39509600009325,28.622056000041106],[-81.39492600021394,28.62206999977813],[-81.3945420000744,28.62213699962032],[-81.39438600043877,28.622169999985832],[-81.39427799958543,28.622187000098428],[-81.39406199967536,28.622205000075496],[-81.39384599976529,28.622210000199967],[-81.39309099990497,28.622192000223762],[-81.39267499997837,28.62218899983319],[-81.39198200004233,28.62217400024453],[-81.39142899984836,28.622173000377003],[-81.39094199977664,28.622189999700566],[-81.39084800006532,28.622206999809904],[-81.39075799965363,28.622236999764223],[-81.39067499981297,28.622278999685815],[-81.39060100019312,28.622333000348934],[-81.39052500002512,28.622404000273175],[-81.39045499970493,28.622482999854785],[-81.39039600015371,28.622569000000503],[-81.39035099994786,28.622661000041703],[-81.3903190001608,28.622757000238796],[-81.39029499987136,28.62288499983925],[-81.39029300022155,28.62300100018023],[-81.39030300026728,28.62307699973592],[-81.39033099985637,28.62319299986474],[-81.39035599997074,28.623258999921667],[-81.3904239997428,28.623402999758362],[-81.39044800003224,28.62348700022901],[-81.39045999972781,28.623576999757486],[-81.39045999972781,28.62366699999736],[-81.39044600038243,28.62375600030763],[-81.39040899967418,28.623871999686237],[-81.39035900034378,28.623964000162704],[-81.39030300026728,28.624037000260536],[-81.39023700014504,28.624102999786803],[-81.3901629996269,28.62416200033179],[-81.38876400023432,28.62494399965157],[-81.38854499995121,28.62503900028633],[-81.3884319999733,28.625075999887773],[-81.38820400036765,28.625142000337902],[-81.38797199966575,28.625196000316922],[-81.38773700038743,28.625228999720953],[-81.38751899992924,28.625243999661663],[-81.38721099995766,28.625242999823385],[-81.38723000022424,28.62586700035273],[-81.38725199996553,28.62629900036599],[-81.38726000036145,28.626679999674376],[-81.38728700012562,28.62725099968283],[-81.38731600043796,28.627654999963973],[-81.38735599972262,28.627984000187936],[-81.3873979995554,28.628161999721062],[-81.38743799973838,28.628277999750463],[-81.38751599955619,28.628445999919215],[-81.38760900034092,28.62860899999964],[-81.38768399978566,28.628711999702258],[-81.3877699999994,28.628807999885254],[-81.38786600025888,28.62889699977936],[-81.38797099984085,28.62897699979693],[-81.38802500026752,28.62901000037779],[-81.3881929995987,28.629099999902156],[-81.38837000004902,28.629175999773338],[-81.38855400017205,28.629235999632755],[-81.38874300031793,28.62928400028409],[-81.38893499993856,28.629316999979935],[-81.38912999993221,28.629336000110715],[-81.38951499989669,28.6293419996948],[-81.39003299993055,28.629340000096345],[-81.39059699999515,28.6293379997093],[-81.39187499991222,28.629345999680197],[-81.39197100017167,28.62935699983628],[-81.39211199973867,28.629387000112825],[-81.39224700035619,28.62943499990661],[-81.39253799971102,28.62958100032716],[-81.39287199962185,28.629710999871865],[-81.39300999971412,28.62976099989645],[-81.39319300001223,28.629450000034744],[-81.39325300028668,28.629378000346144],[-81.39332400043179,28.62931299999349],[-81.39338999965572,28.629268000332235],[-81.39347599986945,28.629222999863256],[-81.39356700010603,28.629189000337163],[-81.39366300036552,28.629165000386735],[-81.39376200009971,28.629151999819936],[-81.39442400007363,28.62915100001887],[-81.39509199989529,28.629142000232033],[-81.39525900029989,28.629124999668715],[-81.39542199960819,28.629091999912518],[-81.39558099961684,28.62904499976394],[-81.39571100021149,28.628992999793148],[-81.39583300041022,28.62893000038536],[-81.39594800003796,28.628855000139957],[-81.39605299961994,28.628770000217546],[-81.3961470002296,28.628674999805376],[-81.39622300039757,28.62858400011015],[-81.39629000034472,28.628486999914884],[-81.3963439998731,28.628383999991474],[-81.3963870004291,28.628276999941075],[-81.39641099982025,28.628189999930175],[-81.39641800039124,28.628167000350334],[-81.39644199978237,28.628022999951966],[-81.39645600002608,28.62787900014461],[-81.39646199987385,28.627513999890237],[-81.39847600028298,28.627504000146285]]]},"properties":{"block_id":"120950152031034","school_id":"sch_aspire_academy_charter","kids_est":0,"class":"red","shortest":{"len_m":4986.4,"mean_c":37.54,"peak_c":37.8,"dose":314.7},"coolest":{"len_m":4986.4,"mean_c":37.54,"peak_c":37.8,"dose":314.7},"delta_mean_c":0.0,"delta_dose_pct":0,"distance_mi":1.086,"status_now":"walk","status_rec":"bus_eligible","reason":"Coolest route mean 37.5C exceeds threshold (110 C-min dose, actual 315).","safe_until_hour":"11:00"}},{"type":"Feature","geometry":{"type":"Polygon","coordinates":[[[-81.40054699969518,28.609051000298848],[-81.40055599991601,28.608875999895332],[-81.4005419996723,28.608828000166355],[-81.40051099971018,28.608786000385454],[-81.40046899987738,28.608753999752487],[-81.40041699999884,28.608734999840337],[-81.40036099992234,28.60872999986291],[-81.40007999971495,28.608723999889616],[-81.39941799974103,28.60872199989844],[-81.39895699960859,28.608720999902847],[-81.39895199958573,28.60888999981217],[-81.39893700041543,28.609399000253],[-81.39893300021747,28.609568999847717],[-81.39925100023478,28.60955899997195],[-81.39945100025132,28.609554000033746],[-81.40020699993654,28.609523999610676],[-81.40052599977878,28.609511999754506],[-81.40054699969518,28.609051000298848]]]},"properties":{"block_id":"120950152021019","school_id":"sch_aspire_academy_charter","kids_est":1,"class":"green","shortest":{"len_m":324.7,"mean_c":37.5,"peak_c":37.5,"dose":20.3},"coolest":{"len_m":324.7,"mean_c":37.5,"peak_c":37.5,"dose":20.3},"delta_mean_c":0.0,"delta_dose_pct":0,"distance_mi":0.286,"status_now":"walk","status_rec":"walk","reason":"Shortest route already under threshold (dose 20).","safe_until_hour":null}},{"type":"Feature","geometry":{"type":"Polygon","coordinates":[[[-81.4004360002654,28.61849599967391],[-81.40043000041763,28.61794599979339],[-81.40042399967153,28.617769000196937],[-81.40037400034113,28.617646000221463],[-81.40034900022678,28.61762700034062],[-81.40031599971648,28.617620000176142],[-81.3998799996984,28.617747999730454],[-81.39923399961802,28.617937999742274],[-81.39919900035625,28.61796000007841],[-81.39917400024189,28.61799100036493],[-81.39916400019615,28.618028000084465],[-81.39916500002104,28.61822199999886],[-81.39917699971662,28.618493999868807],[-81.3996050002371,28.61849800026755],[-81.39977099991846,28.61849800026755],[-81.399786999812,28.61849900017008],[-81.3999130002087,28.61849800026755],[-81.40026899986084,28.61849599967391],[-81.4004360002654,28.61849599967391]]]},"properties":{"block_id":"120950152024004","school_id":"sch_aspire_academy_charter","kids_est":2,"class":"red","shortest":{"len_m":4152.5,"mean_c":37.61,"peak_c":37.7,"dose":265.9},"coolest":{"len_m":4152.5,"mean_c":37.61,"peak_c":37.7,"dose":265.9},"delta_mean_c":0.0,"delta_dose_pct":0,"distance_mi":0.7,"status_now":"walk","status_rec":"bus_eligible","reason":"Coolest route mean 37.6C exceeds threshold (110 C-min dose, actual 266).","safe_until_hour":"11:00"}},{"type":"Feature","geometry":{"type":"Polygon","coordinates":[[[-81.40365099970037,28.612470000106544],[-81.40358100027848,28.612353999961115],[-81.40356700003477,28.612326000260346],[-81.40339100030768,28.6119539998095],[-81.40335500032266,28.611874000227274],[-81.4032869996523,28.611722999795013],[-81.40311900032113,28.61177199974493],[-81.40286599970281,28.61186099988529],[-81.40219600023131,28.612098000165773],[-81.40206399998682,28.612141000162687],[-81.4019130003741,28.61217499968925],[-81.40176199986304,28.612197999617916],[-81.40161000042539,28.61221099991826],[-81.40159100015882,28.61221099991826],[-81.40114900029295,28.61221699969233],[-81.40115199976768,28.612492000010924],[-81.40115799961545,28.61292599976299],[-81.4011679996612,28.613315999849263],[-81.40117199985917,28.61346199981637],[-81.4011800002551,28.613496999654068],[-81.40119399960047,28.613531000318964],[-81.40122799993566,28.613577000365964],[-81.40126899994353,28.61361400006341],[-81.40130300027873,28.613632999881673],[-81.40134000008864,28.613646999953126],[-81.40138500029448,28.61365600027969],[-81.40163499964143,28.6136619999712],[-81.40192500006967,28.61365800017685],[-81.40210599981961,28.61365600027969],[-81.40209800032201,28.613207000308638],[-81.40209800032201,28.613174000280747],[-81.40210199962165,28.613129999964478],[-81.40211599986539,28.61308599962984],[-81.40214099997972,28.613045999883145],[-81.40217600013982,28.613011999849842],[-81.4022160003228,28.61298600023451],[-81.40255899955615,28.612859000352618],[-81.40322800010107,28.612618000378074],[-81.40352900039994,28.612510000072607],[-81.40365099970037,28.612470000106544]]]},"properties":{"block_id":"120950152021003","school_id":"sch_aspire_academy_charter","kids_est":2,"class":"green","shortest":{"len_m":900.9,"mean_c":37.5,"peak_c":37.5,"dose":56.1},"coolest":{"len_m":900.9,"mean_c":37.5,"peak_c":37.5,"dose":56.1},"delta_mean_c":0.0,"delta_dose_pct":0,"distance_mi":0.505,"status_now":"walk","status_rec":"walk","reason":"Shortest route already under threshold (dose 56).","safe_until_hour":null}},{"type":"Feature","geometry":{"type":"Polygon","coordinates":[[[-81.4032869996523,28.611722999795013],[-81.4031879999181,28.611502999721996],[-81.40318100024541,28.6114910000919],[-81.40311099992519,28.61136300000917],[-81.40302100041183,28.611228999940256],[-81.40292199977931,28.611109000110133],[-81.4028210003953,28.611006999673535],[-81.4027090002423,28.61091299972469],[-81.40270000002147,28.610905999901284],[-81.40258700004355,28.610829000236183],[-81.40248800030936,28.610766000181396],[-81.40241299996629,28.610905999901284],[-81.40238200000415,28.610953000283697],[-81.4023290003007,28.61102000012122],[-81.40226800020133,28.61108200005055],[-81.4021750003149,28.611157000374067],[-81.40214000015482,28.611186000358597],[-81.40204700026838,28.611244000303664],[-81.40194799963588,28.611293999659583],[-81.4018430000539,28.61133300010276],[-81.40173500009885,28.611362000038717],[-81.40160100020455,28.611381000264345],[-81.40142600030237,28.611392999907014],[-81.40070700042706,28.61139699978762],[-81.40020100008877,28.611399999697912],[-81.40020100008877,28.61155399971184],[-81.40020100008877,28.61156500015486],[-81.40021299978434,28.612059999970462],[-81.4002179998072,28.612226000141444],[-81.40040399958006,28.61222400021693],[-81.40096199979688,28.612217999654646],[-81.40114900029295,28.61221699969233],[-81.40159100015882,28.61221099991826],[-81.40161000042539,28.61221099991826],[-81.40176199986304,28.612197999617916],[-81.4019130003741,28.61217499968925],[-81.40206399998682,28.612141000162687],[-81.40219600023131,28.612098000165773],[-81.40286599970281,28.61186099988529],[-81.40311900032113,28.61177199974493],[-81.4032869996523,28.611722999795013]]]},"properties":{"block_id":"120950152021004","school_id":"sch_aspire_academy_charter","kids_est":2,"class":"green","shortest":{"len_m":900.9,"mean_c":37.5,"peak_c":37.5,"dose":56.1},"coolest":{"len_m":900.9,"mean_c":37.5,"peak_c":37.5,"dose":56.1},"delta_mean_c":0.0,"delta_dose_pct":0,"distance_mi":0.449,"status_now":"walk","status_rec":"walk","reason":"Shortest route already under threshold (dose 56).","safe_until_hour":null}},{"type":"Feature","geometry":{"type":"Polygon","coordinates":[[[-81.40259200006645,28.609866999651814],[-81.40261399980773,28.609476000177747],[-81.40146800013517,28.609486000061413],[-81.40127899998929,28.609490000014638],[-81.40071400009977,28.609505999825878],[-81.40052599977878,28.609511999754506],[-81.40020699993654,28.609523999610676],[-81.39945100025132,28.609554000033746],[-81.39925100023478,28.60955899997195],[-81.39893300021747,28.609568999847717],[-81.39892399999664,28.609760999643726],[-81.39889999970717,28.6103380000607],[-81.39889700023245,28.610416000065207],[-81.39889700023245,28.61053100000668],[-81.39962299978046,28.61052500013632],[-81.40146800013517,28.61050999967022],[-81.4017030003118,28.61052600011475],[-81.401802000046,28.610538999833384],[-81.40187700038909,28.61054899961586],[-81.40199299984171,28.610571999900575],[-81.40216500026916,28.610623000342454],[-81.40227599969893,28.61066400020037],[-81.40243600043082,28.610738000057307],[-81.40248800030936,28.610766000181396],[-81.40253199979196,28.610603000002016],[-81.40255199988347,28.61049300003312],[-81.40256399957903,28.610264999902885],[-81.40259200006645,28.609866999651814]]]},"properties":{"block_id":"120950152021014","school_id":"sch_aspire_academy_charter","kids_est":2,"class":"green","shortest":{"len_m":543.0,"mean_c":37.5,"peak_c":37.5,"dose":34.0},"coolest":{"len_m":543.0,"mean_c":37.5,"peak_c":37.5,"dose":34.0},"delta_mean_c":0.0,"delta_dose_pct":0,"distance_mi":0.359,"status_now":"walk","status_rec":"walk","reason":"Shortest route already under threshold (dose 34).","safe_until_hour":null}},{"type":"Feature","geometry":{"type":"Polygon","coordinates":[[[-81.39888899983654,28.6107069999957],[-81.39889700023245,28.61053100000668],[-81.39849800002428,28.610533999941772],[-81.3973010002981,28.610546999659427],[-81.39690299991481,28.610551000360832],[-81.39657900004973,28.610554000295338],[-81.39644299960727,28.61054399972472],[-81.3963940001018,28.61053299996342],[-81.39631899975873,28.6105170003086],[-81.39622900024534,28.61048700016057],[-81.39601900018307,28.610387999847827],[-81.39589100013656,28.6103479998623],[-81.39576899993783,28.610334000139776],[-81.39566099998278,28.610333000159518],[-81.3956209997998,28.610956000206663],[-81.39561999997491,28.61107900013111],[-81.3957539998692,28.611080000104266],[-81.3958240001894,28.611085999943],[-81.39591799990073,28.611111000055793],[-81.39599499989362,28.61114399994328],[-81.39606400038892,28.611188000302867],[-81.39616599959784,28.611287999832747],[-81.3962099999788,28.61132500033654],[-81.39628299977372,28.611370999772454],[-81.39636399996456,28.611406000306935],[-81.39644199978237,28.61142599970589],[-81.3965279999961,28.611436000192555],[-81.39819400025065,28.611416999976814],[-81.39840699978768,28.61141500003697],[-81.39886399972218,28.61141500003697],[-81.39886600027032,28.61129099974621],[-81.39886799992014,28.61123799968539],[-81.39888899983654,28.6107069999957]]]},"properties":{"block_id":"120950152021016","school_id":"sch_aspire_academy_charter","kids_est":0,"class":"green","shortest":{"len_m":564.4,"mean_c":37.5,"peak_c":37.5,"dose":35.1},"coolest":{"len_m":564.4,"mean_c":37.5,"peak_c":37.5,"dose":35.1},"delta_mean_c":0.0,"delta_dose_pct":0,"distance_mi":0.197,"status_now":"walk","status_rec":"walk","reason":"Shortest route already under threshold (dose 35).","safe_until_hour":null}},{"type":"Feature","geometry":{"type":"Polygon","coordinates":[[[-81.39395299989542,28.609774000245626],[-81.39394299984968,28.609674000063073],[-81.39392899960598,28.60961200009129],[-81.39391899956023,28.609589000385018],[-81.39391299971244,28.609575999760203],[-81.39390600003975,28.609562999922385],[-81.39322899999723,28.609564999897547],[-81.39149900016857,28.60958299967218],[-81.39109999996039,28.60958299967218],[-81.38950599967586,28.60959800027072],[-81.38942100018535,28.609594000321604],[-81.38937199978156,28.61034699988218],[-81.39392000028346,28.610326000297515],[-81.39392500030634,28.61025000018825],[-81.39395299989542,28.609774000245626]]]},"properties":{"block_id":"120950152023007","school_id":"sch_aspire_academy_charter","kids_est":1,"class":"green","shortest":{"len_m":771.5,"mean_c":37.5,"peak_c":37.5,"dose":48.4},"coolest":{"len_m":771.5,"mean_c":37.5,"peak_c":37.5,"dose":48.4},"delta_mean_c":0.0,"delta_dose_pct":0,"distance_mi":0.217,"status_now":"walk","status_rec":"walk","reason":"Shortest route already under threshold (dose 48).","safe_until_hour":null}},{"type":"Feature","geometry":{"type":"Polygon","coordinates":[[[-81.3956209997998,28.610956000206663],[-81.39566099998278,28.610333000159518],[-81.39553899978405,28.610331000199025],[-81.39392000028346,28.610326000297515],[-81.39387699972742,28.611061999797514],[-81.39403400008628,28.611085999943],[-81.3955000003243,28.611076000211654],[-81.39561999997491,28.61107900013111],[-81.3956209997998,28.610956000206663]]]},"properties":{"block_id":"120950152023008","school_id":"sch_aspire_academy_charter","kids_est":2,"class":"green","shortest":{"len_m":346.4,"mean_c":37.5,"peak_c":37.5,"dose":21.6},"coolest":{"len_m":346.4,"mean_c":37.5,"peak_c":37.5,"dose":21.6},"delta_mean_c":0.0,"delta_dose_pct":0,"distance_mi":0.127,"status_now":"walk","status_rec":"walk","reason":"Shortest route already under threshold (dose 22).","safe_until_hour":null}},{"type":"Feature","geometry":{"type":"Polygon","coordinates":[[[-81.3981120002349,28.61739500027338],[-81.39810600038712,28.617202000323125],[-81.39770200015607,28.617205999982502],[-81.39704299965689,28.617209999641666],[-81.39702699976338,28.616874000137432],[-81.39702000009068,28.61676500034665],[-81.3969509995954,28.616763999639023],[-81.39642099986598,28.616769000022604],[-81.39632700015464,28.616718000199345],[-81.39569199994492,28.61672099995771],[-81.39569100012002,28.616674999710604],[-81.39568000024936,28.616312999702888],[-81.39517899993395,28.61632299972416],[-81.3951830001319,28.6165049997883],[-81.39519499982745,28.61705300028643],[-81.39519900002541,28.617235999788495],[-81.39520800024624,28.617952999936133],[-81.39520800024624,28.617972999665458],[-81.39520800024624,28.61801599962269],[-81.39528900043712,28.618013999808515],[-81.39533499956956,28.618013999808515],[-81.39566600000566,28.618013999808515],[-81.39565000011213,28.618527999704444],[-81.39604400029744,28.618530000297472],[-81.39659599976817,28.61853499980845],[-81.39693700025002,28.61853399990627],[-81.39705100005283,28.61853399990627],[-81.39711100032729,28.61853399990627],[-81.39709299988563,28.618160000341582],[-81.39746600015452,28.618157999741555],[-81.39746000030674,28.618028000084465],[-81.39744799971285,28.617795000205344],[-81.39707500034227,28.617802000358154],[-81.3970629997484,28.61758400022409],[-81.39705299970265,28.6173970000994],[-81.39714599958906,28.617396000186403],[-81.3981120002349,28.61739500027338]]]},"properties":{"block_id":"120950152024001","school_id":"sch_aspire_academy_charter","kids_est":0,"class":"red","shortest":{"len_m":3959.0,"mean_c":37.61,"peak_c":37.7,"dose":253.4},"coolest":{"len_m":3959.0,"mean_c":37.61,"peak_c":37.7,"dose":253.4},"delta_mean_c":0.0,"delta_dose_pct":0,"distance_mi":0.599,"status_now":"walk","status_rec":"bus_eligible","reason":"Coolest route mean 37.6C exceeds threshold (110 C-min dose, actual 253).","safe_until_hour":"11:00"}},{"type":"Feature","geometry":{"type":"Polygon","coordinates":[[[-81.3982450003043,28.62148000000463],[-81.39820799959605,28.62059200000005],[-81.39820400029642,28.620477999919107],[-81.39807100022702,28.620294999758503],[-81.39623500009314,28.62030299962999],[-81.39627600010103,28.621677000254945],[-81.39629199999453,28.621963000388792],[-81.39640300032264,28.621929999958155],[-81.39657400002685,28.621863999854334],[-81.3967749998683,28.621764000143738],[-81.39717800027442,28.62160699971199],[-81.39736200039744,28.62155499999937],[-81.39755099964502,28.621518999819347],[-81.39764600007958,28.62150599988273],[-81.3982450003043,28.62148000000463]]]},"properties":{"block_id":"120950152031039","school_id":"sch_aspire_academy_charter","kids_est":0,"class":"red","shortest":{"len_m":4376.1,"mean_c":37.62,"peak_c":37.8,"dose":280.8},"coolest":{"len_m":4376.1,"mean_c":37.62,"peak_c":37.8,"dose":280.8},"delta_mean_c":0.0,"delta_dose_pct":0,"distance_mi":0.842,"status_now":"walk","status_rec":"bus_eligible","reason":"Coolest route mean 37.6C exceeds threshold (110 C-min dose, actual 281).","safe_until_hour":"11:00"}},{"type":"Feature","geometry":{"type":"Polygon","coordinates":[[[-81.39386699968169,28.62151299978814],[-81.39386599985679,28.621446000336306],[-81.39386599985679,28.621250000317463],[-81.39305999994284,28.62123399992963],[-81.39306199959266,28.621444999673294],[-81.39306300031588,28.62158600001309],[-81.39321700030166,28.621588999632404],[-81.39368199973377,28.621599999812833],[-81.39375999955158,28.621602000347277],[-81.39379800008471,28.621592999913222],[-81.39383099969668,28.62157300008478],[-81.39385499998613,28.621546000349777],[-81.39386699968169,28.62151299978814]]]},"properties":{"block_id":"120950152031032","school_id":"sch_aspire_academy_charter","kids_est":2,"class":"red","shortest":{"len_m":3839.8,"mean_c":37.61,"peak_c":37.7,"dose":245.8},"coolest":{"len_m":3841.5,"mean_c":37.6,"peak_c":37.7,"dose":245.6},"delta_mean_c":-0.01,"delta_dose_pct":0,"distance_mi":0.867,"status_now":"walk","status_rec":"bus_eligible","reason":"Coolest route mean 37.6C exceeds threshold (110 C-min dose, actual 246).","safe_until_hour":"11:00"}},{"type":"Feature","geometry":{"type":"Polygon","coordinates":[[[-81.39386599985679,28.62103300012323],[-81.39386599985679,28.620896000136682],[-81.39386500003187,28.62042000034226],[-81.39386500003187,28.620246999728213],[-81.39385400016121,28.61987200006696],[-81.39386400020696,28.619436999949087],[-81.39385699963594,28.61899500032201],[-81.39385400016121,28.61872100037194],[-81.39385499998613,28.61851999969773],[-81.39369299960443,28.618514000283735],[-81.39341899996803,28.618505000373503],[-81.39320700025593,28.618501999877516],[-81.39304599969914,28.61850000007259],[-81.39304200039949,28.618619000230908],[-81.39304400004933,28.61897599989668],[-81.39305400009506,28.62040499971231],[-81.39305800029302,28.62088200024306],[-81.39305900011792,28.621021999883382],[-81.39305999994284,28.62123399992963],[-81.39386599985679,28.621250000317463],[-81.39386599985679,28.62103300012323]]]},"properties":{"block_id":"120950152031037","school_id":"sch_aspire_academy_charter","kids_est":1,"class":"red","shortest":{"len_m":3603.7,"mean_c":37.6,"peak_c":37.7,"dose":230.4},"coolest":{"len_m":3603.7,"mean_c":37.6,"peak_c":37.7,"dose":230.4},"delta_mean_c":0.0,"delta_dose_pct":0,"distance_mi":0.761,"status_now":"walk","status_rec":"bus_eligible","reason":"Coolest route mean 37.6C exceeds threshold (110 C-min dose, actual 230).","safe_until_hour":"11:00"}},{"type":"Feature","geometry":{"type":"Polygon","coordinates":[[[-81.39565000011213,28.618527999704444],[-81.39566600000566,28.618013999808515],[-81.39533499956956,28.618013999808515],[-81.39528900043712,28.618013999808515],[-81.39520800024624,28.61801599962269],[-81.39521499991896,28.61852699980226],[-81.39565000011213,28.618527999704444]]]},"properties":{"block_id":"120950152024000","school_id":"sch_aspire_academy_charter","kids_est":0,"class":"red","shortest":{"len_m":3710.3,"mean_c":37.6,"peak_c":37.7,"dose":237.3},"coolest":{"len_m":3710.3,"mean_c":37.6,"peak_c":37.7,"dose":237.3},"delta_mean_c":0.0,"delta_dose_pct":0,"distance_mi":0.646,"status_now":"walk","status_rec":"bus_eligible","reason":"Coolest route mean 37.6C exceeds threshold (110 C-min dose, actual 237).","safe_until_hour":"11:00"}},{"type":"Feature","geometry":{"type":"Polygon","coordinates":[[[-81.39373500033554,28.61454800034277],[-81.39373000031266,28.614409999839964],[-81.39372399956656,28.614226000201857],[-81.393719000442,28.61399599960939],[-81.39371699989387,28.613858999905162],[-81.39314399960843,28.613866000320392],[-81.39312900043812,28.61386700026695],[-81.39274799977332,28.61386700026695],[-81.39269300042004,28.613872999946476],[-81.39264499984115,28.613892999664248],[-81.39260600038139,28.613925000308793],[-81.39258000044214,28.613966999612074],[-81.3925710002213,28.614015000147155],[-81.392577999894,28.614444000209247],[-81.39259299996259,28.61448400021214],[-81.39262200027493,28.61451899970932],[-81.39266099973466,28.614542999853427],[-81.39270599994052,28.614555999863516],[-81.39316200005008,28.614552000103213],[-81.39373500033554,28.61454800034277]]]},"properties":{"block_id":"120950152023002","school_id":"sch_aspire_academy_charter","kids_est":0,"class":"red","shortest":{"len_m":4068.1,"mean_c":37.59,"peak_c":37.7,"dose":259.7},"coolest":{"len_m":4068.1,"mean_c":37.59,"peak_c":37.7,"dose":259.7},"delta_mean_c":0.0,"delta_dose_pct":0,"distance_mi":0.384,"status_now":"walk","status_rec":"bus_eligible","reason":"Coolest route mean 37.6C exceeds threshold (110 C-min dose, actual 260).","safe_until_hour":"11:00"}},{"type":"Feature","geometry":{"type":"Polygon","coordinates":[[[-81.3981680003114,28.61852100038862],[-81.3981199997325,28.617597999768844],[-81.3981120002349,28.61739500027338],[-81.39714599958906,28.617396000186403],[-81.39705299970265,28.6173970000994],[-81.3970629997484,28.61758400022409],[-81.39707500034227,28.617802000358154],[-81.39744799971285,28.617795000205344],[-81.39746000030674,28.618028000084465],[-81.39746600015452,28.618157999741555],[-81.39709299988563,28.618160000341582],[-81.39711100032729,28.61853399990627],[-81.39771300002673,28.618531000199695],[-81.39809600034138,28.618525999900015],[-81.3981680003114,28.61852100038862]]]},"properties":{"block_id":"120950152024002","school_id":"sch_aspire_academy_charter","kids_est":0,"class":"red","shortest":{"len_m":4089.5,"mean_c":37.61,"peak_c":37.7,"dose":261.8},"coolest":{"len_m":4089.5,"mean_c":37.61,"peak_c":37.7,"dose":261.8},"delta_mean_c":0.0,"delta_dose_pct":0,"distance_mi":0.644,"status_now":"walk","status_rec":"bus_eligible","reason":"Coolest route mean 37.6C exceeds threshold (110 C-min dose, actual 262).","safe_until_hour":"11:00"}},{"type":"Feature","geometry":{"type":"Polygon","coordinates":[[[-81.39568000024936,28.616312999702888],[-81.39566600000566,28.61601300019736],[-81.39566500018074,28.61595800030018],[-81.39561400012713,28.61595900022689],[-81.39553999960896,28.61595900022689],[-81.39547799968467,28.615960000153574],[-81.39542699963107,28.615960000153574],[-81.3953530000112,28.615960000153574],[-81.39529100008694,28.61596100008026],[-81.39522900016264,28.61596100008026],[-81.39516600041345,28.61596100008026],[-81.39510399959087,28.615962000006935],[-81.39505300043555,28.615962000006935],[-81.39497899991738,28.615962000006935],[-81.39491699999311,28.615962999933558],[-81.39487599998522,28.615963999860202],[-81.39479200031964,28.615963999860202],[-81.39473000039537,28.615963999860202],[-81.39466799957276,28.615963999860202],[-81.39460499982357,28.61596499978684],[-81.39452299980783,28.61596499978684],[-81.394304000423,28.615965999713488],[-81.39425900021716,28.615966999640108],[-81.39419800011781,28.615965999713488],[-81.39420200031577,28.616175999866766],[-81.3942049997905,28.61633099989831],[-81.39439899995926,28.616328000128796],[-81.3946340001359,28.616325000359197],[-81.39498399994027,28.61632299972416],[-81.39517899993395,28.61632299972416],[-81.39568000024936,28.616312999702888]]]},"properties":{"block_id":"120950152024005","school_id":"sch_aspire_academy_charter","kids_est":0,"class":"red","shortest":{"len_m":3935.6,"mean_c":37.6,"peak_c":37.7,"dose":251.5},"coolest":{"len_m":3935.6,"mean_c":37.6,"peak_c":37.7,"dose":251.5},"delta_mean_c":0.0,"delta_dose_pct":0,"distance_mi":0.499,"status_now":"walk","status_rec":"bus_eligible","reason":"Coolest route mean 37.6C exceeds threshold (110 C-min dose, actual 252).","safe_until_hour":"11:00"}},{"type":"Feature","geometry":{"type":"Polygon","coordinates":[[[-81.39892399999664,28.609760999643726],[-81.39893300021747,28.609568999847717],[-81.39636800016252,28.609580999697375],[-81.39570700001353,28.609586999621726],[-81.39566099998278,28.610333000159518],[-81.39576899993783,28.610334000139776],[-81.39589100013656,28.6103479998623],[-81.39601900018307,28.610387999847827],[-81.39622900024534,28.61048700016057],[-81.39631899975873,28.6105170003086],[-81.3963940001018,28.61053299996342],[-81.39644299960727,28.61054399972472],[-81.39657900004973,28.610554000295338],[-81.39690299991481,28.610551000360832],[-81.3973010002981,28.610546999659427],[-81.39849800002428,28.610533999941772],[-81.39889700023245,28.61053100000668],[-81.39889700023245,28.610416000065207],[-81.39889999970717,28.6103380000607],[-81.39892399999664,28.609760999643726]]]},"properties":{"block_id":"120950152021017","school_id":"sch_aspire_academy_charter","kids_est":3,"class":"green","shortest":{"len_m":493.1,"mean_c":37.5,"peak_c":37.5,"dose":30.7},"coolest":{"len_m":493.1,"mean_c":37.5,"peak_c":37.5,"dose":30.7},"delta_mean_c":0.0,"delta_dose_pct":0,"distance_mi":0.162,"status_now":"walk","status_rec":"walk","reason":"Shortest route already under threshold (dose 31).","safe_until_hour":null}},{"type":"Feature","geometry":{"type":"Polygon","coordinates":[[[-81.39520800024624,28.617972999665458],[-81.39520800024624,28.617952999936133],[-81.39519900002541,28.617235999788495],[-81.39510000029122,28.61723900032065],[-81.39500300020686,28.61723900032065],[-81.394409000005,28.617241000149658],[-81.39422300023217,28.617245999721945],[-81.39422499988198,28.617500999674302],[-81.39423199955468,28.61826900026162],[-81.39423499992773,28.618524999997756],[-81.39430100004995,28.618525999900015],[-81.39449900041669,28.618530000297472],[-81.39456600036382,28.61853200010189],[-81.39467400031887,28.6185330000041],[-81.39468600001443,28.61853399990627],[-81.39483599980225,28.61853200010189],[-81.39487199978727,28.618531000199695],[-81.39486900031255,28.618420999859843],[-81.39486900031255,28.618406999636296],[-81.39486400028967,28.618086000193976],[-81.39473000039537,28.618087000100424],[-81.39472799984722,28.617977000084046],[-81.39508900042057,28.61797500026906],[-81.39513399972809,28.617969999942904],[-81.39520800024624,28.617972999665458]]]},"properties":{"block_id":"120950152023004","school_id":"sch_aspire_academy_charter","kids_est":1,"class":"red","shortest":{"len_m":3743.3,"mean_c":37.6,"peak_c":37.7,"dose":239.5},"coolest":{"len_m":3743.3,"mean_c":37.6,"peak_c":37.7,"dose":239.5},"delta_mean_c":0.0,"delta_dose_pct":0,"distance_mi":0.615,"status_now":"walk","status_rec":"bus_eligible","reason":"Coolest route mean 37.6C exceeds threshold (110 C-min dose, actual 240).","safe_until_hour":"11:00"}},{"type":"Feature","geometry":{"type":"Polygon","coordinates":[[[-81.39835300025932,28.612389000168093],[-81.3983740001757,28.61230800016711],[-81.39818400020492,28.612258999678613],[-81.39815800026565,28.61225299990689],[-81.39803699989183,28.61223799968756],[-81.39768500043765,28.612233999838992],[-81.39760099987375,28.612233999838992],[-81.39740599988006,28.612236999725447],[-81.39722099993214,28.61223799968756],[-81.3966700002863,28.612243000286647],[-81.39648600016329,28.61224500021078],[-81.39635599956864,28.61224600017283],[-81.39625799965935,28.61224400024871],[-81.39622199967435,28.61224400024871],[-81.39609000032819,28.612229000028115],[-81.3959999999165,28.61220999995588],[-81.39584699975563,28.612160000247414],[-81.39560800027932,28.612054000187378],[-81.39540099969179,28.6119620003164],[-81.39528400041424,28.611912999666533],[-81.39526900034562,28.611908999805586],[-81.39520700042135,28.6118950002911],[-81.39516700023837,28.611890999640888],[-81.39508699987243,28.6118950002911],[-81.39500999987952,28.611913999631692],[-81.39493899973442,28.61194600009062],[-81.39490600012246,28.611967000140037],[-81.39487199978727,28.61199699986537],[-81.39485000004596,28.612018999868816],[-81.39480700038825,28.612080000033465],[-81.3947899997715,28.612111999653187],[-81.3947689998551,28.61218100025405],[-81.39476300000732,28.61225299990689],[-81.39476600038039,28.612288000147515],[-81.39480099964216,28.6124650003069],[-81.39482800030466,28.612525000253143],[-81.394845999848,28.61255399985999],[-81.39489199987877,28.61260500012816],[-81.39494799995525,28.61264799991746],[-81.39500999987952,28.612679000194838],[-81.39598499984788,28.61311799973164],[-81.39638200040623,28.613296999973663],[-81.39664199979892,28.613413999817183],[-81.3967539999519,28.613458999964912],[-81.39680300035572,28.613478999761526],[-81.39693700025002,28.613518000182008],[-81.39707600016719,28.613542999715953],[-81.39716999987851,28.61355000015225],[-81.39767399966867,28.61354600035363],[-81.39796099972385,28.613540999816593],[-81.39836800032793,28.613534000168322],[-81.39836300030505,28.613287999616322],[-81.39834800023647,28.61255099998261],[-81.39834800023647,28.612522000374923],[-81.39835300025932,28.612389000168093]]]},"properties":{"block_id":"120950152021007","school_id":"sch_aspire_academy_charter","kids_est":3,"class":"green","shortest":{"len_m":687.6,"mean_c":37.45,"peak_c":37.5,"dose":42.7},"coolest":{"len_m":687.6,"mean_c":37.45,"peak_c":37.5,"dose":42.7},"delta_mean_c":0.0,"delta_dose_pct":0,"distance_mi":0.286,"status_now":"walk","status_rec":"walk","reason":"Shortest route already under threshold (dose 43).","safe_until_hour":null}},{"type":"Feature","geometry":{"type":"Polygon","coordinates":[[[-81.40024700011952,28.61452600008049],[-81.40024399974648,28.614064999761172],[-81.40024399974648,28.613999000234127],[-81.40022100018025,28.612953000137132],[-81.4002179998072,28.61268599990009],[-81.40021500033248,28.61234600027269],[-81.4002179998072,28.612226000141444],[-81.40003000038455,28.612227000103662],[-81.39946899979466,28.612232999876824],[-81.3992820001969,28.61223599976329],[-81.39922199992246,28.61223499980115],[-81.39913099968587,28.612223000254673],[-81.39908999967798,28.612217999654646],[-81.3989640001796,28.612187999992443],[-81.39884799982865,28.61214599997775],[-81.39870600043673,28.61206899964439],[-81.39857300036735,28.61199799982979],[-81.39853099963624,28.612059000006628],[-81.39840699978768,28.612242000324557],[-81.39839699974193,28.612257999716675],[-81.3983740001757,28.61230800016711],[-81.39835300025932,28.612389000168093],[-81.39834800023647,28.612522000374923],[-81.39834800023647,28.61255099998261],[-81.39836300030505,28.613287999616322],[-81.39836800032793,28.613534000168322],[-81.3983740001757,28.613634999779343],[-81.39838000002351,28.613671000296492],[-81.39839199971908,28.613736000081783],[-81.3984219998563,28.613833999657807],[-81.39846299986418,28.613929000092977],[-81.39851599956762,28.614018999927904],[-81.39853900003216,28.614047999910806],[-81.39862400042098,28.61415800009971],[-81.39872800017804,28.614257000013424],[-81.39874700044462,28.614271999944453],[-81.39881400039177,28.614323000166948],[-81.3989080001031,28.614381999898693],[-81.3990479998452,28.614446000091473],[-81.3991969998081,28.614493999619018],[-81.39936300038777,28.61452400019979],[-81.39950700032782,28.61453400039148],[-81.39953900011487,28.614532999662604],[-81.4000699996692,28.61452700002083],[-81.40024700011952,28.61452600008049]]]},"properties":{"block_id":"120950152021000","school_id":"sch_aspire_academy_charter","kids_est":2,"class":"green","shortest":{"len_m":868.1,"mean_c":37.48,"peak_c":37.5,"dose":54.0},"coolest":{"len_m":868.1,"mean_c":37.48,"peak_c":37.5,"dose":54.0},"delta_mean_c":0.0,"delta_dose_pct":0,"distance_mi":0.401,"status_now":"walk","status_rec":"walk","reason":"Shortest route already under threshold (dose 54).","safe_until_hour":null}},{"type":"Feature","geometry":{"type":"Polygon","coordinates":[[[-81.39903000030182,28.60615699960838],[-81.39904399964723,28.60588000001039],[-81.39834400003849,28.60587099980615],[-81.3982600003729,28.606036000272358],[-81.39824199993124,28.60610500013242],[-81.39823899955819,28.606118999629857],[-81.39817900018205,28.606992000377865],[-81.39815999991548,28.607288000375906],[-81.39800699975461,28.607288000375906],[-81.3975480001703,28.607288000375906],[-81.39739599983433,28.607289000385148],[-81.39738900016164,28.60741299987947],[-81.39737400009302,28.60744500013226],[-81.39734800015374,28.6074710003305],[-81.39731299999364,28.607487999667928],[-81.39727500035882,28.6074949997191],[-81.39663000010334,28.607496999733637],[-81.39642599988886,28.607500999762546],[-81.396380999683,28.607502999776965],[-81.39586099999931,28.607514999862623],[-81.39582900021226,28.607514999862623],[-81.39582300036449,28.607628999819372],[-81.39575800006716,28.608731999853873],[-81.39639699957652,28.60872799987186],[-81.39831700027432,28.60871899991167],[-81.39877000001083,28.60871699992039],[-81.39895699960859,28.608720999902847],[-81.39896500000451,28.60839600004111],[-81.3989929995936,28.607422999959507],[-81.39900299963934,28.60709900003643],[-81.39903000030182,28.60615699960838]]]},"properties":{"block_id":"120950152023016","school_id":"sch_aspire_academy_charter","kids_est":8,"class":"green","shortest":{"len_m":833.7,"mean_c":37.5,"peak_c":37.5,"dose":52.0},"coolest":{"len_m":833.7,"mean_c":37.5,"peak_c":37.5,"dose":52.0},"delta_mean_c":0.0,"delta_dose_pct":0,"distance_mi":0.18,"status_now":"walk","status_rec":"walk","reason":"Shortest route already under threshold (dose 52).","safe_until_hour":null}},{"type":"Feature","geometry":{"type":"Polygon","coordinates":[[[-81.39820400029642,28.620477999919107],[-81.39818699967965,28.62015599982412],[-81.39809600034138,28.618525999900015],[-81.39771300002673,28.618531000199695],[-81.39711100032729,28.61853399990627],[-81.39705100005283,28.61853399990627],[-81.39693700025002,28.61853399990627],[-81.39659599976817,28.61853499980845],[-81.39604400029744,28.618530000297472],[-81.39565000011213,28.618527999704444],[-81.39521499991896,28.61852699980226],[-81.39510699996391,28.618527999704444],[-81.39499800018396,28.618528999606678],[-81.39487199978727,28.618531000199695],[-81.39483599980225,28.61853200010189],[-81.39468600001443,28.61853399990627],[-81.39467400031887,28.6185330000041],[-81.39456600036382,28.61853200010189],[-81.39449900041669,28.618530000297472],[-81.39430100004995,28.618525999900015],[-81.39423499992773,28.618524999997756],[-81.39415899975975,28.618524000095483],[-81.39393100015411,28.61852100038862],[-81.39385499998613,28.61851999969773],[-81.39385400016121,28.61872100037194],[-81.39385699963594,28.61899500032201],[-81.39386400020696,28.619436999949087],[-81.39385400016121,28.61987200006696],[-81.39386500003187,28.620246999728213],[-81.39386500003187,28.62042000034226],[-81.39386599985679,28.620896000136682],[-81.39386599985679,28.62103300012323],[-81.39386599985679,28.621250000317463],[-81.39397200016198,28.621253999822585],[-81.39418499969901,28.62125800011618],[-81.39428500015644,28.621260999744806],[-81.3942960000271,28.621748999705794],[-81.39427799958543,28.622187000098428],[-81.39438600043877,28.622169999985832],[-81.3945420000744,28.62213699962032],[-81.39492600021394,28.62206999977813],[-81.39509600009325,28.622056000041106],[-81.39583300041022,28.622044000039697],[-81.39596499975639,28.62203299990583],[-81.39609500035105,28.6220130001612],[-81.3962259998723,28.6219830001429],[-81.39629199999453,28.621963000388792],[-81.39627600010103,28.621677000254945],[-81.39623500009314,28.62030299962999],[-81.39807100022702,28.620294999758503],[-81.39820400029642,28.620477999919107]]]},"properties":{"block_id":"120950152031038","school_id":"sch_aspire_academy_charter","kids_est":1,"class":"red","shortest":{"len_m":4355.3,"mean_c":37.62,"peak_c":37.8,"dose":279.4},"coolest":{"len_m":4355.3,"mean_c":37.62,"peak_c":37.8,"dose":279.4},"delta_mean_c":0.0,"delta_dose_pct":0,"distance_mi":0.765,"status_now":"walk","status_rec":"bus_eligible","reason":"Coolest route mean 37.6C exceeds threshold (110 C-min dose, actual 279).","safe_until_hour":"11:00"}},{"type":"Feature","geometry":{"type":"Polygon","coordinates":[[[-81.39338299998302,28.60698300026894],[-81.39335899969358,28.60689699997795],[-81.39335000037107,28.606820999753825],[-81.39335500039392,28.606707999723724],[-81.39267900017634,28.60661199983993],[-81.39269000004698,28.606810999616474],[-81.39172500012437,28.60687399967726],[-81.39181899983569,28.607188000192718],[-81.38989099964031,28.607262000132376],[-81.38983799993689,28.60635000013788],[-81.38932400010097,28.60635000013788],[-81.38904500044171,28.60603500025125],[-81.38796199962002,28.6052490003889],[-81.38859099998196,28.60417999981357],[-81.38799299958217,28.603885999817816],[-81.38689200011542,28.603906999901117],[-81.38647399964069,28.60364299967518],[-81.38651100034892,28.604391999943832],[-81.38655200035682,28.6058460000236],[-81.3865940001896,28.605856000252793],[-81.3868760002219,28.605959000192236],[-81.3869740001312,28.60601599984728],[-81.38739300043085,28.60626200007938],[-81.3874670000507,28.606306000117847],[-81.38765899967132,28.6064900002225],[-81.38812400000172,28.60693499967499],[-81.38866799997484,28.60753500000233],[-81.38872400005135,28.60757400026386],[-81.3891280002824,28.60785400013888],[-81.38984100030991,28.608183000103143],[-81.3903479995748,28.608314000116103],[-81.39099200000537,28.608315000115574],[-81.39137100012205,28.60825800013054],[-81.3917269997742,28.60819200010925],[-81.39232799964873,28.60791100034313],[-81.39261899990187,28.60773200038649],[-81.39322899999723,28.607122000287873],[-81.39338299998302,28.60698300026894]],[[-81.38827200013972,28.60420299991535],[-81.38832800021622,28.60428099974297],[-81.38809300003959,28.60475099992557],[-81.38778599989293,28.60527600037033],[-81.38759199972417,28.6051989997332],[-81.38733399998131,28.605096999867477],[-81.38720299956172,28.605032000257065],[-81.38711800007124,28.604928000165817],[-81.38709600032995,28.604867999823696],[-81.38697099975815,28.604333000121684],[-81.3869530002148,28.60408600006533],[-81.38721599998051,28.60404700008637],[-81.38772399996864,28.60400199985003],[-81.38827200013972,28.60420299991535]],[[-81.38769700020445,28.605877999965077],[-81.38764600015084,28.60595800017032],[-81.38748399976915,28.606151000276807],[-81.38743299971551,28.60611500033697],[-81.38738000001206,28.60608099963761],[-81.38733900000419,28.60605599990502],[-81.38728200010277,28.60602199997524],[-81.38715200040643,28.605946999928836],[-81.3870949996067,28.60559999960619],[-81.38714700038355,28.605508000392085],[-81.38769700020445,28.605877999965077]]]},"properties":{"block_id":"120950153001002","school_id":"sch_aspire_academy_charter","kids_est":12,"class":"green","shortest":{"len_m":1091.6,"mean_c":37.54,"peak_c":37.6,"dose":68.8},"coolest":{"len_m":1091.6,"mean_c":37.54,"peak_c":37.6,"dose":68.8},"delta_mean_c":0.0,"delta_dose_pct":0,"distance_mi":0.372,"status_now":"walk","status_rec":"walk","reason":"Shortest route already under threshold (dose 69).","safe_until_hour":null}},{"type":"Feature","geometry":{"type":"Polygon","coordinates":[[[-81.39742199977358,28.60685100016019],[-81.3974290003446,28.60674200022015],[-81.39653399984388,28.606756999647025],[-81.39648299979025,28.606763999746846],[-81.39643500010968,28.606780999987414],[-81.39636599961439,28.60683099989021],[-81.39632999962939,28.606847000106487],[-81.39631700010891,28.606854000200315],[-81.39626299968224,28.60686400033357],[-81.39512500040559,28.606867000373363],[-81.39508600004751,28.606869999624433],[-81.3950500000625,28.606883999808602],[-81.39501999992528,28.606907000107093],[-81.3949990000089,28.60693599968759],[-81.39498800013823,28.606969000097962],[-81.39496700022184,28.607437000069993],[-81.39497300006961,28.6074650002853],[-81.39498800013823,28.607488999675272],[-81.39502499994813,28.607514999862623],[-81.39505500008538,28.607521999911935],[-81.39582900021226,28.607514999862623],[-81.39586099999931,28.607514999862623],[-81.396380999683,28.607502999776965],[-81.39642599988886,28.607500999762546],[-81.39663000010334,28.607496999733637],[-81.39727500035882,28.6074949997191],[-81.39731299999364,28.607487999667928],[-81.39734800015374,28.6074710003305],[-81.39737400009302,28.60744500013226],[-81.39738900016164,28.60741299987947],[-81.39739599983433,28.607289000385148],[-81.3974019996821,28.607179000100597],[-81.39741199972785,28.607027000005445],[-81.39742199977358,28.60685100016019]]]},"properties":{"block_id":"120950152023015","school_id":"sch_aspire_academy_charter","kids_est":13,"class":"green","shortest":{"len_m":124.5,"mean_c":37.5,"peak_c":37.5,"dose":7.8},"coolest":{"len_m":124.5,"mean_c":37.5,"peak_c":37.5,"dose":7.8},"delta_mean_c":0.0,"delta_dose_pct":0,"distance_mi":0.139,"status_now":"walk","status_rec":"walk","reason":"Shortest route already under threshold (dose 8).","safe_until_hour":null}},{"type":"Feature","geometry":{"type":"Polygon","coordinates":[[[-81.39344200043257,28.60711600022279],[-81.39338999965572,28.607006999769027],[-81.39338299998302,28.60698300026894],[-81.39322899999723,28.607122000287873],[-81.39261899990187,28.60773200038649],[-81.39232799964873,28.60791100034313],[-81.3917269997742,28.60819200010925],[-81.39137100012205,28.60825800013054],[-81.39099200000537,28.608315000115574],[-81.3903479995748,28.608314000116103],[-81.38984100030991,28.608183000103143],[-81.3891280002824,28.60785400013888],[-81.38872400005135,28.60757400026386],[-81.38862600014205,28.607665000029076],[-81.38883000035656,28.607826000027256],[-81.38935500006312,28.608129000050262],[-81.38954199966088,28.608224000124743],[-81.38982299986826,28.60833800010078],[-81.39040899967418,28.608442999969267],[-81.39081299990522,28.60844999995675],[-81.39121100028848,28.60842899999286],[-81.39185900001867,28.608276000129184],[-81.39223599958724,28.60813600005866],[-81.39235799978596,28.608062999947915],[-81.39256100017555,28.607933999628116],[-81.39268599984902,28.60785400013888],[-81.3929160000028,28.60767600009068],[-81.39304599969914,28.607568000224536],[-81.39320899990575,28.60737900038886],[-81.39344200043257,28.60711600022279]]]},"properties":{"block_id":"120950153001000","school_id":"sch_aspire_academy_charter","kids_est":0,"class":"green","shortest":{"len_m":884.4,"mean_c":37.51,"peak_c":37.6,"dose":55.4},"coolest":{"len_m":884.4,"mean_c":37.51,"peak_c":37.6,"dose":55.4},"delta_mean_c":0.0,"delta_dose_pct":0,"distance_mi":0.264,"status_now":"walk","status_rec":"walk","reason":"Shortest route already under threshold (dose 55).","safe_until_hour":null}},{"type":"Feature","geometry":{"type":"Polygon","coordinates":[[[-81.40248800030936,28.610766000181396],[-81.40243600043082,28.610738000057307],[-81.40227599969893,28.61066400020037],[-81.40216500026916,28.610623000342454],[-81.40199299984171,28.610571999900575],[-81.40187700038909,28.61054899961586],[-81.401802000046,28.610538999833384],[-81.4017030003118,28.61052600011475],[-81.40146800013517,28.61050999967022],[-81.39962299978046,28.61052500013632],[-81.39889700023245,28.61053100000668],[-81.39888899983654,28.6107069999957],[-81.39886799992014,28.61123799968539],[-81.39886600027032,28.61129099974621],[-81.39886399972218,28.61141500003697],[-81.39913099968587,28.61141100015705],[-81.39993300030017,28.6114019996381],[-81.40020100008877,28.611399999697912],[-81.40070700042706,28.61139699978762],[-81.40142600030237,28.611392999907014],[-81.40160100020455,28.611381000264345],[-81.40173500009885,28.611362000038717],[-81.4018430000539,28.61133300010276],[-81.40194799963588,28.611293999659583],[-81.40204700026838,28.611244000303664],[-81.40214000015482,28.611186000358597],[-81.4021750003149,28.611157000374067],[-81.40226800020133,28.61108200005055],[-81.4023290003007,28.61102000012122],[-81.40238200000415,28.610953000283697],[-81.40241299996629,28.610905999901284],[-81.40248800030936,28.610766000181396]]]},"properties":{"block_id":"120950152021015","school_id":"sch_aspire_academy_charter","kids_est":0,"class":"green","shortest":{"len_m":719.2,"mean_c":37.5,"peak_c":37.5,"dose":44.8},"coolest":{"len_m":719.2,"mean_c":37.5,"peak_c":37.5,"dose":44.8},"delta_mean_c":0.0,"delta_dose_pct":0,"distance_mi":0.364,"status_now":"walk","status_rec":"walk","reason":"Shortest route already under threshold (dose 45).","safe_until_hour":null}},{"type":"Feature","geometry":{"type":"Polygon","coordinates":[[[-81.39387699972742,28.611061999797514],[-81.39392000028346,28.610326000297515],[-81.38937199978156,28.61034699988218],[-81.38932300027606,28.611097999619368],[-81.3930640001408,28.611065999690716],[-81.3937820001912,28.61105699993085],[-81.39387699972742,28.611061999797514]]]},"properties":{"block_id":"120950152023009","school_id":"sch_aspire_academy_charter","kids_est":3,"class":"red","shortest":{"len_m":4473.7,"mean_c":37.58,"peak_c":37.7,"dose":284.8},"coolest":{"len_m":4473.7,"mean_c":37.58,"peak_c":37.7,"dose":284.8},"delta_mean_c":0.0,"delta_dose_pct":0,"distance_mi":0.243,"status_now":"walk","status_rec":"bus_eligible","reason":"Coolest route mean 37.6C exceeds threshold (110 C-min dose, actual 285).","safe_until_hour":"11:00"}},{"type":"Feature","geometry":{"type":"Polygon","coordinates":[[[-81.39895199958573,28.60888999981217],[-81.39895699960859,28.608720999902847],[-81.39877000001083,28.60871699992039],[-81.39831700027432,28.60871899991167],[-81.39639699957652,28.60872799987186],[-81.39575800006716,28.608731999853873],[-81.39570700001353,28.609586999621726],[-81.39636800016252,28.609580999697375],[-81.39893300021747,28.609568999847717],[-81.39893700041543,28.609399000253],[-81.39895199958573,28.60888999981217]]]},"properties":{"block_id":"120950152021018","school_id":"sch_aspire_academy_charter","kids_est":2,"class":"green","shortest":{"len_m":299.2,"mean_c":37.5,"peak_c":37.5,"dose":18.7},"coolest":{"len_m":299.2,"mean_c":37.5,"peak_c":37.5,"dose":18.7},"delta_mean_c":0.0,"delta_dose_pct":0,"distance_mi":0.141,"status_now":"walk","status_rec":"walk","reason":"Shortest route already under threshold (dose 19).","safe_until_hour":null}},{"type":"Feature","geometry":{"type":"Polygon","coordinates":[[[-81.40542200043524,28.614273999829962],[-81.40553399968991,28.61418500015713],[-81.40533899969624,28.614016000092352],[-81.40475600026336,28.61350999979363],[-81.40456200009461,28.61334200017153],[-81.40445999998735,28.613426000016208],[-81.40429900032888,28.613577000365964],[-81.40424400007728,28.61361000026723],[-81.4041810003281,28.613629000086217],[-81.4041520000158,28.613629000086217],[-81.40379200016568,28.613642000209435],[-81.40261700018078,28.61365099974782],[-81.40210599981961,28.61365600027969],[-81.40192500006967,28.61365800017685],[-81.40163499964143,28.6136619999712],[-81.40138500029448,28.61365600027969],[-81.40134000008864,28.613646999953126],[-81.40130300027873,28.613632999881673],[-81.40126899994353,28.61361400006341],[-81.40122799993566,28.613577000365964],[-81.40119399960047,28.613531000318964],[-81.4011800002551,28.613496999654068],[-81.40117199985917,28.61346199981637],[-81.4011679996612,28.613315999849263],[-81.40115799961545,28.61292599976299],[-81.40115199976768,28.612492000010924],[-81.40114900029295,28.61221699969233],[-81.40096199979688,28.612217999654646],[-81.40040399958006,28.61222400021693],[-81.4002179998072,28.612226000141444],[-81.40021500033248,28.61234600027269],[-81.4002179998072,28.61268599990009],[-81.40022100018025,28.612953000137132],[-81.40024399974648,28.613999000234127],[-81.40024399974648,28.614064999761172],[-81.40024700011952,28.61452600008049],[-81.4004289996944,28.61452400019979],[-81.40097600004057,28.614517999768903],[-81.4011590003387,28.614516999828478],[-81.40205399994109,28.614506999635175],[-81.40474000036986,28.61447999966054],[-81.40512799980905,28.614476999838153],[-81.40518399988554,28.614464999759218],[-81.40525099983269,28.61443200012659],[-81.40542200043524,28.614273999829962]]]},"properties":{"block_id":"120950152021001","school_id":"sch_aspire_academy_charter","kids_est":0,"class":"green","shortest":{"len_m":1138.7,"mean_c":37.5,"peak_c":37.5,"dose":70.9},"coolest":{"len_m":1138.7,"mean_c":37.5,"peak_c":37.5,"dose":70.9},"delta_mean_c":0.0,"delta_dose_pct":0,"distance_mi":0.556,"status_now":"walk","status_rec":"walk","reason":"Shortest route already under threshold (dose 71).","safe_until_hour":null}},{"type":"Feature","geometry":{"type":"Polygon","coordinates":[[[-81.4002179998072,28.612226000141444],[-81.40021299978434,28.612059999970462],[-81.40020100008877,28.61156500015486],[-81.40020100008877,28.61155399971184],[-81.40020100008877,28.611399999697912],[-81.39993300030017,28.6114019996381],[-81.39913099968587,28.61141100015705],[-81.39886399972218,28.61141500003697],[-81.39886000042254,28.611511000263246],[-81.39885500039965,28.6115299996733],[-81.39884700000374,28.611544999993782],[-81.39879099992723,28.6116580003412],[-81.39864600016227,28.611887999744575],[-81.39863699994146,28.611903999979173],[-81.39857300036735,28.61199799982979],[-81.39870600043673,28.61206899964439],[-81.39884799982865,28.61214599997775],[-81.3989640001796,28.612187999992443],[-81.39908999967798,28.612217999654646],[-81.39913099968587,28.612223000254673],[-81.39922199992246,28.61223499980115],[-81.3992820001969,28.61223599976329],[-81.39946899979466,28.612232999876824],[-81.40003000038455,28.612227000103662],[-81.4002179998072,28.612226000141444]]]},"properties":{"block_id":"120950152021005","school_id":"sch_aspire_academy_charter","kids_est":1,"class":"green","shortest":{"len_m":718.2,"mean_c":37.5,"peak_c":37.5,"dose":44.7},"coolest":{"len_m":718.2,"mean_c":37.5,"peak_c":37.5,"dose":44.7},"delta_mean_c":0.0,"delta_dose_pct":0,"distance_mi":0.338,"status_now":"walk","status_rec":"walk","reason":"Shortest route already under threshold (dose 45).","safe_until_hour":null}},{"type":"Feature","geometry":{"type":"Polygon","coordinates":[[[-81.39886000042254,28.611511000263246],[-81.39886399972218,28.61141500003697],[-81.39840699978768,28.61141500003697],[-81.39819400025065,28.611416999976814],[-81.3965279999961,28.611436000192555],[-81.39644199978237,28.61142599970589],[-81.39636399996456,28.611406000306935],[-81.39628299977372,28.611370999772454],[-81.3962099999788,28.61132500033654],[-81.39616599959784,28.611287999832747],[-81.39606400038892,28.611188000302867],[-81.39599499989362,28.61114399994328],[-81.39591799990073,28.611111000055793],[-81.3958240001894,28.611085999943],[-81.3957539998692,28.611080000104266],[-81.39561999997491,28.61107900013111],[-81.39560999992915,28.61118099970921],[-81.39560499990628,28.611262999762065],[-81.39559099966259,28.611505999629326],[-81.3955849998148,28.611555999649106],[-81.39555999970044,28.6116549996496],[-81.3955210002407,28.61175099965658],[-81.39549199992838,28.61180000038208],[-81.39540099969179,28.6119620003164],[-81.39560800027932,28.612054000187378],[-81.39584699975563,28.612160000247414],[-81.3959999999165,28.61220999995588],[-81.39609000032819,28.612229000028115],[-81.39622199967435,28.61224400024871],[-81.39625799965935,28.61224400024871],[-81.39635599956864,28.61224600017283],[-81.39648600016329,28.61224500021078],[-81.3966700002863,28.612243000286647],[-81.39722099993214,28.61223799968756],[-81.39740599988006,28.612236999725447],[-81.39760099987375,28.612233999838992],[-81.39768500043765,28.612233999838992],[-81.39803699989183,28.61223799968756],[-81.39815800026565,28.61225299990689],[-81.39818400020492,28.612258999678613],[-81.3983740001757,28.61230800016711],[-81.39839699974193,28.612257999716675],[-81.39840699978768,28.612242000324557],[-81.39853099963624,28.612059000006628],[-81.39857300036735,28.61199799982979],[-81.39863699994146,28.611903999979173],[-81.39864600016227,28.611887999744575],[-81.39879099992723,28.6116580003412],[-81.39884700000374,28.611544999993782],[-81.39885500039965,28.6115299996733],[-81.39886000042254,28.611511000263246]]]},"properties":{"block_id":"120950152021006","school_id":"sch_aspire_academy_charter","kids_est":1,"class":"green","shortest":{"len_m":564.4,"mean_c":37.5,"peak_c":37.5,"dose":35.1},"coolest":{"len_m":564.4,"mean_c":37.5,"peak_c":37.5,"dose":35.1},"delta_mean_c":0.0,"delta_dose_pct":0,"distance_mi":0.234,"status_now":"walk","status_rec":"walk","reason":"Shortest route already under threshold (dose 35).","safe_until_hour":null}},{"type":"Feature","geometry":{"type":"Polygon","coordinates":[[[-81.39566099998278,28.610333000159518],[-81.39570700001353,28.609586999621726],[-81.39442400007363,28.609584999646973],[-81.39407599991907,28.609584999646973],[-81.39390600003975,28.609562999922385],[-81.39391299971244,28.609575999760203],[-81.39391899956023,28.609589000385018],[-81.39392899960598,28.60961200009129],[-81.39394299984968,28.609674000063073],[-81.39395299989542,28.609774000245626],[-81.39392500030634,28.61025000018825],[-81.39392000028346,28.610326000297515],[-81.39553899978405,28.610331000199025],[-81.39566099998278,28.610333000159518]]]},"properties":{"block_id":"120950152023013","school_id":"sch_aspire_academy_charter","kids_est":3,"class":"green","shortest":{"len_m":178.2,"mean_c":37.5,"peak_c":37.5,"dose":11.1},"coolest":{"len_m":178.2,"mean_c":37.5,"peak_c":37.5,"dose":11.1},"delta_mean_c":0.0,"delta_dose_pct":0,"distance_mi":0.075,"status_now":"walk","status_rec":"walk","reason":"Shortest route already under threshold (dose 11).","safe_until_hour":null}},{"type":"Feature","geometry":{"type":"Polygon","coordinates":[[[-81.39519900002541,28.617235999788495],[-81.39519499982745,28.61705300028643],[-81.3951830001319,28.6165049997883],[-81.39517899993395,28.61632299972416],[-81.39498399994027,28.61632299972416],[-81.3946340001359,28.616325000359197],[-81.39439899995926,28.616328000128796],[-81.3942049997905,28.61633099989831],[-81.3942039999656,28.6165049997883],[-81.39421800020929,28.617063000237298],[-81.39422300023217,28.617245999721945],[-81.394409000005,28.617241000149658],[-81.39500300020686,28.61723900032065],[-81.39510000029122,28.61723900032065],[-81.39519900002541,28.617235999788495]]]},"properties":{"block_id":"120950152023001","school_id":"sch_aspire_academy_charter","kids_est":2,"class":"red","shortest":{"len_m":3824.0,"mean_c":37.6,"peak_c":37.7,"dose":244.6},"coolest":{"len_m":3824.0,"mean_c":37.6,"peak_c":37.7,"dose":244.6},"delta_mean_c":0.0,"delta_dose_pct":0,"distance_mi":0.543,"status_now":"walk","status_rec":"bus_eligible","reason":"Coolest route mean 37.6C exceeds threshold (110 C-min dose, actual 245).","safe_until_hour":"11:00"}},{"type":"Feature","geometry":{"type":"Polygon","coordinates":[[[-81.39521499991896,28.61852699980226],[-81.39520800024624,28.61801599962269],[-81.39520800024624,28.617972999665458],[-81.39513399972809,28.617969999942904],[-81.39508900042057,28.61797500026906],[-81.39472799984722,28.617977000084046],[-81.39473000039537,28.618087000100424],[-81.39486400028967,28.618086000193976],[-81.39486900031255,28.618406999636296],[-81.39486900031255,28.618420999859843],[-81.39487199978727,28.618531000199695],[-81.39499800018396,28.618528999606678],[-81.39510699996391,28.618527999704444],[-81.39521499991896,28.61852699980226]]]},"properties":{"block_id":"120950152023005","school_id":"sch_aspire_academy_charter","kids_est":0,"class":"red","shortest":{"len_m":3710.3,"mean_c":37.6,"peak_c":37.7,"dose":237.3},"coolest":{"len_m":3710.3,"mean_c":37.6,"peak_c":37.7,"dose":237.3},"delta_mean_c":0.0,"delta_dose_pct":0,"distance_mi":0.643,"status_now":"walk","status_rec":"bus_eligible","reason":"Coolest route mean 37.6C exceeds threshold (110 C-min dose, actual 237).","safe_until_hour":"11:00"}},{"type":"Feature","geometry":{"type":"Polygon","coordinates":[[[-81.39390600003975,28.609562999922385],[-81.39374600020619,28.609237000308998],[-81.39355799988522,28.608890999806157],[-81.39350199980872,28.60877099967103],[-81.39347599986945,28.608677000087173],[-81.39346400017386,28.608578999642855],[-81.39347500004453,28.608415000014574],[-81.39349400031111,28.608115000032],[-81.39348799956501,28.608042999908665],[-81.39346800037183,28.607971999738783],[-81.39343599968649,28.607906000326416],[-81.39339100037894,28.60784500010382],[-81.3933100001881,28.607767999772225],[-81.39304599969914,28.607568000224536],[-81.3929160000028,28.60767600009068],[-81.39268599984902,28.60785400013888],[-81.39256100017555,28.607933999628116],[-81.39235799978596,28.608062999947915],[-81.39223599958724,28.60813600005866],[-81.39185900001867,28.608276000129184],[-81.39121100028848,28.60842899999286],[-81.39081299990522,28.60844999995675],[-81.39040899967418,28.608442999969267],[-81.38982299986826,28.60833800010078],[-81.38954199966088,28.608224000124743],[-81.38952300029261,28.608275000129346],[-81.38950300020112,28.608366000075943],[-81.38942100018535,28.609594000321604],[-81.38950599967586,28.60959800027072],[-81.39109999996039,28.60958299967218],[-81.39149900016857,28.60958299967218],[-81.39322899999723,28.609564999897547],[-81.39390600003975,28.609562999922385]]]},"properties":{"block_id":"120950152023012","school_id":"sch_aspire_academy_charter","kids_est":6,"class":"green","shortest":{"len_m":718.2,"mean_c":37.5,"peak_c":37.5,"dose":44.9},"coolest":{"len_m":718.2,"mean_c":37.5,"peak_c":37.5,"dose":44.9},"delta_mean_c":0.0,"delta_dose_pct":0,"distance_mi":0.202,"status_now":"walk","status_rec":"walk","reason":"Shortest route already under threshold (dose 45).","safe_until_hour":null}},{"type":"Feature","geometry":{"type":"Polygon","coordinates":[[[-81.39305999994284,28.62123399992963],[-81.39305900011792,28.621021999883382],[-81.39305800029302,28.62088200024306],[-81.39305400009506,28.62040499971231],[-81.39304400004933,28.61897599989668],[-81.39304200039949,28.618619000230908],[-81.39304599969914,28.61850000007259],[-81.3929369999192,28.61849800026755],[-81.39288199966761,28.618493999868807],[-81.39239299994607,28.618466000227897],[-81.39222999973944,28.618462999730788],[-81.39222899991452,28.618945999799212],[-81.39222899991452,28.618959999950903],[-81.39223700031044,28.619386999738477],[-81.39224499980806,28.62039799973297],[-81.39224900000602,28.62088200024306],[-81.39224999983092,28.621019000247887],[-81.39225099965583,28.62121699966274],[-81.39297499955401,28.621228999758607],[-81.39305999994284,28.62123399992963]]]},"properties":{"block_id":"120950152031036","school_id":"sch_aspire_academy_charter","kids_est":0,"class":"red","shortest":{"len_m":3507.0,"mean_c":37.59,"peak_c":37.7,"dose":224.3},"coolest":{"len_m":3507.5,"mean_c":37.59,"peak_c":37.7,"dose":224.2},"delta_mean_c":0.0,"delta_dose_pct":0,"distance_mi":0.768,"status_now":"walk","status_rec":"bus_eligible","reason":"Coolest route mean 37.6C exceeds threshold (110 C-min dose, actual 224).","safe_until_hour":"11:00"}},{"type":"Feature","geometry":{"type":"Polygon","coordinates":[[[-81.3974579997586,28.606004000379073],[-81.39746299978148,28.60588000001039],[-81.3962810001239,28.605852000161267],[-81.39596800012944,28.605866999715207],[-81.3956209997998,28.605874999897026],[-81.39515800001755,28.60595700014841],[-81.39449900041669,28.606218000022423],[-81.39411899957678,28.60645200036443],[-81.39365199959654,28.606867000373363],[-81.39344200043257,28.60711600022279],[-81.39320899990575,28.60737900038886],[-81.39304599969914,28.607568000224536],[-81.3933100001881,28.607767999772225],[-81.39339100037894,28.60784500010382],[-81.39343599968649,28.607906000326416],[-81.39346800037183,28.607971999738783],[-81.39348799956501,28.608042999908665],[-81.39349400031111,28.608115000032],[-81.39347500004453,28.608415000014574],[-81.39346400017386,28.608578999642855],[-81.39347599986945,28.608677000087173],[-81.39350199980872,28.60877099967103],[-81.39355799988522,28.608890999806157],[-81.39374600020619,28.609237000308998],[-81.39390600003975,28.609562999922385],[-81.39407599991907,28.609584999646973],[-81.39442400007363,28.609584999646973],[-81.39570700001353,28.609586999621726],[-81.39575800006716,28.608731999853873],[-81.39582300036449,28.607628999819372],[-81.39582900021226,28.607514999862623],[-81.39505500008538,28.607521999911935],[-81.39502499994813,28.607514999862623],[-81.39498800013823,28.607488999675272],[-81.39497300006961,28.6074650002853],[-81.39496700022184,28.607437000069993],[-81.39498800013823,28.606969000097962],[-81.3949990000089,28.60693599968759],[-81.39501999992528,28.606907000107093],[-81.3950500000625,28.606883999808602],[-81.39508600004751,28.606869999624433],[-81.39512500040559,28.606867000373363],[-81.39626299968224,28.60686400033357],[-81.39631700010891,28.606854000200315],[-81.39632999962939,28.606847000106487],[-81.39636599961439,28.60683099989021],[-81.39643500010968,28.606780999987414],[-81.39648299979025,28.606763999746846],[-81.39653399984388,28.606756999647025],[-81.3974290003446,28.60674200022015],[-81.3974360000173,28.60655699975198],[-81.3974579997586,28.606004000379073]]]},"properties":{"block_id":"120950152023014","school_id":"sch_aspire_academy_charter","kids_est":10,"class":"green","shortest":{"len_m":751.9,"mean_c":37.5,"peak_c":37.5,"dose":47.0},"coolest":{"len_m":751.9,"mean_c":37.5,"peak_c":37.5,"dose":47.0},"delta_mean_c":0.0,"delta_dose_pct":0,"distance_mi":0.086,"status_now":"walk","status_rec":"walk","reason":"Shortest route already under threshold (dose 47).","safe_until_hour":null}}]}